{"type": "FeatureCollection", "properties": {"model_type": "leeway", "times": ["2026-10-07 00:00:00", "2026-10-07 01:00:00", "2026-10-07 02:00:00", "2026-10-07 03:00:00", "2026-10-07 04:00:00", "2026-10-07 05:00:00", "2026-10-07 06:00:00", "2026-10-07 07:00:00", "2026-10-07 08:00:00", "2026-10-07 09:00:00", "2026-10-07 10:00:00", "2026-10-07 11:00:00", "2026-10-07 12:00:00", "2026-10-07 13:00:00", "2026-10-07 14:00:00", "2026-10-07 15:00:00", "2026-10-07 16:00:00", "2026-10-07 17:00:00", "2026-10-07 18:00:00", "2026-10-07 19:00:00", "2026-10-07 20:00:00", "2026-10-07 21:00:00", "2026-10-07 22:00:00", "2026-10-07 23:00:00", "2026-10-08 00:00:00"], "num_particles": 300, "num_steps": 25}, "features": [{"type": "Feature", "properties": {"type": "trajectory", "particle": 0}, "geometry": {"type": "LineString", "coordinates": [[120.75732, 21.6749], [120.76866, 21.68041], [120.78562, 21.68703], [120.80681, 21.69355], [120.82756, 21.69943], [120.84415, 21.70553], [120.85625, 21.71348], [120.86519, 21.7241], [120.87286, 21.73625], [120.88092, 21.74808], [120.88988, 21.75779], [120.8986, 21.76334], [120.90566, 21.76427], [120.91001, 21.76279], [120.91314, 21.76159], [120.91647, 21.762], [120.92023, 21.76434], [120.92379, 21.76875], [120.92677, 21.77469], [120.92841, 21.78096], [120.92796, 21.78716], [120.92513, 21.79321], [120.92049, 21.79924], [120.91576, 21.80555], [120.91333, 21.81203]]}}, {"type": "Feature", "properties": {"type": "trajectory", "particle": 6}, "geometry": {"type": "LineString", "coordinates": [[120.77123, 21.68339], [120.78346, 21.68671], [120.80138, 21.69133], [120.82221, 21.69655], [120.84103, 21.7021], [120.85645, 21.70848], [120.86861, 21.71714], [120.87892, 21.72859], [120.88915, 21.74118], [120.9003, 21.75241], [120.91117, 21.76008], [120.91891, 21.76323], [120.92354, 21.76303], [120.92612, 21.76147], [120.92864, 21.76067], [120.93243, 21.76155], [120.93738, 21.76424], [120.94264, 21.76869], [120.94764, 21.77436], [120.95148, 21.7801], [120.95318, 21.78549], [120.95206, 21.79052], [120.94845, 21.79563], [120.94393, 21.80147], [120.94099, 21.80838]]}}, {"type": "Feature", "properties": {"type": "trajectory", "particle": 12}, "geometry": {"type": "LineString", "coordinates": [[120.77814, 21.69741], [120.79073, 21.69949], [120.80912, 21.7029], [120.8286, 21.70755], [120.84603, 21.71308], [120.86062, 21.71996], [120.87246, 21.72926], [120.8826, 21.74115], [120.89246, 21.75392], [120.90278, 21.76515], [120.91189, 21.77262], [120.91802, 21.77571], [120.92158, 21.77541], [120.92365, 21.77348], [120.92593, 21.77193], [120.92925, 21.77175], [120.93333, 21.77326], [120.93738, 21.77666], [120.94094, 21.78145], [120.94321, 21.78642], [120.94334, 21.79115], [120.94084, 21.79561], [120.93618, 21.80011], [120.93108, 21.80505], [120.92798, 21.81055]]}}, {"type": "Feature", "properties": {"type": "trajectory", "particle": 18}, "geometry": {"type": "LineString", "coordinates": [[120.78473, 21.69129], [120.79573, 21.6928], [120.81207, 21.69587], [120.8295, 21.70018], [120.84531, 21.70499], [120.8583, 21.71068], [120.86836, 21.71838], [120.87647, 21.72846], [120.88405, 21.73938], [120.89213, 21.74903], [120.90066, 21.75567], [120.90795, 21.75777], [120.91245, 21.75587], [120.91443, 21.75193], [120.91541, 21.74841], [120.91685, 21.74663], [120.91911, 21.74682], [120.92162, 21.74882], [120.92387, 21.75207], [120.92509, 21.75548], [120.92464, 21.75871], [120.9222, 21.76166], [120.91837, 21.76442], [120.91457, 21.76723], [120.91257, 21.77057]]}}, {"type": "Feature", "properties": {"type": "trajectory", "particle": 24}, "geometry": {"type": "LineString", "coordinates": [[120.76868, 21.68851], [120.78062, 21.69409], [120.79838, 21.70075], [120.81936, 21.70779], [120.83797, 21.71538], [120.85316, 21.72415], [120.86492, 21.73519], [120.87401, 21.74864], [120.88161, 21.76312], [120.88875, 21.77688], [120.89537, 21.7882], [120.90072, 21.79539], [120.90454, 21.79825], [120.9073, 21.79837], [120.91006, 21.79778], [120.91271, 21.79765], [120.91464, 21.79899], [120.91521, 21.80276], [120.9147, 21.80837], [120.91277, 21.81407], [120.90907, 21.81912], [120.90369, 21.82331], [120.89741, 21.82669], [120.89181, 21.83013], [120.88885, 21.83426]]}}, {"type": "Feature", "properties": {"type": "trajectory", "particle": 30}, "geometry": {"type": "LineString", "coordinates": [[120.76566, 21.70248], [120.7744, 21.70335], [120.7887, 21.70541], [120.80679, 21.70775], [120.82401, 21.70994], [120.83731, 21.71243], [120.8459, 21.71602], [120.85014, 21.72136], [120.8515, 21.72804], [120.85235, 21.7353], [120.85501, 21.74204], [120.85952, 21.7459], [120.86491, 21.74535], [120.86975, 21.74074], [120.87328, 21.73459], [120.87576, 21.72939], [120.87753, 21.72602], [120.87857, 21.72421], [120.87859, 21.72357], [120.8773, 21.72352], [120.87457, 21.72409], [120.87082, 21.72522], [120.86744, 21.72668], [120.86571, 21.72795], [120.86661, 21.72886]]}}, {"type": "Feature", "properties": {"type": "trajectory", "particle": 36}, "geometry": {"type": "LineString", "coordinates": [[120.76343, 21.67901], [120.77588, 21.68319], [120.79401, 21.68859], [120.81591, 21.69421], [120.8362, 21.69987], [120.85276, 21.70613], [120.8656, 21.71464], [120.87634, 21.72607], [120.88692, 21.73885], [120.89852, 21.75047], [120.91021, 21.75871], [120.91884, 21.76239], [120.92419, 21.76273], [120.92738, 21.76179], [120.93054, 21.76171], [120.93507, 21.76337], [120.94085, 21.76686], [120.94701, 21.77211], [120.95293, 21.77857], [120.9577, 21.78508], [120.96024, 21.79121], [120.95979, 21.79699], [120.9566, 21.80294], [120.95234, 21.8093], [120.94942, 21.81662]]}}, {"type": "Feature", "properties": {"type": "trajectory", "particle": 42}, "geometry": {"type": "LineString", "coordinates": [[120.7823, 21.69244], [120.79421, 21.69003], [120.81145, 21.68939], [120.8298, 21.69021], [120.84658, 21.69162], [120.86057, 21.69361], [120.87164, 21.69728], [120.88168, 21.70383], [120.89297, 21.71157], [120.90668, 21.71736], [120.91983, 21.71847], [120.92934, 21.71505], [120.93444, 21.70901], [120.93604, 21.70268], [120.9369, 21.69834], [120.93981, 21.69701], [120.94573, 21.69804], [120.95398, 21.70037], [120.96339, 21.70322], [120.97271, 21.70545], [120.98045, 21.70668], [120.98515, 21.7068], [120.98656, 21.70635], [120.98557, 21.70626], [120.98401, 21.70798]]}}, {"type": "Feature", "properties": {"type": "trajectory", "particle": 48}, "geometry": {"type": "LineString", "coordinates": [[120.76649, 21.69268], [120.77549, 21.69059], [120.78992, 21.69003], [120.80824, 21.68991], [120.82574, 21.68954], [120.83949, 21.689], [120.84862, 21.68904], [120.85402, 21.69054], [120.85798, 21.69333], [120.86328, 21.69629], [120.87193, 21.69781], [120.88268, 21.69538], [120.89198, 21.68826], [120.8959, 21.67894], [120.89571, 21.67164], [120.89572, 21.66768], [120.89721, 21.66597], [120.89964, 21.66526], [120.90225, 21.66491], [120.90474, 21.66401], [120.90672, 21.66227], [120.90777, 21.65947], [120.90801, 21.6559], [120.9078, 21.65224], [120.9076, 21.65]]}}, {"type": "Feature", "properties": {"type": "trajectory", "particle": 54}, "geometry": {"type": "LineString", "coordinates": [[120.77448, 21.69288], [120.78596, 21.69374], [120.80312, 21.69601], [120.82276, 21.69914], [120.84042, 21.70272], [120.8548, 21.70707], [120.86583, 21.71342], [120.87478, 21.72234], [120.88343, 21.73237], [120.89306, 21.74121], [120.90363, 21.74694], [120.91247, 21.74803], [120.91802, 21.74535], [120.92069, 21.7411], [120.92236, 21.73778], [120.925, 21.7366], [120.92907, 21.73752], [120.93398, 21.74015], [120.93899, 21.74383], [120.94326, 21.74747], [120.94583, 21.75071], [120.94601, 21.75347], [120.94412, 21.75604], [120.94141, 21.75893], [120.93975, 21.7629]]}}, {"type": "Feature", "properties": {"type": "trajectory", "particle": 60}, "geometry": {"type": "LineString", "coordinates": [[120.76329, 21.6848], [120.77177, 21.68501], [120.78567, 21.68663], [120.80348, 21.68849], [120.82137, 21.68959], [120.8353, 21.69031], [120.84426, 21.6915], [120.84903, 21.69423], [120.85186, 21.69857], [120.85563, 21.70355], [120.86237, 21.7074], [120.87131, 21.70761], [120.88017, 21.703], [120.88605, 21.69496], [120.88799, 21.68788], [120.88911, 21.68399], [120.89098, 21.68252], [120.89344, 21.68222], [120.89583, 21.6825], [120.8979, 21.6827], [120.89947, 21.68268], [120.90039, 21.68216], [120.90099, 21.68112], [120.90167, 21.67965], [120.90278, 21.67862]]}}, {"type": "Feature", "properties": {"type": "trajectory", "particle": 66}, "geometry": {"type": "LineString", "coordinates": [[120.77207, 21.68821], [120.78253, 21.68629], [120.79844, 21.68599], [120.81754, 21.68641], [120.83505, 21.68706], [120.84924, 21.68778], [120.85957, 21.68943], [120.86737, 21.69298], [120.87526, 21.69795], [120.88556, 21.70245], [120.89866, 21.70411], [120.91187, 21.70095], [120.92016, 21.694], [120.92252, 21.68656], [120.92253, 21.68154], [120.9241, 21.67964], [120.92825, 21.67993], [120.93433, 21.68128], [120.9413, 21.68295], [120.94821, 21.68401], [120.9539, 21.68418], [120.95726, 21.68334], [120.95819, 21.6819], [120.9575, 21.6806], [120.95651, 21.68078]]}}, {"type": "Feature", "properties": {"type": "trajectory", "particle": 72}, "geometry": {"type": "LineString", "coordinates": [[120.7535, 21.69014], [120.76136, 21.69361], [120.77477, 21.69812], [120.79218, 21.70262], [120.81068, 21.7057], [120.82507, 21.70821], [120.83356, 21.7114], [120.83641, 21.71621], [120.83521, 21.72275], [120.83291, 21.73087], [120.83286, 21.73973], [120.83571, 21.74666], [120.84077, 21.74953], [120.84679, 21.74784], [120.85236, 21.74335], [120.85651, 21.7386], [120.8588, 21.73505], [120.8592, 21.73289], [120.8576, 21.73202], [120.85379, 21.73207], [120.84782, 21.73326], [120.84074, 21.73577], [120.83472, 21.73933], [120.8315, 21.74302], [120.83234, 21.74607]]}}, {"type": "Feature", "properties": {"type": "trajectory", "particle": 78}, "geometry": {"type": "LineString", "coordinates": [[120.78605, 21.6868], [120.79723, 21.68736], [120.81351, 21.68963], [120.83083, 21.69322], [120.84672, 21.69725], [120.85989, 21.70184], [120.87019, 21.70839], [120.879, 21.71754], [120.88805, 21.7276], [120.89835, 21.73607], [120.90915, 21.74095], [120.91724, 21.74116], [120.92189, 21.73791], [120.92362, 21.73335], [120.92445, 21.72986], [120.92641, 21.72861], [120.93008, 21.72946], [120.93479, 21.73189], [120.93972, 21.73522], [120.94399, 21.73841], [120.94663, 21.74113], [120.9469, 21.7433], [120.94509, 21.74521], [120.94242, 21.74734], [120.94063, 21.75047]]}}, {"type": "Feature", "properties": {"type": "trajectory", "particle": 84}, "geometry": {"type": "LineString", "coordinates": [[120.76596, 21.67963], [120.77558, 21.68426], [120.79076, 21.69008], [120.81006, 21.69592], [120.82829, 21.70137], [120.84262, 21.70696], [120.85249, 21.71404], [120.8587, 21.7233], [120.86282, 21.73389], [120.86668, 21.74454], [120.87163, 21.75394], [120.87722, 21.75998], [120.88255, 21.76158], [120.88659, 21.75952], [120.88927, 21.7563], [120.89108, 21.75392], [120.89225, 21.75328], [120.89256, 21.7547], [120.89182, 21.75777], [120.88958, 21.76148], [120.88553, 21.7656], [120.87993, 21.77007], [120.87401, 21.77485], [120.86948, 21.77979], [120.86824, 21.78474]]}}, {"type": "Feature", "properties": {"type": "trajectory", "particle": 90}, "geometry": {"type": "LineString", "coordinates": [[120.7755, 21.69208], [120.78499, 21.69226], [120.8, 21.69392], [120.8181, 21.69624], [120.83444, 21.69874], [120.84744, 21.70142], [120.85651, 21.70546], [120.8626, 21.71168], [120.86744, 21.71908], [120.87285, 21.72601], [120.88, 21.73095], [120.88799, 21.73187], [120.89507, 21.72799], [120.89907, 21.72087], [120.90005, 21.71405], [120.90062, 21.7099], [120.90233, 21.70839], [120.90505, 21.70854], [120.90804, 21.70965], [120.91065, 21.71092], [120.91234, 21.71217], [120.91274, 21.71313], [120.91238, 21.71373], [120.91209, 21.7139], [120.91268, 21.71416]]}}, {"type": "Feature", "properties": {"type": "trajectory", "particle": 96}, "geometry": {"type": "LineString", "coordinates": [[120.76895, 21.68631], [120.7775, 21.68768], [120.7915, 21.69044], [120.80945, 21.69342], [120.82642, 21.69608], [120.83967, 21.69855], [120.84832, 21.70191], [120.85315, 21.70728], [120.85592, 21.71405], [120.85885, 21.721], [120.86388, 21.7268], [120.87054, 21.72918], [120.87724, 21.72692], [120.88199, 21.72102], [120.88435, 21.71469], [120.8859, 21.71044], [120.88769, 21.70851], [120.88966, 21.70802], [120.89128, 21.70846], [120.89219, 21.70926], [120.89214, 21.71038], [120.89114, 21.71159], [120.89002, 21.71266], [120.88968, 21.71324], [120.89079, 21.71355]]}}, {"type": "Feature", "properties": {"type": "trajectory", "particle": 102}, "geometry": {"type": "LineString", "coordinates": [[120.76468, 21.68429], [120.7731, 21.68336], [120.78689, 21.68395], [120.80454, 21.68485], [120.82212, 21.68509], [120.83586, 21.68491], [120.84472, 21.68497], [120.8494, 21.68619], [120.85212, 21.68858], [120.8558, 21.6914], [120.8629, 21.69327], [120.87247, 21.69168], [120.88116, 21.68564], [120.88544, 21.67728], [120.88608, 21.67049], [120.88655, 21.66673], [120.88795, 21.66502], [120.88988, 21.66421], [120.89159, 21.66367], [120.89282, 21.66269], [120.8935, 21.66106], [120.89352, 21.65855], [120.89322, 21.65536], [120.893, 21.65205], [120.89315, 21.64999]]}}, {"type": "Feature", "properties": {"type": "trajectory", "particle": 108}, "geometry": {"type": "LineString", "coordinates": [[120.78452, 21.68765], [120.79565, 21.69247], [120.81219, 21.69865], [120.82982, 21.70592], [120.84563, 21.71381], [120.85872, 21.72287], [120.86897, 21.73411], [120.87696, 21.74758], [120.88358, 21.76176], [120.88962, 21.7749], [120.89497, 21.78548], [120.89901, 21.79196], [120.90172, 21.79404], [120.90334, 21.79315], [120.90466, 21.79138], [120.90558, 21.79002], [120.90559, 21.7901], [120.90412, 21.79262], [120.90119, 21.79717], [120.89626, 21.8024], [120.8895, 21.80745], [120.88138, 21.81221], [120.87307, 21.81682], [120.86642, 21.82141], [120.86348, 21.82582]]}}, {"type": "Feature", "properties": {"type": "trajectory", "particle": 114}, "geometry": {"type": "LineString", "coordinates": [[120.78513, 21.68096], [120.7929, 21.68195], [120.80598, 21.68455], [120.82114, 21.68804], [120.83517, 21.69146], [120.84625, 21.69462], [120.85344, 21.69848], [120.85744, 21.70416], [120.85977, 21.71097], [120.86231, 21.71753], [120.8668, 21.72262], [120.87271, 21.72414], [120.87845, 21.72102], [120.882, 21.71434], [120.88306, 21.70743], [120.88344, 21.70278], [120.8842, 21.70045], [120.88523, 21.69933], [120.8858, 21.69886], [120.88553, 21.69862], [120.88419, 21.69869], [120.88197, 21.69896], [120.87994, 21.69922], [120.87905, 21.699], [120.87977, 21.69837]]}}, {"type": "Feature", "properties": {"type": "trajectory", "particle": 120}, "geometry": {"type": "LineString", "coordinates": [[120.76856, 21.69727], [120.77721, 21.69872], [120.79146, 21.70143], [120.8095, 21.70444], [120.82623, 21.70738], [120.83914, 21.71056], [120.84747, 21.71485], [120.85162, 21.72091], [120.85298, 21.72822], [120.85381, 21.736], [120.85629, 21.74318], [120.86047, 21.74746], [120.86543, 21.74738], [120.86984, 21.74326], [120.87302, 21.73756], [120.8752, 21.73268], [120.87658, 21.72952], [120.8771, 21.72791], [120.87647, 21.72749], [120.87437, 21.72769], [120.87064, 21.72854], [120.86584, 21.73006], [120.86145, 21.73203], [120.85892, 21.7339], [120.85934, 21.73536]]}}, {"type": "Feature", "properties": {"type": "trajectory", "particle": 126}, "geometry": {"type": "LineString", "coordinates": [[120.76329, 21.67866], [120.77125, 21.67968], [120.78455, 21.68212], [120.80177, 21.68472], [120.81941, 21.68633], [120.8331, 21.68736], [120.84168, 21.68862], [120.84578, 21.69117], [120.84754, 21.69521], [120.85, 21.7001], [120.85581, 21.70434], [120.8641, 21.70514], [120.87267, 21.70118], [120.87865, 21.69373], [120.88097, 21.68702], [120.88229, 21.68326], [120.88398, 21.68177], [120.88591, 21.68132], [120.88746, 21.68135], [120.88834, 21.68131], [120.88844, 21.68117], [120.88782, 21.68076], [120.88721, 21.68005], [120.88727, 21.679], [120.88834, 21.67825]]}}, {"type": "Feature", "properties": {"type": "trajectory", "particle": 132}, "geometry": {"type": "LineString", "coordinates": [[120.7674, 21.68623], [120.77583, 21.68631], [120.78968, 21.68785], [120.80744, 21.68966], [120.82458, 21.69103], [120.83797, 21.6921], [120.84663, 21.69374], [120.85136, 21.69704], [120.85437, 21.70199], [120.85812, 21.70726], [120.86456, 21.71122], [120.87299, 21.71151], [120.88125, 21.707], [120.88667, 21.69902], [120.88854, 21.69161], [120.88949, 21.68745], [120.89115, 21.68578], [120.89339, 21.68532], [120.89556, 21.68546], [120.89737, 21.68558], [120.89863, 21.68555], [120.8992, 21.68509], [120.89953, 21.68414], [120.90007, 21.6827], [120.90113, 21.68154]]}}, {"type": "Feature", "properties": {"type": "trajectory", "particle": 138}, "geometry": {"type": "LineString", "coordinates": [[120.77129, 21.69174], [120.78017, 21.69351], [120.79462, 21.69661], [120.81272, 21.70008], [120.82941, 21.70345], [120.84237, 21.70704], [120.85098, 21.71187], [120.85584, 21.71862], [120.85844, 21.7266], [120.86079, 21.7347], [120.86471, 21.74174], [120.8699, 21.74551], [120.87526, 21.74479], [120.87937, 21.74031], [120.88182, 21.73477], [120.88342, 21.73051], [120.88467, 21.72817], [120.88546, 21.72748], [120.88542, 21.72799], [120.88418, 21.72901], [120.8815, 21.7305], [120.87768, 21.73236], [120.87392, 21.73442], [120.87154, 21.73631], [120.87168, 21.73795]]}}, {"type": "Feature", "properties": {"type": "trajectory", "particle": 144}, "geometry": {"type": "LineString", "coordinates": [[120.7649, 21.70104], [120.77341, 21.70626], [120.78733, 21.71249], [120.80482, 21.71873], [120.82151, 21.7248], [120.83425, 21.73156], [120.84216, 21.7395], [120.84478, 21.74877], [120.84277, 21.75916], [120.83849, 21.77097], [120.83488, 21.78394], [120.83331, 21.79584], [120.83442, 21.80443], [120.83757, 21.80782], [120.84182, 21.80651], [120.84549, 21.80194], [120.84658, 21.79647], [120.84401, 21.79278], [120.83792, 21.79182], [120.82826, 21.79313], [120.81531, 21.79659], [120.80107, 21.8025], [120.78922, 21.81025], [120.78114, 21.81798], [120.77824, 21.82445]]}}, {"type": "Feature", "properties": {"type": "trajectory", "particle": 150}, "geometry": {"type": "LineString", "coordinates": [[120.77977, 21.6816], [120.79191, 21.68298], [120.80959, 21.6859], [120.82869, 21.68999], [120.8462, 21.69449], [120.86079, 21.69959], [120.87247, 21.70679], [120.88301, 21.71691], [120.89435, 21.72808], [120.90731, 21.73737], [120.91894, 21.74217], [120.92705, 21.74261], [120.93145, 21.74022], [120.93331, 21.7371], [120.93502, 21.73536], [120.93853, 21.73583], [120.94411, 21.7383], [120.95087, 21.74229], [120.95796, 21.74714], [120.96435, 21.75172], [120.9688, 21.75565], [120.97031, 21.75891], [120.96892, 21.76207], [120.96593, 21.7659], [120.96358, 21.77139]]}}, {"type": "Feature", "properties": {"type": "trajectory", "particle": 156}, "geometry": {"type": "LineString", "coordinates": [[120.77878, 21.67592], [120.78977, 21.67994], [120.8063, 21.68535], [120.82492, 21.69155], [120.84199, 21.69791], [120.85598, 21.70469], [120.86671, 21.71344], [120.87543, 21.72478], [120.88371, 21.73716], [120.89258, 21.74835], [120.9019, 21.75655], [120.90957, 21.76024], [120.91427, 21.76005], [120.91654, 21.75796], [120.91806, 21.75629], [120.92017, 21.75621], [120.92299, 21.75797], [120.92583, 21.76158], [120.92816, 21.76652], [120.92924, 21.77166], [120.92832, 21.77664], [120.92509, 21.78137], [120.92016, 21.78602], [120.91515, 21.79093], [120.91223, 21.79659]]}}, {"type": "Feature", "properties": {"type": "trajectory", "particle": 162}, "geometry": {"type": "LineString", "coordinates": [[120.77929, 21.69011], [120.79061, 21.69296], [120.80765, 21.69716], [120.82635, 21.70237], [120.84311, 21.7081], [120.85686, 21.71482], [120.86752, 21.72364], [120.87602, 21.73486], [120.88374, 21.74699], [120.89165, 21.758], [120.8997, 21.76614], [120.9065, 21.76982], [120.91078, 21.76947], [120.91302, 21.76689], [120.9146, 21.76442], [120.91652, 21.76331], [120.91879, 21.76399], [120.92082, 21.76667], [120.92223, 21.77082], [120.92232, 21.77528], [120.92046, 21.77968], [120.91647, 21.7839], [120.91107, 21.78801], [120.90593, 21.79228], [120.90316, 21.7971]]}}, {"type": "Feature", "properties": {"type": "trajectory", "particle": 168}, "geometry": {"type": "LineString", "coordinates": [[120.79018, 21.69067], [120.80515, 21.69383], [120.82425, 21.69884], [120.84344, 21.70547], [120.86088, 21.71333], [120.87626, 21.72317], [120.8903, 21.73626], [120.90451, 21.75248], [120.91898, 21.76759], [120.93146, 21.77845], [120.94025, 21.78517], [120.94486, 21.78845], [120.94659, 21.78976], [120.94792, 21.79079], [120.95135, 21.79287], [120.95744, 21.7963], [120.96518, 21.80111], [120.97324, 21.80736], [120.98124, 21.81442], [120.98817, 21.82101], [120.99265, 21.8265], [120.99351, 21.83104], [120.99066, 21.83552], [120.98549, 21.8409], [120.98065, 21.84818]]}}, {"type": "Feature", "properties": {"type": "trajectory", "particle": 174}, "geometry": {"type": "LineString", "coordinates": [[120.76878, 21.68889], [120.77589, 21.68811], [120.78836, 21.68884], [120.80465, 21.68988], [120.82077, 21.69026], [120.83308, 21.69011], [120.84035, 21.69015], [120.84296, 21.6913], [120.84282, 21.69373], [120.84289, 21.69699], [120.84633, 21.69989], [120.85297, 21.69966], [120.8604, 21.69478], [120.86553, 21.68666], [120.86761, 21.67904], [120.86845, 21.67397], [120.869, 21.67085], [120.86909, 21.66846], [120.86806, 21.66626], [120.8656, 21.66381], [120.86166, 21.66121], [120.85679, 21.65848], [120.85249, 21.65569], [120.85001, 21.65286], [120.84977, 21.65079]]}}, {"type": "Feature", "properties": {"type": "trajectory", "particle": 180}, "geometry": {"type": "LineString", "coordinates": [[120.78669, 21.68447], [120.79622, 21.68508], [120.81091, 21.68738], [120.82699, 21.69084], [120.84182, 21.69452], [120.85386, 21.69837], [120.86258, 21.70359], [120.86904, 21.71106], [120.87484, 21.71951], [120.88142, 21.72697], [120.88943, 21.7319], [120.89774, 21.73247], [120.90437, 21.72828], [120.90711, 21.7217], [120.90728, 21.71596], [120.90755, 21.71277], [120.90913, 21.712], [120.91174, 21.71281], [120.91456, 21.7145], [120.91689, 21.71625], [120.9181, 21.71784], [120.9178, 21.71908], [120.91651, 21.71995], [120.91519, 21.72047], [120.91484, 21.72118]]}}, {"type": "Feature", "properties": {"type": "trajectory", "particle": 186}, "geometry": {"type": "LineString", "coordinates": [[120.77741, 21.67868], [120.7851, 21.67827], [120.79803, 21.67952], [120.81425, 21.68129], [120.8294, 21.68287], [120.84134, 21.68393], [120.84892, 21.68513], [120.85276, 21.68737], [120.85485, 21.69063], [120.85786, 21.69413], [120.86405, 21.69654], [120.87254, 21.69537], [120.88027, 21.68964], [120.8838, 21.68139], [120.88375, 21.67453], [120.88338, 21.6706], [120.88376, 21.6687], [120.88445, 21.66762], [120.88467, 21.66674], [120.88409, 21.66546], [120.88259, 21.6637], [120.88026, 21.66135], [120.87791, 21.65856], [120.87629, 21.65567], [120.87582, 21.65372]]}}, {"type": "Feature", "properties": {"type": "trajectory", "particle": 192}, "geometry": {"type": "LineString", "coordinates": [[120.76363, 21.6733], [120.77123, 21.67539], [120.78416, 21.67888], [120.801, 21.68245], [120.81844, 21.68487], [120.83195, 21.6866], [120.84029, 21.68843], [120.84398, 21.6915], [120.84512, 21.6961], [120.84682, 21.70172], [120.85167, 21.70682], [120.85905, 21.7087], [120.867, 21.70591], [120.87302, 21.69938], [120.87611, 21.69284], [120.87788, 21.68911], [120.87964, 21.68766], [120.88139, 21.68726], [120.88255, 21.68736], [120.88283, 21.68754], [120.88213, 21.68786], [120.88067, 21.68823], [120.87945, 21.68854], [120.87931, 21.68849], [120.88066, 21.68839]]}}, {"type": "Feature", "properties": {"type": "trajectory", "particle": 198}, "geometry": {"type": "LineString", "coordinates": [[120.7682, 21.69124], [120.77994, 21.69647], [120.79752, 21.70276], [120.81824, 21.70946], [120.83672, 21.71669], [120.85175, 21.7251], [120.86325, 21.73568], [120.87188, 21.74861], [120.8788, 21.76257], [120.88515, 21.77595], [120.89112, 21.78716], [120.89608, 21.79443], [120.89995, 21.79725], [120.90289, 21.79681], [120.90556, 21.7955], [120.90784, 21.79464], [120.90924, 21.7953], [120.90921, 21.79849], [120.90781, 21.80376], [120.90488, 21.80931], [120.90025, 21.81436], [120.89413, 21.8187], [120.88743, 21.82264], [120.88181, 21.82667], [120.87926, 21.83101]]}}, {"type": "Feature", "properties": {"type": "trajectory", "particle": 204}, "geometry": {"type": "LineString", "coordinates": [[120.78139, 21.68298], [120.79249, 21.68563], [120.80914, 21.68974], [120.82729, 21.69489], [120.84386, 21.70036], [120.85749, 21.70643], [120.86802, 21.71453], [120.87666, 21.72517], [120.88497, 21.73677], [120.89396, 21.74707], [120.90345, 21.75426], [120.91103, 21.75688], [120.91562, 21.75569], [120.91771, 21.75268], [120.919, 21.75022], [120.92098, 21.7495], [120.92388, 21.75069], [120.92704, 21.75368], [120.92989, 21.75789], [120.93167, 21.76222], [120.93159, 21.76633], [120.92926, 21.77014], [120.92522, 21.77381], [120.92099, 21.7777], [120.91854, 21.78235]]}}, {"type": "Feature", "properties": {"type": "trajectory", "particle": 210}, "geometry": {"type": "LineString", "coordinates": [[120.76715, 21.68754], [120.77557, 21.69059], [120.78954, 21.69487], [120.80753, 21.69928], [120.82475, 21.70319], [120.83797, 21.70714], [120.84641, 21.71218], [120.85057, 21.71904], [120.85191, 21.72724], [120.85263, 21.73599], [120.85497, 21.74424], [120.85896, 21.74971], [120.86376, 21.75088], [120.86816, 21.748], [120.87148, 21.74335], [120.87376, 21.73923], [120.87505, 21.73666], [120.87518, 21.73568], [120.87393, 21.73599], [120.87094, 21.73702], [120.86609, 21.73882], [120.86002, 21.74142], [120.85441, 21.74464], [120.85087, 21.7479], [120.85078, 21.75073]]}}, {"type": "Feature", "properties": {"type": "trajectory", "particle": 216}, "geometry": {"type": "LineString", "coordinates": [[120.76585, 21.68658], [120.77483, 21.68792], [120.78931, 21.6906], [120.80777, 21.6935], [120.82553, 21.69596], [120.83943, 21.69828], [120.84868, 21.70158], [120.85416, 21.70698], [120.85777, 21.71387], [120.86172, 21.72087], [120.86782, 21.72657], [120.87543, 21.72868], [120.88279, 21.7261], [120.88779, 21.71997], [120.89011, 21.71369], [120.89171, 21.70975], [120.89384, 21.70826], [120.89645, 21.70834], [120.89897, 21.70944], [120.90103, 21.7109], [120.90227, 21.71251], [120.90246, 21.71398], [120.90221, 21.71512], [120.90233, 21.71574], [120.90348, 21.71625]]}}, {"type": "Feature", "properties": {"type": "trajectory", "particle": 222}, "geometry": {"type": "LineString", "coordinates": [[120.76421, 21.67893], [120.77655, 21.67986], [120.79445, 21.68224], [120.81598, 21.68502], [120.83604, 21.68791], [120.85254, 21.6911], [120.8653, 21.69581], [120.87631, 21.70352], [120.88824, 21.71294], [120.90247, 21.72091], [120.91711, 21.72482], [120.92798, 21.72408], [120.93432, 21.72061], [120.93726, 21.71685], [120.9397, 21.71503], [120.94431, 21.71597], [120.95172, 21.71918], [120.96107, 21.72383], [120.97124, 21.72914], [120.98106, 21.73395], [120.98898, 21.7378], [120.99357, 21.74071], [120.99453, 21.74339], [120.99297, 21.74692], [120.99118, 21.75266]]}}, {"type": "Feature", "properties": {"type": "trajectory", "particle": 228}, "geometry": {"type": "LineString", "coordinates": [[120.78555, 21.68549], [120.80024, 21.68557], [120.81973, 21.68752], [120.83957, 21.69113], [120.85777, 21.69559], [120.87344, 21.70127], [120.88727, 21.70986], [120.90163, 21.72194], [120.91778, 21.73366], [120.93304, 21.74033], [120.94497, 21.74236], [120.95198, 21.74102], [120.95478, 21.73843], [120.95594, 21.73655], [120.95865, 21.73675], [120.96474, 21.7393], [120.97404, 21.74373], [120.98529, 21.74943], [120.99742, 21.75566], [121.009, 21.76123], [121.01785, 21.76561], [121.02268, 21.7691], [121.02351, 21.77259], [121.02145, 21.77727], [121.01891, 21.78451]]}}, {"type": "Feature", "properties": {"type": "trajectory", "particle": 234}, "geometry": {"type": "LineString", "coordinates": [[120.7728, 21.68694], [120.78507, 21.686], [120.8029, 21.68663], [120.82328, 21.68818], [120.84182, 21.6902], [120.85718, 21.6927], [120.86925, 21.69688], [120.88001, 21.70406], [120.89197, 21.71266], [120.90636, 21.71949], [120.92023, 21.72174], [120.93033, 21.71948], [120.93591, 21.71465], [120.93813, 21.70963], [120.93983, 21.70662], [120.94379, 21.70646], [120.95073, 21.70864], [120.95984, 21.7122], [120.96996, 21.71634], [120.97986, 21.71989], [120.98799, 21.72241], [120.99286, 21.72388], [120.99414, 21.72493], [120.99286, 21.72663], [120.99111, 21.73043]]}}, {"type": "Feature", "properties": {"type": "trajectory", "particle": 240}, "geometry": {"type": "LineString", "coordinates": [[120.77461, 21.67472], [120.78423, 21.67547], [120.79917, 21.6778], [120.81734, 21.68065], [120.83418, 21.68349], [120.84781, 21.6861], [120.85748, 21.6894], [120.86439, 21.69452], [120.87105, 21.70123], [120.8795, 21.70759], [120.89035, 21.7114], [120.902, 21.71067], [120.91089, 21.70541], [120.91454, 21.69854], [120.9151, 21.69352], [120.91627, 21.69179], [120.91953, 21.6925], [120.92448, 21.69448], [120.93017, 21.69702], [120.93583, 21.69929], [120.94048, 21.70109], [120.94315, 21.70226], [120.94395, 21.70293], [120.94368, 21.70345], [120.94346, 21.70477]]}}, {"type": "Feature", "properties": {"type": "trajectory", "particle": 246}, "geometry": {"type": "LineString", "coordinates": [[120.7796, 21.68657], [120.78835, 21.69002], [120.80264, 21.6948], [120.8196, 21.7002], [120.83492, 21.70567], [120.84691, 21.71152], [120.85502, 21.71875], [120.85963, 21.72782], [120.86184, 21.73785], [120.86335, 21.74785], [120.8657, 21.7568], [120.86884, 21.7627], [120.87224, 21.76435], [120.87515, 21.76214], [120.87726, 21.75813], [120.87849, 21.75434], [120.87869, 21.75189], [120.87758, 21.7512], [120.87492, 21.75202], [120.87034, 21.75364], [120.86364, 21.75604], [120.85555, 21.75933], [120.84795, 21.7634], [120.84269, 21.76764], [120.84151, 21.77138]]}}, {"type": "Feature", "properties": {"type": "trajectory", "particle": 252}, "geometry": {"type": "LineString", "coordinates": [[120.76894, 21.68997], [120.77742, 21.69138], [120.7914, 21.69414], [120.80936, 21.69714], [120.82627, 21.69983], [120.83938, 21.70243], [120.84784, 21.70608], [120.85232, 21.71164], [120.85447, 21.71856], [120.85651, 21.72577], [120.86052, 21.73205], [120.8662, 21.7351], [120.87222, 21.73362], [120.87683, 21.72833], [120.87951, 21.72219], [120.88127, 21.7177], [120.88287, 21.71531], [120.88425, 21.71438], [120.88496, 21.71442], [120.88466, 21.7149], [120.88313, 21.71583], [120.88062, 21.71708], [120.8782, 21.71842], [120.87701, 21.71943], [120.87785, 21.72013]]}}, {"type": "Feature", "properties": {"type": "trajectory", "particle": 258}, "geometry": {"type": "LineString", "coordinates": [[120.76713, 21.70299], [120.77943, 21.70045], [120.79758, 21.6993], [120.81898, 21.69897], [120.83826, 21.69923], [120.854, 21.70023], [120.8662, 21.70327], [120.87666, 21.7092], [120.88776, 21.71648], [120.90105, 21.72228], [120.91518, 21.72414], [120.9259, 21.72123], [120.93226, 21.71542], [120.93507, 21.7092], [120.93707, 21.70495], [120.94112, 21.70367], [120.94812, 21.70483], [120.95737, 21.70744], [120.9677, 21.71067], [120.97793, 21.71333], [120.98651, 21.71498], [120.99193, 21.71554], [120.99381, 21.71561], [120.99312, 21.71623], [120.99181, 21.71893]]}}, {"type": "Feature", "properties": {"type": "trajectory", "particle": 264}, "geometry": {"type": "LineString", "coordinates": [[120.7745, 21.69562], [120.78614, 21.69266], [120.80335, 21.69135], [120.82293, 21.69112], [120.84065, 21.69143], [120.85522, 21.6922], [120.86639, 21.69444], [120.87588, 21.69919], [120.88638, 21.70556], [120.89935, 21.7104], [120.9138, 21.71137], [120.92493, 21.70747], [120.93134, 21.70063], [120.9335, 21.69354], [120.93418, 21.6889], [120.93694, 21.68735], [120.94271, 21.68804], [120.95078, 21.6899], [120.96001, 21.69215], [120.96931, 21.69374], [120.9772, 21.69431], [120.98215, 21.69374], [120.98385, 21.69255], [120.98312, 21.69168], [120.98174, 21.69266]]}}, {"type": "Feature", "properties": {"type": "trajectory", "particle": 270}, "geometry": {"type": "LineString", "coordinates": [[120.78275, 21.68984], [120.79276, 21.69162], [120.80836, 21.69486], [120.82549, 21.69916], [120.84103, 21.70378], [120.85356, 21.70899], [120.86275, 21.71592], [120.86941, 21.72503], [120.87489, 21.73505], [120.88054, 21.74427], [120.88698, 21.75121], [120.89338, 21.75407], [120.89861, 21.75226], [120.90142, 21.74724], [120.90218, 21.74224], [120.90259, 21.73907], [120.90338, 21.73805], [120.9043, 21.73896], [120.90485, 21.7412], [120.90449, 21.74376], [120.90277, 21.74639], [120.89967, 21.7489], [120.89595, 21.75118], [120.89285, 21.7533], [120.89181, 21.75555]]}}, {"type": "Feature", "properties": {"type": "trajectory", "particle": 276}, "geometry": {"type": "LineString", "coordinates": [[120.77015, 21.6919], [120.78164, 21.69386], [120.79884, 21.69713], [120.81927, 21.70096], [120.83759, 21.70519], [120.85242, 21.71023], [120.86367, 21.71726], [120.87252, 21.72684], [120.88068, 21.73757], [120.88947, 21.74736], [120.89904, 21.75436], [120.90773, 21.75683], [120.9135, 21.75527], [120.91657, 21.75179], [120.91866, 21.74894], [120.9214, 21.74795], [120.92514, 21.749], [120.92928, 21.75189], [120.93326, 21.75602], [120.93627, 21.76027], [120.93748, 21.76427], [120.93639, 21.76792], [120.93343, 21.77146], [120.93, 21.77532], [120.92812, 21.78014]]}}, {"type": "Feature", "properties": {"type": "trajectory", "particle": 282}, "geometry": {"type": "LineString", "coordinates": [[120.77288, 21.68539], [120.7849, 21.68542], [120.80248, 21.68698], [120.82271, 21.68937], [120.8411, 21.69217], [120.85629, 21.69543], [120.86813, 21.70047], [120.87851, 21.70849], [120.88964, 21.71777], [120.9028, 21.72544], [120.91609, 21.72902], [120.92589, 21.72797], [120.9315, 21.72403], [120.93388, 21.71954], [120.93565, 21.71678], [120.93933, 21.71668], [120.94557, 21.71882], [120.95358, 21.72242], [120.96232, 21.72671], [120.97067, 21.73057], [120.97725, 21.7336], [120.98078, 21.73575], [120.98113, 21.73761], [120.9794, 21.74008], [120.97765, 21.74439]]}}, {"type": "Feature", "properties": {"type": "trajectory", "particle": 288}, "geometry": {"type": "LineString", "coordinates": [[120.77492, 21.69677], [120.78609, 21.69878], [120.80301, 21.7021], [120.82224, 21.70625], [120.83936, 21.71103], [120.85328, 21.71677], [120.86382, 21.72448], [120.8718, 21.7345], [120.87859, 21.7455], [120.88548, 21.75569], [120.8928, 21.76341], [120.89963, 21.76688], [120.90491, 21.76577], [120.90783, 21.76212], [120.90958, 21.75852], [120.91135, 21.75642], [120.91344, 21.75628], [120.91539, 21.75819], [120.91685, 21.76158], [120.91714, 21.7653], [120.91571, 21.769], [120.91241, 21.77254], [120.90793, 21.77591], [120.90382, 21.77932], [120.90195, 21.78314]]}}, {"type": "Feature", "properties": {"type": "trajectory", "particle": 294}, "geometry": {"type": "LineString", "coordinates": [[120.75856, 21.70068], [120.76764, 21.70107], [120.7823, 21.70267], [120.80084, 21.70453], [120.81961, 21.70568], [120.83406, 21.70695], [120.84341, 21.70926], [120.8483, 21.7135], [120.85054, 21.71932], [120.85271, 21.72577], [120.85714, 21.73156], [120.8636, 21.7342], [120.87065, 21.73225], [120.87639, 21.72641], [120.88007, 21.71972], [120.88277, 21.71482], [120.88536, 21.71217], [120.88793, 21.71107], [120.89007, 21.71103], [120.89149, 21.71145], [120.89201, 21.71226], [120.89166, 21.7132], [120.89127, 21.714], [120.89166, 21.71432], [120.89349, 21.71438]]}}, {"type": "Feature", "properties": {"type": "start", "label": "Start"}, "geometry": {"type": "Point", "coordinates": [120.77138, 21.68917]}}, {"type": "Feature", "properties": {"type": "end_center", "label": "End (mean)"}, "geometry": {"type": "Point", "coordinates": [120.91504, 21.74312]}}, {"type": "Feature", "properties": {"type": "end_hull", "label": "Spread area"}, "geometry": {"type": "Polygon", "coordinates": [[[120.77824, 21.82445], [120.75034, 21.7015], [120.84977, 21.65079], [120.92471, 21.61806], [120.99616, 21.64098], [121.04051, 21.73485], [120.99922, 21.84697], [120.99194, 21.86669], [120.77824, 21.82445]]]}}]}