{"type": "FeatureCollection", "properties": {"model_type": "leeway", "times": ["2026-10-03 00:00:00", "2026-10-03 01:00:00", "2026-10-03 02:00:00", "2026-10-03 03:00:00", "2026-10-03 04:00:00", "2026-10-03 05:00:00", "2026-10-03 06:00:00", "2026-10-03 07:00:00", "2026-10-03 08:00:00", "2026-10-03 09:00:00", "2026-10-03 10:00:00", "2026-10-03 11:00:00", "2026-10-03 12:00:00", "2026-10-03 13:00:00", "2026-10-03 14:00:00", "2026-10-03 15:00:00", "2026-10-03 16:00:00", "2026-10-03 17:00:00", "2026-10-03 18:00:00", "2026-10-03 19:00:00", "2026-10-03 20:00:00", "2026-10-03 21:00:00", "2026-10-03 22:00:00", "2026-10-03 23:00:00", "2026-10-04 00:00:00"], "num_particles": 300, "num_steps": 25}, "features": [{"type": "Feature", "properties": {"type": "trajectory", "particle": 0}, "geometry": {"type": "LineString", "coordinates": [[121.68476, 23.9868], [121.68388, 23.99502], [121.68291, 24.00352], [121.68093, 24.01082], [121.67729, 24.01647], [121.67244, 24.02146], [121.66715, 24.02686], [121.66193, 24.03327], [121.65724, 24.0413], [121.65384, 24.0514], [121.65215, 24.06365], [121.6522, 24.07719], [121.65353, 24.09088], [121.65563, 24.10327], [121.65803, 24.11329], [121.6601, 24.12029], [121.6617, 24.12467], [121.66311, 24.1273], [121.66451, 24.12924], [121.666, 24.13149], [121.66781, 24.13462], [121.67021, 24.13876], [121.67316, 24.14403], [121.67666, 24.15052], [121.68079, 24.15798]]}}, {"type": "Feature", "properties": {"type": "trajectory", "particle": 6}, "geometry": {"type": "LineString", "coordinates": [[121.69891, 23.99529], [121.69787, 24.00148], [121.69681, 24.00787], [121.69473, 24.01297], [121.6909, 24.01642], [121.68576, 24.01929], [121.68011, 24.02267], [121.67446, 24.02722], [121.66934, 24.03354], [121.66556, 24.04203], [121.66353, 24.05268], [121.66332, 24.06463], [121.66451, 24.07674], [121.66651, 24.08761], [121.66896, 24.09624], [121.67128, 24.10179], [121.67319, 24.10459], [121.67487, 24.10552], [121.67646, 24.10565], [121.67804, 24.10607], [121.67979, 24.10741], [121.68196, 24.10988], [121.68451, 24.11363], [121.68751, 24.11869], [121.69112, 24.12483]]}}, {"type": "Feature", "properties": {"type": "trajectory", "particle": 12}, "geometry": {"type": "LineString", "coordinates": [[121.70595, 24.0093], [121.70479, 24.01507], [121.70362, 24.02094], [121.70141, 24.02552], [121.69739, 24.02839], [121.69204, 24.03068], [121.68619, 24.03353], [121.68032, 24.03759], [121.67497, 24.04346], [121.67093, 24.05145], [121.66863, 24.06151], [121.66816, 24.07278], [121.66908, 24.0841], [121.67078, 24.09409], [121.67292, 24.1018], [121.67485, 24.10653], [121.67632, 24.1087], [121.67757, 24.10913], [121.67877, 24.10885], [121.67999, 24.1089], [121.68139, 24.10988], [121.68322, 24.11198], [121.68543, 24.11535], [121.6881, 24.12003], [121.69138, 24.12578]]}}, {"type": "Feature", "properties": {"type": "trajectory", "particle": 18}, "geometry": {"type": "LineString", "coordinates": [[121.71264, 24.00319], [121.70982, 24.00842], [121.70693, 24.01368], [121.70292, 24.01756], [121.69698, 24.01958], [121.68967, 24.02098], [121.68185, 24.02302], [121.67406, 24.02629], [121.66681, 24.03139], [121.66092, 24.03868], [121.6568, 24.0482], [121.6545, 24.05916], [121.65357, 24.0705], [121.65344, 24.08091], [121.65376, 24.08937], [121.65398, 24.09491], [121.65385, 24.09761], [121.65359, 24.09814], [121.65327, 24.09752], [121.65287, 24.09694], [121.65259, 24.09723], [121.65283, 24.09854], [121.65355, 24.10109], [121.65476, 24.10514], [121.65658, 24.11064]]}}, {"type": "Feature", "properties": {"type": "trajectory", "particle": 24}, "geometry": {"type": "LineString", "coordinates": [[121.69631, 24.00041], [121.69501, 24.00912], [121.69378, 24.01802], [121.6916, 24.0257], [121.68781, 24.03181], [121.68282, 24.03736], [121.67744, 24.04341], [121.67214, 24.05058], [121.6674, 24.05944], [121.66392, 24.07029], [121.66215, 24.08308], [121.66213, 24.09694], [121.66338, 24.11059], [121.66518, 24.12249], [121.66708, 24.13202], [121.66859, 24.13881], [121.66958, 24.14337], [121.67039, 24.14657], [121.67129, 24.14942], [121.67242, 24.15276], [121.67403, 24.15695], [121.67631, 24.1621], [121.67921, 24.1683], [121.68273, 24.17556], [121.68693, 24.18361]]}}, {"type": "Feature", "properties": {"type": "trajectory", "particle": 30}, "geometry": {"type": "LineString", "coordinates": [[121.69324, 24.01438], [121.68896, 24.01883], [121.68475, 24.02364], [121.6796, 24.02748], [121.6729, 24.02992], [121.66503, 24.03187], [121.65678, 24.03431], [121.64861, 24.03777], [121.64095, 24.0428], [121.63451, 24.0499], [121.62972, 24.0593], [121.62656, 24.07033], [121.62454, 24.08201], [121.62322, 24.09305], [121.62225, 24.10229], [121.62225, 24.10406]]}}, {"type": "Feature", "properties": {"type": "trajectory", "particle": 36}, "geometry": {"type": "LineString", "coordinates": [[121.69098, 23.99091], [121.69075, 23.99788], [121.69044, 24.00509], [121.68912, 24.01102], [121.68607, 24.01526], [121.68171, 24.01886], [121.67686, 24.02292], [121.672, 24.02808], [121.66766, 24.03497], [121.66464, 24.04401], [121.66337, 24.05518], [121.66391, 24.06761], [121.66583, 24.08014], [121.66856, 24.09134], [121.67173, 24.1002], [121.67473, 24.10596], [121.67725, 24.10904], [121.67953, 24.11034], [121.68175, 24.11094], [121.68398, 24.1119], [121.68644, 24.11378], [121.68931, 24.1168], [121.69255, 24.12106], [121.69625, 24.12657], [121.70058, 24.13305]]}}, {"type": "Feature", "properties": {"type": "trajectory", "particle": 42}, "geometry": {"type": "LineString", "coordinates": [[121.71017, 24.00434], [121.70833, 24.00555], [121.70641, 24.0069], [121.70332, 24.0069], [121.69822, 24.00499], [121.69153, 24.00233], [121.68419, 24.00031], [121.67672, 23.99955], [121.66975, 24.00074], [121.66416, 24.00436], [121.66039, 24.01044], [121.65852, 24.01823], [121.65815, 24.02677], [121.65868, 24.03484], [121.6598, 24.04135], [121.66109, 24.04526], [121.66227, 24.04638], [121.66341, 24.04513], [121.66447, 24.04227], [121.6654, 24.03877], [121.66627, 24.03546], [121.66728, 24.03299], [121.66843, 24.03196], [121.66982, 24.03271], [121.67165, 24.03509]]}}, {"type": "Feature", "properties": {"type": "trajectory", "particle": 48}, "geometry": {"type": "LineString", "coordinates": [[121.6941, 24.00458], [121.68996, 24.00574], [121.68585, 24.00733], [121.68073, 24.00792], [121.6739, 24.00707], [121.66576, 24.00571], [121.65711, 24.00489], [121.64844, 24.0051], [121.64024, 24.0069], [121.63657, 24.0069]]}}, {"type": "Feature", "properties": {"type": "trajectory", "particle": 54}, "geometry": {"type": "LineString", "coordinates": [[121.70222, 24.00478], [121.70011, 24.00893], [121.69798, 24.01324], [121.69481, 24.01635], [121.68991, 24.0179], [121.68369, 24.0189], [121.67695, 24.02046], [121.67018, 24.02317], [121.66393, 24.02766], [121.659, 24.03434], [121.65582, 24.04328], [121.65444, 24.05369], [121.65443, 24.06453], [121.65524, 24.07446], [121.65649, 24.08246], [121.65771, 24.08756], [121.65861, 24.08981], [121.65937, 24.08989], [121.66006, 24.08879], [121.66066, 24.08768], [121.66136, 24.08732], [121.66248, 24.08798], [121.66397, 24.08994], [121.66589, 24.09339], [121.66837, 24.09824]]}}, {"type": "Feature", "properties": {"type": "trajectory", "particle": 60}, "geometry": {"type": "LineString", "coordinates": [[121.69083, 23.9967], [121.6865, 23.9999], [121.68217, 24.00352], [121.67686, 24.00615], [121.66988, 24.00733], [121.66164, 24.00799], [121.65298, 24.00914], [121.64434, 24.01126], [121.64014, 24.01126]]}}, {"type": "Feature", "properties": {"type": "trajectory", "particle": 66}, "geometry": {"type": "LineString", "coordinates": [[121.69977, 24.00011], [121.6968, 24.00118], [121.69384, 24.00261], [121.68981, 24.0029], [121.68397, 24.0016], [121.67673, 23.99977], [121.66893, 23.99853], [121.66109, 23.99841], [121.65372, 24.00001], [121.64764, 24.00388], [121.64334, 24.0102], [121.64095, 24.0183], [121.64002, 24.02733], [121.63991, 24.03612], [121.64036, 24.04357], [121.64101, 24.04856], [121.64151, 24.05079], [121.64198, 24.05055], [121.64235, 24.04856], [121.64256, 24.04585], [121.64272, 24.04331], [121.6431, 24.04149], [121.64371, 24.04097], [121.64465, 24.04215], [121.64606, 24.04494]]}}, {"type": "Feature", "properties": {"type": "trajectory", "particle": 72}, "geometry": {"type": "LineString", "coordinates": [[121.68088, 24.00204], [121.67644, 24.00887], [121.6721, 24.01613], [121.66689, 24.02245], [121.66019, 24.02735], [121.6524, 24.03167], [121.64431, 24.03637], [121.63637, 24.04197], [121.62899, 24.04902], [121.6228, 24.05808], [121.61819, 24.06949], [121.61512, 24.08258], [121.61398, 24.09361]]}}, {"type": "Feature", "properties": {"type": "trajectory", "particle": 78}, "geometry": {"type": "LineString", "coordinates": [[121.71398, 23.9987], [121.71142, 24.00286], [121.70875, 24.00705], [121.70493, 24.00983], [121.69915, 24.01071], [121.6918, 24.01077], [121.68389, 24.01149], [121.67596, 24.01348], [121.66857, 24.01736], [121.66257, 24.02355], [121.65839, 24.03207], [121.65608, 24.04212], [121.6552, 24.05271], [121.65517, 24.06255], [121.65564, 24.07058], [121.65614, 24.07583], [121.65636, 24.07826], [121.65649, 24.07846], [121.65656, 24.07733], [121.65651, 24.07599], [121.65652, 24.07527], [121.65691, 24.07549], [121.65765, 24.07702], [121.65881, 24.08012], [121.66051, 24.0847]]}}, {"type": "Feature", "properties": {"type": "trajectory", "particle": 84}, "geometry": {"type": "LineString", "coordinates": [[121.69355, 23.99153], [121.69031, 23.99896], [121.68704, 24.00668], [121.68282, 24.01326], [121.67696, 24.01829], [121.66992, 24.02276], [121.66251, 24.02771], [121.6552, 24.03369], [121.64848, 24.04126], [121.64303, 24.05091], [121.63928, 24.06277], [121.63724, 24.07611], [121.63638, 24.08986], [121.63625, 24.10263], [121.63644, 24.11325], [121.63644, 24.11464]]}}, {"type": "Feature", "properties": {"type": "trajectory", "particle": 90}, "geometry": {"type": "LineString", "coordinates": [[121.70325, 24.00398], [121.69912, 24.00744], [121.69495, 24.01109], [121.68978, 24.01363], [121.6829, 24.01469], [121.67475, 24.01527], [121.66613, 24.01642], [121.65754, 24.01868], [121.64948, 24.02263], [121.64272, 24.02873], [121.63771, 24.03718], [121.63449, 24.04729], [121.63258, 24.05816], [121.63143, 24.06854], [121.63073, 24.07733], [121.63001, 24.08339], [121.62899, 24.08654], [121.62791, 24.08723], [121.62679, 24.08631], [121.62555, 24.08506], [121.62437, 24.08446], [121.62379, 24.08471], [121.62375, 24.08615], [121.62424, 24.08919], [121.62532, 24.09391]]}}, {"type": "Feature", "properties": {"type": "trajectory", "particle": 96}, "geometry": {"type": "LineString", "coordinates": [[121.69659, 23.99821], [121.69193, 24.00258], [121.6873, 24.00733], [121.68171, 24.01103], [121.67447, 24.01327], [121.66601, 24.01501], [121.65714, 24.01727], [121.64833, 24.02056], [121.64008, 24.02542], [121.63311, 24.03238], [121.62786, 24.04169], [121.62435, 24.05271], [121.62208, 24.06455], [121.62052, 24.07597], [121.61938, 24.0858], [121.61815, 24.09282], [121.61657, 24.09678], [121.61576, 24.09771]]}}, {"type": "Feature", "properties": {"type": "trajectory", "particle": 102}, "geometry": {"type": "LineString", "coordinates": [[121.69225, 23.99619], [121.6878, 23.99821], [121.68333, 24.00067], [121.67785, 24.00214], [121.67065, 24.00215], [121.66217, 24.00166], [121.65321, 24.00169], [121.64427, 24.0027], [121.63582, 24.00373]]}}, {"type": "Feature", "properties": {"type": "trajectory", "particle": 108}, "geometry": {"type": "LineString", "coordinates": [[121.71243, 23.99955], [121.70979, 24.00797], [121.70711, 24.01637], [121.70336, 24.02336], [121.69778, 24.02855], [121.69088, 24.0331], [121.68358, 24.03826], [121.67638, 24.04466], [121.66976, 24.05282], [121.66448, 24.06304], [121.66096, 24.07527], [121.65922, 24.08867], [121.65878, 24.10208], [121.65903, 24.11403], [121.65944, 24.12366], [121.6595, 24.13049], [121.65909, 24.13494], [121.65852, 24.13781], [121.65823, 24.13894]]}}, {"type": "Feature", "properties": {"type": "trajectory", "particle": 114}, "geometry": {"type": "LineString", "coordinates": [[121.71305, 23.99286], [121.70724, 23.99715], [121.70119, 24.00137], [121.69388, 24.00409], [121.68481, 24.00529], [121.67448, 24.0061], [121.66371, 24.00758], [121.65303, 24.01022], [121.64295, 24.01455], [121.6399, 24.01455]]}}, {"type": "Feature", "properties": {"type": "trajectory", "particle": 120}, "geometry": {"type": "LineString", "coordinates": [[121.6962, 24.00917], [121.69152, 24.01408], [121.68692, 24.01934], [121.68138, 24.02359], [121.67427, 24.02645], [121.66599, 24.02881], [121.65734, 24.03168], [121.64879, 24.03558], [121.64079, 24.04105], [121.63401, 24.0486], [121.62891, 24.05845], [121.62545, 24.06994], [121.62312, 24.0821], [121.62151, 24.09364], [121.62088, 24.10337]]}}, {"type": "Feature", "properties": {"type": "trajectory", "particle": 126}, "geometry": {"type": "LineString", "coordinates": [[121.69083, 23.99056], [121.68613, 23.99434], [121.68143, 23.99857], [121.67567, 24.00179], [121.66822, 24.00354], [121.65955, 24.00478], [121.65046, 24.00651], [121.64143, 24.00918], [121.6385, 24.00918]]}}, {"type": "Feature", "properties": {"type": "trajectory", "particle": 132}, "geometry": {"type": "LineString", "coordinates": [[121.69501, 23.99813], [121.69034, 24.00121], [121.6857, 24.0047], [121.68007, 24.00717], [121.67276, 24.00818], [121.6642, 24.00871], [121.6552, 24.00976], [121.64624, 24.01181], [121.63915, 24.01337]]}}, {"type": "Feature", "properties": {"type": "trajectory", "particle": 138}, "geometry": {"type": "LineString", "coordinates": [[121.69897, 24.00364], [121.69442, 24.00861], [121.68993, 24.01393], [121.68449, 24.01818], [121.67744, 24.021], [121.66917, 24.02332], [121.66052, 24.02617], [121.65195, 24.03007], [121.64395, 24.03558], [121.63721, 24.04318], [121.63216, 24.05309], [121.62882, 24.06462], [121.62667, 24.07682], [121.62524, 24.08839], [121.62418, 24.09818], [121.62363, 24.10503]]}}, {"type": "Feature", "properties": {"type": "trajectory", "particle": 144}, "geometry": {"type": "LineString", "coordinates": [[121.69247, 24.01294], [121.68798, 24.02176], [121.68361, 24.03087], [121.6784, 24.03897], [121.67175, 24.04567], [121.66406, 24.05186], [121.65612, 24.05849], [121.64839, 24.06614], [121.64127, 24.07533], [121.63531, 24.08651], [121.63094, 24.09987], [121.62934, 24.11086]]}}, {"type": "Feature", "properties": {"type": "trajectory", "particle": 150}, "geometry": {"type": "LineString", "coordinates": [[121.7076, 23.9935], [121.70629, 23.99799], [121.70487, 24.00259], [121.70232, 24.00577], [121.69778, 24.00702], [121.69179, 24.00759], [121.6852, 24.00876], [121.67855, 24.01118], [121.67245, 24.0155], [121.66774, 24.02215], [121.66484, 24.03111], [121.66383, 24.04156], [121.66427, 24.05242], [121.66557, 24.06236], [121.66741, 24.07034], [121.66926, 24.07542], [121.67084, 24.07766], [121.67229, 24.07773], [121.67366, 24.07662], [121.67493, 24.07541], [121.67627, 24.07485], [121.6779, 24.07533], [121.67979, 24.07717], [121.68201, 24.08056], [121.68478, 24.08529]]}}, {"type": "Feature", "properties": {"type": "trajectory", "particle": 156}, "geometry": {"type": "LineString", "coordinates": [[121.70659, 23.98783], [121.70431, 23.99471], [121.70187, 24.00164], [121.69823, 24.00703], [121.69279, 24.0107], [121.68604, 24.01384], [121.67883, 24.01757], [121.67164, 24.02249], [121.66505, 24.02921], [121.65983, 24.03812], [121.6564, 24.04924], [121.65481, 24.06176], [121.65458, 24.07458], [121.65516, 24.08635], [121.65617, 24.09601], [121.65706, 24.10262], [121.65753, 24.10641], [121.65782, 24.10819], [121.65805, 24.10898], [121.65826, 24.10992], [121.65865, 24.11176], [121.65958, 24.11464], [121.66102, 24.11873], [121.66297, 24.12422], [121.66554, 24.13095]]}}, {"type": "Feature", "properties": {"type": "trajectory", "particle": 162}, "geometry": {"type": "LineString", "coordinates": [[121.70711, 24.00201], [121.70476, 24.00829], [121.70237, 24.01463], [121.69888, 24.01958], [121.69363, 24.02287], [121.6871, 24.02565], [121.6801, 24.02901], [121.67314, 24.03356], [121.66674, 24.03989], [121.66166, 24.04835], [121.65833, 24.05895], [121.6568, 24.07088], [121.6566, 24.08303], [121.65719, 24.09403], [121.65819, 24.10286], [121.65897, 24.10872], [121.65929, 24.11191], [121.65946, 24.11321], [121.65958, 24.11362], [121.65971, 24.11423], [121.66006, 24.11573], [121.66096, 24.11827], [121.66236, 24.12201], [121.66428, 24.12712], [121.66681, 24.13345]]}}, {"type": "Feature", "properties": {"type": "trajectory", "particle": 168}, "geometry": {"type": "LineString", "coordinates": [[121.71818, 24.00257], [121.71925, 24.00976], [121.72034, 24.01704], [121.72047, 24.02309], [121.71889, 24.02757], [121.71584, 24.03139], [121.71201, 24.03558], [121.70793, 24.04078], [121.70417, 24.04764], [121.70164, 24.05642], [121.70087, 24.06686], [121.70207, 24.07812], [121.70491, 24.0891], [121.70867, 24.09856], [121.71297, 24.10588], [121.71714, 24.11073], [121.72101, 24.11361], [121.72475, 24.11535], [121.72852, 24.11694], [121.73238, 24.11919], [121.73648, 24.12253], [121.741, 24.1272], [121.74606, 24.13331], [121.7518, 24.14089], [121.75837, 24.14964]]}}, {"type": "Feature", "properties": {"type": "trajectory", "particle": 174}, "geometry": {"type": "LineString", "coordinates": [[121.69641, 24.00079], [121.69028, 24.0031], [121.68423, 24.00587], [121.67719, 24.00769], [121.6685, 24.00816], [121.6586, 24.00818], [121.6483, 24.00875], [121.63934, 24.00936]]}}, {"type": "Feature", "properties": {"type": "trajectory", "particle": 180}, "geometry": {"type": "LineString", "coordinates": [[121.71464, 23.99638], [121.71046, 24.0005], [121.70611, 24.0046], [121.70055, 24.00722], [121.69301, 24.00794], [121.68413, 24.0082], [121.67474, 24.00913], [121.66538, 24.01129], [121.65659, 24.01525], [121.64919, 24.02147], [121.6436, 24.03004], [121.63987, 24.04028], [121.63752, 24.05127], [121.63596, 24.06178], [121.6349, 24.07074], [121.63386, 24.07704], [121.63255, 24.08047], [121.63118, 24.08146], [121.62975, 24.08085], [121.6282, 24.07985], [121.62669, 24.07944], [121.62573, 24.07985], [121.62527, 24.08145], [121.62534, 24.08466], [121.62601, 24.08955]]}}, {"type": "Feature", "properties": {"type": "trajectory", "particle": 186}, "geometry": {"type": "LineString", "coordinates": [[121.7052, 23.99058], [121.69955, 23.993], [121.69376, 23.9956], [121.6869, 23.99713], [121.6783, 23.99718], [121.6684, 23.9968], [121.65807, 23.99702], [121.64774, 23.99829], [121.6379, 24.00114], [121.63341, 24.00114]]}}, {"type": "Feature", "properties": {"type": "trajectory", "particle": 192}, "geometry": {"type": "LineString", "coordinates": [[121.69118, 23.9852], [121.68626, 23.98985], [121.68132, 23.99496], [121.67534, 23.99907], [121.66761, 24.00165], [121.65865, 24.00371], [121.64931, 24.00626], [121.64005, 24.00974]]}}, {"type": "Feature", "properties": {"type": "trajectory", "particle": 198}, "geometry": {"type": "LineString", "coordinates": [[121.69582, 24.00314], [121.69432, 24.01161], [121.69289, 24.02028], [121.69054, 24.02776], [121.68657, 24.0337], [121.68142, 24.03908], [121.67589, 24.04496], [121.67044, 24.05194], [121.66554, 24.0606], [121.6619, 24.07125], [121.65994, 24.08386], [121.65972, 24.09756], [121.66074, 24.11109], [121.66232, 24.12289], [121.66399, 24.13235], [121.66529, 24.13907], [121.66608, 24.14353], [121.66669, 24.1466], [121.66739, 24.14928], [121.66831, 24.15242], [121.66969, 24.15642], [121.67175, 24.16137], [121.67444, 24.16737], [121.67774, 24.17446], [121.68172, 24.18238]]}}, {"type": "Feature", "properties": {"type": "trajectory", "particle": 204}, "geometry": {"type": "LineString", "coordinates": [[121.70924, 23.99489], [121.70679, 24.00078], [121.70422, 24.00671], [121.70052, 24.01119], [121.69492, 24.01383], [121.68799, 24.01594], [121.68056, 24.01866], [121.67316, 24.02259], [121.66632, 24.02834], [121.66085, 24.03631], [121.65717, 24.0465], [121.65532, 24.05811], [121.65485, 24.07009], [121.65519, 24.08109], [121.65598, 24.09006], [121.65667, 24.09607], [121.65701, 24.0992], [121.6572, 24.10018], [121.6573, 24.10004], [121.65734, 24.09999], [121.65751, 24.10085], [121.6582, 24.10276], [121.65935, 24.10593], [121.661, 24.11057], [121.66324, 24.11654]]}}, {"type": "Feature", "properties": {"type": "trajectory", "particle": 210}, "geometry": {"type": "LineString", "coordinates": [[121.69476, 23.99944], [121.69006, 24.00558], [121.68543, 24.01207], [121.67989, 24.01752], [121.67274, 24.02153], [121.66446, 24.02502], [121.65582, 24.02901], [121.64729, 24.034], [121.63935, 24.04054], [121.63266, 24.04914], [121.62765, 24.06004], [121.62428, 24.07257], [121.62203, 24.08575], [121.62048, 24.09826], [121.62048, 24.10252]]}}, {"type": "Feature", "properties": {"type": "trajectory", "particle": 216}, "geometry": {"type": "LineString", "coordinates": [[121.69344, 23.99848], [121.68939, 24.00286], [121.6854, 24.00762], [121.68044, 24.01133], [121.67382, 24.01356], [121.66597, 24.01527], [121.6577, 24.01747], [121.64948, 24.02069], [121.6418, 24.02548], [121.63538, 24.03237], [121.63068, 24.0416], [121.62773, 24.05252], [121.62603, 24.06421], [121.62505, 24.07541], [121.62449, 24.08496], [121.62386, 24.09169], [121.62288, 24.09538], [121.62184, 24.09652], [121.62078, 24.09598], [121.6196, 24.09518], [121.61852, 24.09514], [121.61814, 24.09598], [121.61839, 24.09797], [121.61874, 24.10157]]}}, {"type": "Feature", "properties": {"type": "trajectory", "particle": 222}, "geometry": {"type": "LineString", "coordinates": [[121.69176, 23.99084], [121.69141, 23.99451], [121.69099, 23.9985], [121.68944, 24.00121], [121.68604, 24.00219], [121.68124, 24.0025], [121.67584, 24.0033], [121.67034, 24.0052], [121.66533, 24.00888], [121.66167, 24.01487], [121.65978, 24.02322], [121.65977, 24.03314], [121.66119, 24.04359], [121.66348, 24.05325], [121.66632, 24.06101], [121.66921, 24.06588], [121.67188, 24.06784], [121.67443, 24.06752], [121.67689, 24.06588], [121.67924, 24.06398], [121.68163, 24.06259], [121.68423, 24.06221], [121.68701, 24.06324], [121.69007, 24.06589], [121.69362, 24.06993]]}}, {"type": "Feature", "properties": {"type": "trajectory", "particle": 228}, "geometry": {"type": "LineString", "coordinates": [[121.71347, 23.99739], [121.71452, 24.00102], [121.71553, 24.00482], [121.7155, 24.00734], [121.71361, 24.00813], [121.71009, 24.00813], [121.70564, 24.00839], [121.7008, 24.00957], [121.69626, 24.01256], [121.69315, 24.01805], [121.69188, 24.02586], [121.69253, 24.03503], [121.69474, 24.04436], [121.69791, 24.05247], [121.70169, 24.05836], [121.70559, 24.06148], [121.70942, 24.06216], [121.71329, 24.06114], [121.71717, 24.05931], [121.72105, 24.05761], [121.72501, 24.05669], [121.72916, 24.05706], [121.73355, 24.05908], [121.73832, 24.06289], [121.74368, 24.06815]]}}, {"type": "Feature", "properties": {"type": "trajectory", "particle": 234}, "geometry": {"type": "LineString", "coordinates": [[121.70051, 23.99884], [121.69935, 24.00085], [121.69817, 24.00311], [121.69588, 24.00411], [121.69175, 24.00343], [121.68617, 24.00213], [121.67995, 24.00139], [121.67361, 24.00182], [121.66776, 24.00412], [121.66327, 24.00879], [121.66058, 24.01587], [121.65977, 24.0246], [121.66043, 24.03399], [121.66198, 24.04273], [121.6641, 24.04976], [121.66634, 24.05403], [121.6684, 24.05544], [121.67041, 24.05451], [121.67233, 24.05208], [121.67412, 24.04918], [121.6759, 24.04662], [121.67785, 24.04498], [121.67994, 24.04478], [121.68228, 24.0463], [121.68508, 24.04937]]}}, {"type": "Feature", "properties": {"type": "trajectory", "particle": 240}, "geometry": {"type": "LineString", "coordinates": [[121.70235, 23.98663], [121.69882, 23.98995], [121.69521, 23.99355], [121.69051, 23.99597], [121.68399, 23.99677], [121.67611, 23.99702], [121.66769, 23.99781], [121.65923, 23.99968], [121.65124, 24.00324], [121.64462, 24.00903], [121.63982, 24.01723], [121.63691, 24.02718], [121.63543, 24.03801], [121.63475, 24.0485], [121.63459, 24.05755], [121.63454, 24.06402], [121.63428, 24.06762], [121.63396, 24.06871], [121.63357, 24.06809], [121.63301, 24.06693], [121.63246, 24.06615], [121.63234, 24.06615], [121.63261, 24.06737], [121.63332, 24.07021], [121.63459, 24.07466]]}}, {"type": "Feature", "properties": {"type": "trajectory", "particle": 246}, "geometry": {"type": "LineString", "coordinates": [[121.70743, 23.99847], [121.70253, 24.00519], [121.6975, 24.01188], [121.69147, 24.01735], [121.68381, 24.02137], [121.67496, 24.02493], [121.66576, 24.02907], [121.65667, 24.03432], [121.6482, 24.04123], [121.64104, 24.05022], [121.63559, 24.06148], [121.63184, 24.07428], [121.62927, 24.08763], [121.62741, 24.1002], [121.62666, 24.10917]]}}, {"type": "Feature", "properties": {"type": "trajectory", "particle": 252}, "geometry": {"type": "LineString", "coordinates": [[121.69658, 24.00187], [121.6918, 24.00643], [121.68708, 24.01137], [121.6814, 24.01527], [121.67411, 24.01775], [121.66562, 24.01973], [121.65674, 24.02222], [121.64793, 24.02574], [121.63968, 24.03083], [121.63269, 24.03801], [121.6274, 24.04753], [121.62383, 24.05873], [121.62144, 24.07072], [121.61977, 24.08224], [121.61848, 24.09209], [121.61707, 24.09908]]}}, {"type": "Feature", "properties": {"type": "trajectory", "particle": 258}, "geometry": {"type": "LineString", "coordinates": [[121.69474, 24.01488], [121.69391, 24.0159], [121.69306, 24.01723], [121.69117, 24.01744], [121.6875, 24.01609], [121.68242, 24.01415], [121.67672, 24.01271], [121.67088, 24.0124], [121.66547, 24.01388], [121.66135, 24.01764], [121.65896, 24.02378], [121.65841, 24.03153], [121.65928, 24.03991], [121.661, 24.04763], [121.66326, 24.05364], [121.66562, 24.05692], [121.66779, 24.05739], [121.6699, 24.05558], [121.67193, 24.05231], [121.67384, 24.0486], [121.67574, 24.04521], [121.6778, 24.04274], [121.67999, 24.04171], [121.68242, 24.04243], [121.68529, 24.04472]]}}, {"type": "Feature", "properties": {"type": "trajectory", "particle": 264}, "geometry": {"type": "LineString", "coordinates": [[121.70223, 24.00752], [121.70027, 24.00792], [121.69824, 24.00854], [121.69512, 24.00797], [121.69016, 24.0058], [121.68375, 24.00307], [121.6767, 24.00091], [121.66953, 23.99992], [121.66281, 24.00078], [121.65744, 24.00399], [121.65385, 24.00966], [121.65216, 24.01708], [121.65194, 24.02533], [121.65258, 24.03321], [121.65382, 24.03963], [121.65524, 24.04351], [121.65655, 24.04461], [121.65783, 24.04331], [121.65903, 24.04032], [121.66006, 24.03662], [121.66104, 24.03306], [121.66216, 24.03028], [121.6634, 24.02892], [121.66489, 24.02934], [121.6668, 24.0314]]}}, {"type": "Feature", "properties": {"type": "trajectory", "particle": 270}, "geometry": {"type": "LineString", "coordinates": [[121.71062, 24.00174], [121.70688, 24.00708], [121.70303, 24.01243], [121.69803, 24.01634], [121.69125, 24.01861], [121.68318, 24.02041], [121.67467, 24.02283], [121.66621, 24.02644], [121.65833, 24.0318], [121.65177, 24.03932], [121.64697, 24.04911], [121.64397, 24.06041], [121.64227, 24.07222], [121.64133, 24.08325], [121.64082, 24.0924], [121.64019, 24.09866], [121.6392, 24.10197], [121.6381, 24.10304], [121.63696, 24.10279], [121.63574, 24.10248], [121.63466, 24.10302], [121.63424, 24.10453], [121.63439, 24.10724], [121.6351, 24.11152], [121.63569, 24.11582]]}}, {"type": "Feature", "properties": {"type": "trajectory", "particle": 276}, "geometry": {"type": "LineString", "coordinates": [[121.69781, 24.0038], [121.69594, 24.00897], [121.6941, 24.01441], [121.69128, 24.01867], [121.68674, 24.02137], [121.68094, 24.0235], [121.67464, 24.02616], [121.66836, 24.02994], [121.66258, 24.03544], [121.6581, 24.04308], [121.65534, 24.05292], [121.65437, 24.06415], [121.65472, 24.07569], [121.65587, 24.08618], [121.65744, 24.09458], [121.65889, 24.09998], [121.65996, 24.10252], [121.66086, 24.10304], [121.66168, 24.10254], [121.66245, 24.10218], [121.66337, 24.10272], [121.66478, 24.10434], [121.66661, 24.10722], [121.66891, 24.11152], [121.67181, 24.11711]]}}, {"type": "Feature", "properties": {"type": "trajectory", "particle": 282}, "geometry": {"type": "LineString", "coordinates": [[121.70059, 23.99729], [121.69921, 24.00023], [121.69779, 24.00341], [121.6953, 24.00533], [121.69097, 24.00558], [121.68523, 24.00523], [121.67889, 24.00543], [121.67247, 24.0068], [121.66654, 24.01001], [121.66198, 24.01553], [121.6592, 24.02343], [121.65829, 24.03292], [121.65884, 24.04297], [121.66025, 24.05231], [121.6622, 24.05984], [121.66422, 24.06457], [121.66602, 24.06643], [121.66772, 24.06602], [121.66935, 24.06422], [121.67086, 24.06211], [121.67239, 24.06047], [121.67416, 24.05979], [121.67615, 24.0605], [121.67844, 24.06285], [121.68121, 24.06665]]}}, {"type": "Feature", "properties": {"type": "trajectory", "particle": 288}, "geometry": {"type": "LineString", "coordinates": [[121.70267, 24.00867], [121.70018, 24.01416], [121.69767, 24.01978], [121.69418, 24.02424], [121.68903, 24.0272], [121.68262, 24.02964], [121.67577, 24.03262], [121.66894, 24.03675], [121.66264, 24.04261], [121.65763, 24.05057], [121.65433, 24.06069], [121.65279, 24.07217], [121.65255, 24.08392], [121.65308, 24.09458], [121.654, 24.10311], [121.6547, 24.10868], [121.65497, 24.11156], [121.65508, 24.11249], [121.65517, 24.11247], [121.65524, 24.1126], [121.65552, 24.11362], [121.65636, 24.11566], [121.65771, 24.1189], [121.65958, 24.12355], [121.66206, 24.12948]]}}, {"type": "Feature", "properties": {"type": "trajectory", "particle": 294}, "geometry": {"type": "LineString", "coordinates": [[121.68603, 24.01257], [121.68246, 24.01663], [121.67896, 24.02109], [121.67451, 24.0246], [121.66851, 24.02669], [121.66132, 24.02825], [121.65372, 24.03025], [121.64617, 24.03324], [121.63912, 24.03775], [121.63327, 24.04434], [121.62905, 24.05324], [121.6265, 24.0638], [121.6251, 24.07505], [121.6244, 24.08571], [121.6241, 24.09463], [121.62364, 24.10063], [121.62282, 24.1036]]}}, {"type": "Feature", "properties": {"type": "start", "label": "Start"}, "geometry": {"type": "Point", "coordinates": [121.69907, 24.00107]}}, {"type": "Feature", "properties": {"type": "end_center", "label": "End (mean)"}, "geometry": {"type": "Point", "coordinates": [121.65327, 24.08752]}}, {"type": "Feature", "properties": {"type": "end_hull", "label": "Spread area"}, "geometry": {"type": "Polygon", "coordinates": [[[121.63341, 24.00114], [121.69985, 23.98207], [121.73772, 24.0234], [121.7709, 24.17015], [121.68743, 24.18871], [121.67429, 24.18453], [121.61576, 24.09771], [121.61108, 24.09006], [121.60903, 24.08244], [121.60738, 24.07575], [121.60947, 24.05876], [121.63341, 24.00114]]]}}]}