{"type": "FeatureCollection", "properties": {"model_type": "leeway", "times": ["2026-10-03 00:00:00", "2026-10-03 01:00:00", "2026-10-03 02:00:00", "2026-10-03 03:00:00", "2026-10-03 04:00:00", "2026-10-03 05:00:00", "2026-10-03 06:00:00", "2026-10-03 07:00:00", "2026-10-03 08:00:00", "2026-10-03 09:00:00", "2026-10-03 10:00:00", "2026-10-03 11:00:00", "2026-10-03 12:00:00", "2026-10-03 13:00:00", "2026-10-03 14:00:00", "2026-10-03 15:00:00", "2026-10-03 16:00:00", "2026-10-03 17:00:00", "2026-10-03 18:00:00", "2026-10-03 19:00:00", "2026-10-03 20:00:00", "2026-10-03 21:00:00", "2026-10-03 22:00:00", "2026-10-03 23:00:00", "2026-10-04 00:00:00"], "num_particles": 300, "num_steps": 25}, "features": [{"type": "Feature", "properties": {"type": "trajectory", "particle": 0}, "geometry": {"type": "LineString", "coordinates": [[120.23493, 22.4868], [120.24804, 22.47791], [120.2627, 22.46749], [120.27913, 22.45733], [120.29763, 22.44758], [120.31807, 22.43892], [120.34032, 22.43269], [120.36526, 22.428], [120.39299, 22.4231], [120.42191, 22.41701], [120.44697, 22.41009], [120.46698, 22.40267], [120.48122, 22.39482], [120.48972, 22.3881], [120.49306, 22.38385], [120.49113, 22.38293], [120.48537, 22.38527], [120.4784, 22.39016], [120.47307, 22.39645], [120.47066, 22.4032], [120.47221, 22.40917], [120.47655, 22.41411], [120.48228, 22.41805], [120.48921, 22.42122], [120.49315, 22.42122]]}}, {"type": "Feature", "properties": {"type": "trajectory", "particle": 6}, "geometry": {"type": "LineString", "coordinates": [[120.24892, 22.49529], [120.26228, 22.48491], [120.27727, 22.47277], [120.29427, 22.46079], [120.31358, 22.44918], [120.3346, 22.44013], [120.35778, 22.43349], [120.38392, 22.42807], [120.41315, 22.42198], [120.44034, 22.41496], [120.46359, 22.40716], [120.48186, 22.39889], [120.49467, 22.39006], [120.50256, 22.38213], [120.50634, 22.37654], [120.50534, 22.37392], [120.50002, 22.374], [120.49233, 22.37576], [120.48627, 22.37802], [120.48318, 22.38001], [120.48324, 22.38133], [120.48573, 22.38178], [120.48966, 22.38107], [120.49535, 22.37927], [120.50273, 22.37642]]}}, {"type": "Feature", "properties": {"type": "trajectory", "particle": 12}, "geometry": {"type": "LineString", "coordinates": [[120.25588, 22.50931], [120.26901, 22.49975], [120.28392, 22.48716], [120.30097, 22.47457], [120.32027, 22.46246], [120.34119, 22.45319], [120.36437, 22.44633], [120.39062, 22.44075], [120.41953, 22.43474], [120.44613, 22.4281], [120.46925, 22.42051], [120.48766, 22.41233], [120.50024, 22.40374], [120.50632, 22.39666], [120.50802, 22.39229], [120.5044, 22.3915], [120.49535, 22.39418], [120.48473, 22.39918], [120.47697, 22.40502], [120.47435, 22.41022], [120.47591, 22.4143], [120.48003, 22.41739], [120.48536, 22.41946], [120.49174, 22.42077], [120.49357, 22.42077]]}}, {"type": "Feature", "properties": {"type": "trajectory", "particle": 18}, "geometry": {"type": "LineString", "coordinates": [[120.2625, 22.50319], [120.27395, 22.49191], [120.2871, 22.47844], [120.30238, 22.46505], [120.31984, 22.45247], [120.33896, 22.44258], [120.36024, 22.43492], [120.38442, 22.42834], [120.41156, 22.42101], [120.43688, 22.41261], [120.45829, 22.40332], [120.4748, 22.39341], [120.48636, 22.3827], [120.49352, 22.37265], [120.49664, 22.36435], [120.49537, 22.35802], [120.49107, 22.35345], [120.48616, 22.34983], [120.4829, 22.34604], [120.48222, 22.34116], [120.4847, 22.33468], [120.49052, 22.3259], [120.49921, 22.31339], [120.51118, 22.29621], [120.52299, 22.2795]]}}, {"type": "Feature", "properties": {"type": "trajectory", "particle": 24}, "geometry": {"type": "LineString", "coordinates": [[120.24635, 22.50041], [120.25944, 22.49266], [120.27416, 22.48308], [120.29089, 22.47358], [120.30991, 22.46394], [120.33057, 22.45654], [120.35326, 22.45163], [120.37882, 22.44824], [120.40736, 22.44491], [120.43553, 22.4413], [120.45551, 22.43905]]}}, {"type": "Feature", "properties": {"type": "trajectory", "particle": 30}, "geometry": {"type": "LineString", "coordinates": [[120.24332, 22.51438], [120.25318, 22.50414], [120.26472, 22.49082], [120.27802, 22.47722], [120.29318, 22.46376], [120.31001, 22.45107], [120.32844, 22.44055], [120.34916, 22.43185], [120.37219, 22.42339], [120.39668, 22.41385], [120.42052, 22.40257], [120.43921, 22.39048], [120.45118, 22.37819], [120.45773, 22.3667], [120.46043, 22.35651], [120.45982, 22.34755], [120.45729, 22.33999], [120.45523, 22.33411], [120.45531, 22.32938], [120.45773, 22.32434], [120.46262, 22.31799], [120.46976, 22.30942], [120.47878, 22.29744], [120.48972, 22.28234], [120.5006, 22.26586]]}}, {"type": "Feature", "properties": {"type": "trajectory", "particle": 36}, "geometry": {"type": "LineString", "coordinates": [[120.24108, 22.49091], [120.25501, 22.48102], [120.27055, 22.46949], [120.28799, 22.45817], [120.30772, 22.44712], [120.32927, 22.4382], [120.35286, 22.43178], [120.37938, 22.42669], [120.40897, 22.42104], [120.43732, 22.41437], [120.46152, 22.40698], [120.48065, 22.39916], [120.49423, 22.39085], [120.50272, 22.38352], [120.50697, 22.37865], [120.5064, 22.37693], [120.50134, 22.37817], [120.49347, 22.38138], [120.48696, 22.38529], [120.48348, 22.38918], [120.48313, 22.39261], [120.48502, 22.39548], [120.48811, 22.39768], [120.4927, 22.39947], [120.49869, 22.40115]]}}, {"type": "Feature", "properties": {"type": "trajectory", "particle": 42}, "geometry": {"type": "LineString", "coordinates": [[120.26006, 22.50434], [120.27251, 22.4892], [120.28663, 22.47181], [120.30283, 22.45457], [120.32124, 22.43848], [120.34141, 22.42529], [120.36385, 22.41434], [120.3893, 22.40422], [120.41739, 22.39257], [120.44199, 22.37974], [120.46243, 22.36575], [120.47882, 22.35031], [120.49321, 22.3334], [120.50787, 22.31594], [120.51976, 22.29975], [120.52659, 22.28505], [120.52929, 22.27364], [120.53085, 22.26367], [120.53291, 22.25382], [120.53664, 22.24361], [120.54272, 22.23313], [120.55067, 22.22234], [120.5591, 22.21063], [120.56744, 22.19768], [120.5751, 22.18348]]}}, {"type": "Feature", "properties": {"type": "trajectory", "particle": 48}, "geometry": {"type": "LineString", "coordinates": [[120.24416, 22.50458], [120.25435, 22.48952], [120.26608, 22.47242], [120.27952, 22.45561], [120.29488, 22.4394], [120.31203, 22.42447], [120.3308, 22.41184], [120.35193, 22.40083], [120.37534, 22.38942], [120.39907, 22.37641], [120.41789, 22.36271], [120.42815, 22.34877], [120.4313, 22.33481], [120.42912, 22.32145], [120.42376, 22.30783], [120.41609, 22.29281], [120.41081, 22.27883], [120.4116, 22.26866], [120.41771, 22.26104], [120.42687, 22.25271], [120.43769, 22.24233], [120.44875, 22.22994], [120.45885, 22.21622], [120.4668, 22.20242], [120.47167, 22.18886]]}}, {"type": "Feature", "properties": {"type": "trajectory", "particle": 54}, "geometry": {"type": "LineString", "coordinates": [[120.25219, 22.50478], [120.2645, 22.49288], [120.27848, 22.4788], [120.29445, 22.46484], [120.31268, 22.45118], [120.33255, 22.44006], [120.35448, 22.43135], [120.37926, 22.42389], [120.40697, 22.41572], [120.43369, 22.40622], [120.45607, 22.39592], [120.4734, 22.38499], [120.48616, 22.3732], [120.49517, 22.36192], [120.50082, 22.352], [120.50255, 22.34349], [120.50159, 22.33611], [120.50008, 22.32849], [120.50005, 22.31882], [120.50262, 22.30608], [120.50903, 22.29075], [120.51854, 22.27643], [120.52855, 22.26324], [120.53802, 22.25095], [120.5462, 22.23964]]}}, {"type": "Feature", "properties": {"type": "trajectory", "particle": 60}, "geometry": {"type": "LineString", "coordinates": [[120.24094, 22.4967], [120.25086, 22.48313], [120.26228, 22.46792], [120.27537, 22.45305], [120.2903, 22.43885], [120.30698, 22.42573], [120.32529, 22.41454], [120.34586, 22.40507], [120.36868, 22.39542], [120.39227, 22.38408], [120.41235, 22.37174], [120.42439, 22.35924], [120.42945, 22.34665], [120.42941, 22.33459], [120.42645, 22.32253], [120.42146, 22.3097], [120.41605, 22.29682], [120.41447, 22.28738], [120.41817, 22.28181], [120.4252, 22.27654], [120.4343, 22.26974], [120.44399, 22.26082], [120.45339, 22.24995], [120.46201, 22.23822], [120.4688, 22.22593]]}}, {"type": "Feature", "properties": {"type": "trajectory", "particle": 66}, "geometry": {"type": "LineString", "coordinates": [[120.24977, 22.50011], [120.26128, 22.48474], [120.27435, 22.46758], [120.28928, 22.4507], [120.3064, 22.43437], [120.32527, 22.42028], [120.34602, 22.40862], [120.36945, 22.39815], [120.39542, 22.38674], [120.42097, 22.37382], [120.44048, 22.36002], [120.45367, 22.34532], [120.46236, 22.3299], [120.46851, 22.31455], [120.47369, 22.29857], [120.47742, 22.28167], [120.47944, 22.26746], [120.48176, 22.25576], [120.48566, 22.245], [120.49184, 22.23395], [120.50058, 22.22263], [120.51074, 22.21144], [120.52026, 22.20025], [120.52835, 22.18844], [120.53532, 22.17482]]}}, {"type": "Feature", "properties": {"type": "trajectory", "particle": 72}, "geometry": {"type": "LineString", "coordinates": [[120.23109, 22.50204], [120.2407, 22.4921], [120.25179, 22.48044], [120.2644, 22.46904], [120.2786, 22.45813], [120.29424, 22.4481], [120.3116, 22.43876], [120.33105, 22.43114], [120.3525, 22.42416], [120.37518, 22.41642], [120.39801, 22.40701], [120.41902, 22.39584], [120.4332, 22.38449], [120.44096, 22.37424], [120.44444, 22.36553], [120.44457, 22.35856], [120.4427, 22.35376], [120.44115, 22.35168], [120.44165, 22.35175], [120.44442, 22.35238], [120.44922, 22.35242], [120.45518, 22.35117], [120.46158, 22.3482], [120.46886, 22.34365], [120.47722, 22.33713]]}}, {"type": "Feature", "properties": {"type": "trajectory", "particle": 78}, "geometry": {"type": "LineString", "coordinates": [[120.26383, 22.4987], [120.27551, 22.48595], [120.28886, 22.47126], [120.30433, 22.45672], [120.32198, 22.44338], [120.34139, 22.43277], [120.36304, 22.42434], [120.38763, 22.41679], [120.41512, 22.40806], [120.43978, 22.39804], [120.46041, 22.38723], [120.47647, 22.37552], [120.48875, 22.36276], [120.4982, 22.35028], [120.50504, 22.33881], [120.50817, 22.32842], [120.50903, 22.31871], [120.50984, 22.30832], [120.51216, 22.29561], [120.51572, 22.28208], [120.52134, 22.26953], [120.52925, 22.25781], [120.5376, 22.24633], [120.54554, 22.23499], [120.5523, 22.22398]]}}, {"type": "Feature", "properties": {"type": "trajectory", "particle": 84}, "geometry": {"type": "LineString", "coordinates": [[120.24362, 22.49153], [120.25462, 22.48216], [120.2672, 22.47114], [120.28158, 22.46035], [120.298, 22.44991], [120.31622, 22.44058], [120.33614, 22.43358], [120.35855, 22.4281], [120.3835, 22.4225], [120.41013, 22.41564], [120.43411, 22.40759], [120.45306, 22.3989], [120.46632, 22.38969], [120.47407, 22.38144], [120.47725, 22.37522], [120.47601, 22.37157], [120.47174, 22.37061], [120.46682, 22.37198], [120.46356, 22.37472], [120.46286, 22.37775], [120.4647, 22.38036], [120.46822, 22.38215], [120.4725, 22.38283], [120.47773, 22.38255], [120.48393, 22.3814]]}}, {"type": "Feature", "properties": {"type": "trajectory", "particle": 90}, "geometry": {"type": "LineString", "coordinates": [[120.25321, 22.50398], [120.26353, 22.49131], [120.27544, 22.47651], [120.28926, 22.46189], [120.30521, 22.44755], [120.32282, 22.43516], [120.3422, 22.42516], [120.36412, 22.41652], [120.38861, 22.40736], [120.4146, 22.39614], [120.43605, 22.38418], [120.45114, 22.37181], [120.46095, 22.35885], [120.46684, 22.34629], [120.46999, 22.33432], [120.4705, 22.32234], [120.4698, 22.31039], [120.47028, 22.29857], [120.47295, 22.28701], [120.4774, 22.27567], [120.48433, 22.26387], [120.49352, 22.25136], [120.50323, 22.23821], [120.51176, 22.22558], [120.51805, 22.21374]]}}, {"type": "Feature", "properties": {"type": "trajectory", "particle": 96}, "geometry": {"type": "LineString", "coordinates": [[120.24664, 22.49821], [120.25637, 22.48601], [120.26765, 22.47208], [120.28068, 22.45841], [120.29566, 22.44522], [120.3124, 22.43317], [120.33074, 22.42332], [120.35141, 22.41505], [120.37442, 22.40659], [120.3989, 22.39632], [120.42119, 22.38462], [120.43616, 22.37283], [120.44493, 22.36073], [120.44907, 22.34914], [120.4502, 22.33813], [120.44881, 22.32726], [120.44633, 22.31692], [120.44529, 22.30816], [120.44702, 22.30097], [120.45125, 22.29361], [120.45798, 22.28536], [120.46655, 22.27549], [120.47581, 22.26377], [120.48506, 22.251], [120.49308, 22.23775]]}}, {"type": "Feature", "properties": {"type": "trajectory", "particle": 102}, "geometry": {"type": "LineString", "coordinates": [[120.24233, 22.49619], [120.25215, 22.48145], [120.26347, 22.46508], [120.27644, 22.44906], [120.29129, 22.43382], [120.30792, 22.41974], [120.32615, 22.40773], [120.34665, 22.39739], [120.36925, 22.38666], [120.39201, 22.37443], [120.40997, 22.36153], [120.41895, 22.34858], [120.42014, 22.33579], [120.41541, 22.32369], [120.40722, 22.3113], [120.3968, 22.29768], [120.38957, 22.28422], [120.3899, 22.27458], [120.39568, 22.26819], [120.40504, 22.26246], [120.41606, 22.25499], [120.4268, 22.24501], [120.43651, 22.233], [120.44457, 22.22018], [120.44989, 22.20694]]}}, {"type": "Feature", "properties": {"type": "trajectory", "particle": 108}, "geometry": {"type": "LineString", "coordinates": [[120.26229, 22.49955], [120.27393, 22.49116], [120.28729, 22.48083], [120.30282, 22.47054], [120.32055, 22.46095], [120.33991, 22.45397], [120.36147, 22.44921], [120.38594, 22.44567], [120.41341, 22.44189], [120.43938, 22.43763], [120.46206, 22.43232], [120.4743, 22.42945]]}}, {"type": "Feature", "properties": {"type": "trajectory", "particle": 114}, "geometry": {"type": "LineString", "coordinates": [[120.2629, 22.49286], [120.2713, 22.48013], [120.28131, 22.46558], [120.29326, 22.45129], [120.30739, 22.43749], [120.32311, 22.42593], [120.34055, 22.41652], [120.3604, 22.40829], [120.38264, 22.3994], [120.40598, 22.38849], [120.42501, 22.37681], [120.43693, 22.36479], [120.44277, 22.35241], [120.44402, 22.34051], [120.44229, 22.32891], [120.4382, 22.31693], [120.43329, 22.30509], [120.43041, 22.29528], [120.43147, 22.28886], [120.43565, 22.2831], [120.44218, 22.27628], [120.44977, 22.2677], [120.4574, 22.25734], [120.46458, 22.24614], [120.47025, 22.23436]]}}, {"type": "Feature", "properties": {"type": "trajectory", "particle": 120}, "geometry": {"type": "LineString", "coordinates": [[120.24624, 22.50917], [120.25586, 22.49866], [120.26713, 22.4854], [120.28016, 22.47227], [120.29509, 22.45935], [120.31171, 22.44733], [120.32992, 22.43753], [120.35043, 22.42944], [120.37325, 22.42148], [120.39753, 22.41233], [120.42105, 22.40143], [120.43929, 22.38979], [120.45087, 22.37795], [120.4571, 22.36688], [120.45953, 22.35711], [120.45863, 22.34861], [120.45581, 22.34159], [120.45345, 22.3364], [120.45323, 22.33254], [120.45536, 22.32856], [120.4599, 22.32348], [120.46644, 22.31644], [120.47451, 22.30647], [120.48492, 22.29286], [120.49615, 22.27677]]}}, {"type": "Feature", "properties": {"type": "trajectory", "particle": 126}, "geometry": {"type": "LineString", "coordinates": [[120.24094, 22.49056], [120.25041, 22.47742], [120.26138, 22.4627], [120.27398, 22.44837], [120.2884, 22.43482], [120.30454, 22.42241], [120.3223, 22.41167], [120.34225, 22.40267], [120.36436, 22.39353], [120.38706, 22.38275], [120.40636, 22.37092], [120.41755, 22.35901], [120.42136, 22.34711], [120.41975, 22.33577], [120.41514, 22.32437], [120.40862, 22.31226], [120.40182, 22.30034], [120.39867, 22.29215], [120.40158, 22.28878], [120.40822, 22.28668], [120.41691, 22.28345], [120.42563, 22.27812], [120.43389, 22.27076], [120.44199, 22.26247], [120.44931, 22.25287]]}}, {"type": "Feature", "properties": {"type": "trajectory", "particle": 132}, "geometry": {"type": "LineString", "coordinates": [[120.24507, 22.49813], [120.25477, 22.48459], [120.26598, 22.46934], [120.27892, 22.4544], [120.29376, 22.44006], [120.31036, 22.42688], [120.32858, 22.41585], [120.34907, 22.40643], [120.37186, 22.39675], [120.39553, 22.38532], [120.41562, 22.37292], [120.42781, 22.36032], [120.43324, 22.34756], [120.43369, 22.33533], [120.43124, 22.32314], [120.42667, 22.31024], [120.42161, 22.29725], [120.41999, 22.28744], [120.4233, 22.28131], [120.42986, 22.27542], [120.43855, 22.26805], [120.44797, 22.25865], [120.45715, 22.24743], [120.46548, 22.23542], [120.47186, 22.22302]]}}, {"type": "Feature", "properties": {"type": "trajectory", "particle": 138}, "geometry": {"type": "LineString", "coordinates": [[120.24899, 22.50364], [120.25887, 22.49247], [120.27034, 22.47925], [120.28363, 22.46621], [120.29893, 22.45342], [120.31595, 22.44182], [120.33459, 22.43262], [120.35562, 22.42496], [120.37906, 22.41719], [120.40404, 22.40797], [120.42728, 22.39714], [120.44453, 22.38588], [120.45557, 22.37429], [120.46172, 22.36337], [120.46428, 22.35364], [120.46355, 22.34503], [120.46091, 22.33772], [120.45872, 22.33195], [120.4586, 22.32716], [120.46078, 22.32194], [120.46551, 22.31537], [120.47266, 22.3065], [120.48194, 22.29404], [120.4928, 22.27899], [120.50347, 22.26278]]}}, {"type": "Feature", "properties": {"type": "trajectory", "particle": 144}, "geometry": {"type": "LineString", "coordinates": [[120.24256, 22.51294], [120.25221, 22.50698], [120.26352, 22.49854], [120.27664, 22.48918], [120.29159, 22.47968], [120.30814, 22.47052], [120.32631, 22.46327], [120.3467, 22.4579], [120.36935, 22.45325], [120.39341, 22.44871], [120.41721, 22.44333], [120.43732, 22.43704], [120.45284, 22.4299], [120.46339, 22.42366], [120.46885, 22.42018], [120.46928, 22.42091], [120.46641, 22.4258], [120.4632, 22.4336], [120.4632, 22.43507]]}}, {"type": "Feature", "properties": {"type": "trajectory", "particle": 150}, "geometry": {"type": "LineString", "coordinates": [[120.25751, 22.4935], [120.27046, 22.48115], [120.28507, 22.46698], [120.30178, 22.453], [120.32077, 22.44003], [120.34155, 22.42994], [120.3646, 22.42207], [120.39072, 22.4151], [120.41939, 22.4069], [120.44473, 22.39753], [120.46625, 22.38739], [120.48351, 22.37631], [120.49735, 22.36409], [120.50853, 22.35231], [120.51635, 22.34256], [120.52004, 22.3346], [120.52105, 22.32803], [120.5214, 22.32148], [120.52264, 22.31344], [120.52558, 22.30306], [120.53101, 22.29088], [120.5388, 22.27926], [120.54724, 22.2681], [120.55565, 22.2574], [120.56327, 22.24746]]}}, {"type": "Feature", "properties": {"type": "trajectory", "particle": 156}, "geometry": {"type": "LineString", "coordinates": [[120.25652, 22.48782], [120.26844, 22.47775], [120.28203, 22.46594], [120.29766, 22.45433], [120.3156, 22.44337], [120.33524, 22.43501], [120.357, 22.42888], [120.38165, 22.42382], [120.40924, 22.41796], [120.43544, 22.41093], [120.45759, 22.40312], [120.47482, 22.39479], [120.48698, 22.38576], [120.49445, 22.37753], [120.49746, 22.37134], [120.49561, 22.36769], [120.49028, 22.36645], [120.48399, 22.36686], [120.47926, 22.36787], [120.47723, 22.36864], [120.47814, 22.36868], [120.48142, 22.36764], [120.48614, 22.36506], [120.49262, 22.36082], [120.50091, 22.35471]]}}, {"type": "Feature", "properties": {"type": "trajectory", "particle": 162}, "geometry": {"type": "LineString", "coordinates": [[120.25703, 22.50201], [120.26904, 22.49185], [120.28274, 22.47965], [120.29851, 22.46753], [120.31654, 22.45582], [120.3362, 22.44676], [120.35797, 22.44002], [120.38263, 22.4345], [120.41026, 22.42849], [120.43655, 22.42163], [120.45905, 22.41384], [120.47676, 22.40546], [120.48871, 22.39659], [120.49495, 22.38876], [120.4963, 22.38325], [120.49268, 22.38082], [120.48568, 22.38125], [120.47791, 22.38379], [120.47213, 22.38735], [120.46946, 22.39104], [120.46979, 22.39425], [120.47208, 22.39674], [120.47532, 22.39831], [120.47966, 22.39914], [120.48503, 22.39942]]}}, {"type": "Feature", "properties": {"type": "trajectory", "particle": 168}, "geometry": {"type": "LineString", "coordinates": [[120.26797, 22.50257], [120.28316, 22.49299], [120.30017, 22.48116], [120.31947, 22.46985], [120.34084, 22.46067], [120.36433, 22.45427], [120.39066, 22.45016], [120.42014, 22.44693], [120.44871, 22.44248], [120.44982, 22.44248]]}}, {"type": "Feature", "properties": {"type": "trajectory", "particle": 174}, "geometry": {"type": "LineString", "coordinates": [[120.24645, 22.50079], [120.25475, 22.48662], [120.26454, 22.47066], [120.27599, 22.45503], [120.28924, 22.44006], [120.30411, 22.42624], [120.32053, 22.41413], [120.33904, 22.4038], [120.35957, 22.39348], [120.38053, 22.38158], [120.39798, 22.36862], [120.40666, 22.35585], [120.40665, 22.34347], [120.40002, 22.33184], [120.39046, 22.31978], [120.38163, 22.30615], [120.3747, 22.29256], [120.37354, 22.28256], [120.3771, 22.27579], [120.38354, 22.26966], [120.3919, 22.26299], [120.40047, 22.25532], [120.40816, 22.2464], [120.41441, 22.23673], [120.41846, 22.22618]]}}, {"type": "Feature", "properties": {"type": "trajectory", "particle": 180}, "geometry": {"type": "LineString", "coordinates": [[120.26447, 22.49638], [120.27451, 22.48352], [120.2862, 22.46877], [120.29993, 22.4542], [120.3159, 22.44041], [120.33349, 22.42929], [120.35308, 22.42031], [120.37537, 22.41232], [120.4004, 22.40332], [120.42553, 22.39232], [120.44534, 22.38087], [120.45963, 22.36869], [120.46934, 22.35573], [120.47569, 22.34308], [120.47956, 22.33095], [120.4808, 22.31867], [120.4808, 22.30616], [120.48194, 22.29305], [120.48424, 22.28081], [120.48803, 22.2688], [120.49435, 22.25666], [120.50304, 22.24426], [120.51186, 22.23209], [120.51939, 22.22047], [120.52486, 22.20928]]}}, {"type": "Feature", "properties": {"type": "trajectory", "particle": 186}, "geometry": {"type": "LineString", "coordinates": [[120.25514, 22.49058], [120.2638, 22.47617], [120.27402, 22.46006], [120.28603, 22.4443], [120.30009, 22.4293], [120.31593, 22.41591], [120.33334, 22.40484], [120.35307, 22.39512], [120.37484, 22.38474], [120.39659, 22.3729], [120.41318, 22.3604], [120.42091, 22.34774], [120.42095, 22.33524], [120.41497, 22.32347], [120.40537, 22.31144], [120.39345, 22.29821], [120.3854, 22.28497], [120.38472, 22.27546], [120.38924, 22.26906], [120.39706, 22.2632], [120.40707, 22.25654], [120.4167, 22.24761], [120.42514, 22.23658], [120.43196, 22.22467], [120.43615, 22.21211]]}}, {"type": "Feature", "properties": {"type": "trajectory", "particle": 192}, "geometry": {"type": "LineString", "coordinates": [[120.24128, 22.4852], [120.25046, 22.4728], [120.26112, 22.45887], [120.27343, 22.44536], [120.28754, 22.43269], [120.30336, 22.42118], [120.3208, 22.41119], [120.34039, 22.40292], [120.36209, 22.39455], [120.38445, 22.38453], [120.40379, 22.37335], [120.41537, 22.36205], [120.41962, 22.35074], [120.41852, 22.33996], [120.41449, 22.3292], [120.40866, 22.31795], [120.40257, 22.30713], [120.3994, 22.29993], [120.40095, 22.29774], [120.40636, 22.29747], [120.41401, 22.29663], [120.42166, 22.29404], [120.42896, 22.28965], [120.43673, 22.28458], [120.44475, 22.27783]]}}, {"type": "Feature", "properties": {"type": "trajectory", "particle": 198}, "geometry": {"type": "LineString", "coordinates": [[120.24587, 22.50314], [120.25873, 22.49537], [120.27324, 22.48558], [120.28973, 22.47585], [120.30847, 22.46595], [120.32886, 22.45812], [120.35123, 22.45281], [120.37643, 22.44905], [120.40455, 22.44543], [120.43275, 22.44154], [120.45742, 22.43663], [120.45982, 22.43663]]}}, {"type": "Feature", "properties": {"type": "trajectory", "particle": 204}, "geometry": {"type": "LineString", "coordinates": [[120.25915, 22.49488], [120.27097, 22.48393], [120.28445, 22.47114], [120.30003, 22.4585], [120.31788, 22.44654], [120.3374, 22.43732], [120.35907, 22.43033], [120.38365, 22.4244], [120.4112, 22.41762], [120.43694, 22.4097], [120.45866, 22.40097], [120.4755, 22.39166], [120.48753, 22.38155], [120.4952, 22.37212], [120.49879, 22.36448], [120.49781, 22.35895], [120.49359, 22.3553], [120.48855, 22.35271], [120.48502, 22.35001], [120.48403, 22.34634], [120.48616, 22.34123], [120.49151, 22.33408], [120.49949, 22.32366], [120.51054, 22.30924], [120.52298, 22.29329]]}}, {"type": "Feature", "properties": {"type": "trajectory", "particle": 210}, "geometry": {"type": "LineString", "coordinates": [[120.24483, 22.49944], [120.25449, 22.489], [120.26571, 22.47682], [120.27867, 22.46486], [120.29353, 22.45325], [120.31011, 22.4425], [120.32829, 22.43383], [120.34875, 22.42682], [120.37149, 22.4199], [120.39568, 22.41175], [120.41928, 22.40184], [120.43784, 22.39115], [120.44978, 22.38026], [120.45634, 22.37019], [120.45897, 22.36154], [120.45816, 22.35446], [120.45525, 22.34922], [120.45258, 22.34612], [120.45191, 22.3446], [120.45358, 22.34324], [120.45753, 22.3411], [120.46318, 22.33747], [120.46981, 22.33171], [120.47798, 22.32366], [120.48793, 22.31251]]}}, {"type": "Feature", "properties": {"type": "trajectory", "particle": 216}, "geometry": {"type": "LineString", "coordinates": [[120.24351, 22.49848], [120.25381, 22.48622], [120.26563, 22.47225], [120.2792, 22.45855], [120.29471, 22.44534], [120.31199, 22.43321], [120.33091, 22.42329], [120.35219, 22.41498], [120.37585, 22.40647], [120.40106, 22.39612], [120.4238, 22.38443], [120.43928, 22.37263], [120.44875, 22.36047], [120.45378, 22.3488], [120.45589, 22.33772], [120.45545, 22.3268], [120.45384, 22.31631], [120.45354, 22.30703], [120.45585, 22.29863], [120.46053, 22.2898], [120.46769, 22.28016], [120.47691, 22.26909], [120.48691, 22.25646], [120.49667, 22.24305], [120.50486, 22.2297]]}}, {"type": "Feature", "properties": {"type": "trajectory", "particle": 222}, "geometry": {"type": "LineString", "coordinates": [[120.24186, 22.49084], [120.25567, 22.47764], [120.27105, 22.46282], [120.28831, 22.44829], [120.30785, 22.4343], [120.32924, 22.42263], [120.35268, 22.41342], [120.37905, 22.40535], [120.40847, 22.39606], [120.43597, 22.38532], [120.45858, 22.37385], [120.47665, 22.36127], [120.49192, 22.34748], [120.50608, 22.33356], [120.51746, 22.32117], [120.52459, 22.31015], [120.52928, 22.30027], [120.53328, 22.29076], [120.53696, 22.28174], [120.54148, 22.27254], [120.54775, 22.26327], [120.55577, 22.25405], [120.5643, 22.24445], [120.57293, 22.23442], [120.58094, 22.22435]]}}, {"type": "Feature", "properties": {"type": "trajectory", "particle": 228}, "geometry": {"type": "LineString", "coordinates": [[120.26332, 22.49739], [120.27854, 22.48406], [120.29549, 22.4688], [120.31466, 22.45389], [120.33599, 22.44113], [120.35942, 22.43128], [120.38561, 22.4236], [120.41533, 22.4165], [120.44316, 22.40786], [120.46717, 22.39865], [120.48866, 22.38848], [120.50723, 22.37695], [120.52395, 22.36445], [120.53759, 22.35389], [120.5472, 22.34629], [120.5525, 22.34139], [120.55505, 22.33871], [120.55665, 22.33675], [120.55856, 22.33433], [120.56155, 22.33059], [120.56615, 22.32545], [120.5724, 22.31943], [120.57904, 22.31293], [120.5856, 22.30687], [120.59141, 22.30216]]}}, {"type": "Feature", "properties": {"type": "trajectory", "particle": 234}, "geometry": {"type": "LineString", "coordinates": [[120.2505, 22.49884], [120.2638, 22.48438], [120.27871, 22.46813], [120.2956, 22.4521], [120.31478, 22.43675], [120.33573, 22.42418], [120.35885, 22.41399], [120.38496, 22.40477], [120.41416, 22.39411], [120.44018, 22.38225], [120.46177, 22.3694], [120.47919, 22.35522], [120.49438, 22.33965], [120.50919, 22.3238], [120.52088, 22.30958], [120.52825, 22.29641], [120.53239, 22.2854], [120.53508, 22.27606], [120.53793, 22.26688], [120.54205, 22.25734], [120.54818, 22.24754], [120.55614, 22.23755], [120.56464, 22.22682], [120.57326, 22.21515], [120.58123, 22.20284]]}}, {"type": "Feature", "properties": {"type": "trajectory", "particle": 240}, "geometry": {"type": "LineString", "coordinates": [[120.25233, 22.48662], [120.26307, 22.47309], [120.27539, 22.4579], [120.28958, 22.44305], [120.30598, 22.42889], [120.32417, 22.4169], [120.34417, 22.40721], [120.3668, 22.39864], [120.39194, 22.38914], [120.41711, 22.378], [120.43658, 22.36608], [120.44966, 22.3534], [120.45786, 22.34012], [120.46283, 22.32707], [120.46594, 22.3139], [120.46731, 22.29953], [120.46815, 22.28517], [120.46994, 22.27379], [120.47367, 22.26387], [120.47951, 22.25365], [120.48772, 22.24274], [120.49766, 22.23134], [120.50742, 22.21986], [120.51553, 22.20882], [120.5213, 22.198]]}}, {"type": "Feature", "properties": {"type": "trajectory", "particle": 246}, "geometry": {"type": "LineString", "coordinates": [[120.25735, 22.49847], [120.26684, 22.48854], [120.27795, 22.47676], [120.29102, 22.46513], [120.30624, 22.45364], [120.32305, 22.44408], [120.34161, 22.43677], [120.36265, 22.43081], [120.38618, 22.42463], [120.41129, 22.41721], [120.43352, 22.4086], [120.4509, 22.39923], [120.4627, 22.38924], [120.46901, 22.38013], [120.47092, 22.37289], [120.46877, 22.36792], [120.46402, 22.36535], [120.45905, 22.36506], [120.45601, 22.36624], [120.45557, 22.36774], [120.45766, 22.36874], [120.4614, 22.36871], [120.46587, 22.36728], [120.47128, 22.36455], [120.47765, 22.36044]]}}, {"type": "Feature", "properties": {"type": "trajectory", "particle": 252}, "geometry": {"type": "LineString", "coordinates": [[120.24662, 22.50187], [120.25623, 22.49006], [120.26741, 22.47638], [120.28033, 22.46291], [120.2952, 22.44984], [120.31178, 22.43781], [120.32995, 22.42797], [120.35043, 22.41976], [120.37322, 22.41148], [120.39747, 22.40161], [120.42049, 22.38995], [120.43649, 22.3782], [120.44611, 22.36617], [120.45089, 22.35473], [120.45244, 22.34408], [120.45125, 22.33392], [120.44872, 22.32459], [120.44733, 22.31692], [120.44849, 22.31078], [120.45206, 22.30439], [120.45808, 22.29657], [120.46615, 22.28688], [120.47525, 22.27516], [120.4848, 22.26206], [120.49355, 22.24818]]}}, {"type": "Feature", "properties": {"type": "trajectory", "particle": 258}, "geometry": {"type": "LineString", "coordinates": [[120.2448, 22.51489], [120.25814, 22.50124], [120.27322, 22.48426], [120.29021, 22.46726], [120.30946, 22.45041], [120.33038, 22.43606], [120.35335, 22.42433], [120.37921, 22.41392], [120.40809, 22.40255], [120.43538, 22.38955], [120.4577, 22.37595], [120.47525, 22.36125], [120.48983, 22.34529], [120.50342, 22.32908], [120.51517, 22.31371], [120.5229, 22.29921], [120.52779, 22.28626], [120.53092, 22.27541], [120.53413, 22.26498], [120.53864, 22.25438], [120.54525, 22.24366], [120.5537, 22.23281], [120.56266, 22.22123], [120.57166, 22.2086], [120.57996, 22.19518]]}}, {"type": "Feature", "properties": {"type": "trajectory", "particle": 264}, "geometry": {"type": "LineString", "coordinates": [[120.25221, 22.50752], [120.26465, 22.49213], [120.27874, 22.47433], [120.29478, 22.45671], [120.31306, 22.43966], [120.33305, 22.42532], [120.35511, 22.41339], [120.38005, 22.40253], [120.40788, 22.39043], [120.4336, 22.37694], [120.45413, 22.36245], [120.46976, 22.34668], [120.48263, 22.32967], [120.49512, 22.31222], [120.50852, 22.29387], [120.51616, 22.27761], [120.51919, 22.2651], [120.521, 22.25441], [120.5235, 22.24409], [120.52803, 22.2336], [120.53513, 22.22292], [120.54398, 22.21194], [120.55309, 22.20002], [120.56192, 22.18654], [120.5702, 22.17117]]}}, {"type": "Feature", "properties": {"type": "trajectory", "particle": 270}, "geometry": {"type": "LineString", "coordinates": [[120.26051, 22.50174], [120.27109, 22.49051], [120.28333, 22.47723], [120.29761, 22.46406], [120.3141, 22.45133], [120.33218, 22.44112], [120.35226, 22.43316], [120.37504, 22.42636], [120.40058, 22.41897], [120.42643, 22.41017], [120.44797, 22.40049], [120.46447, 22.39015], [120.47575, 22.37913], [120.48253, 22.36876], [120.4855, 22.35991], [120.48448, 22.35269], [120.48086, 22.34704], [120.47697, 22.34247], [120.47484, 22.33804], [120.47514, 22.3327], [120.47836, 22.32581], [120.4847, 22.31656], [120.49374, 22.30349], [120.50593, 22.28549], [120.51685, 22.26906]]}}, {"type": "Feature", "properties": {"type": "trajectory", "particle": 276}, "geometry": {"type": "LineString", "coordinates": [[120.24784, 22.5038], [120.26036, 22.49283], [120.27452, 22.47978], [120.29063, 22.46687], [120.30898, 22.45403], [120.329, 22.44349], [120.35101, 22.43543], [120.37582, 22.42874], [120.40353, 22.42159], [120.43105, 22.41324], [120.45426, 22.40408], [120.47239, 22.39437], [120.48529, 22.38397], [120.49358, 22.37433], [120.49767, 22.36655], [120.49716, 22.36096], [120.4934, 22.35736], [120.48877, 22.35484], [120.48563, 22.35224], [120.48502, 22.34861], [120.48752, 22.3435], [120.49321, 22.33629], [120.50158, 22.32576], [120.51294, 22.31172], [120.5256, 22.2964]]}}, {"type": "Feature", "properties": {"type": "trajectory", "particle": 282}, "geometry": {"type": "LineString", "coordinates": [[120.25058, 22.49729], [120.26364, 22.48372], [120.27831, 22.46838], [120.29496, 22.45325], [120.3139, 22.43873], [120.33459, 22.42692], [120.35742, 22.41747], [120.3832, 22.40905], [120.41204, 22.39938], [120.43834, 22.38825], [120.46009, 22.37643], [120.47738, 22.36351], [120.49173, 22.34937], [120.50471, 22.33515], [120.51513, 22.32224], [120.52147, 22.31049], [120.52554, 22.2996], [120.52897, 22.28902], [120.53206, 22.27904], [120.53608, 22.26896], [120.54203, 22.25889], [120.54986, 22.2489], [120.55818, 22.23853], [120.56649, 22.22769], [120.57404, 22.21667]]}}, {"type": "Feature", "properties": {"type": "trajectory", "particle": 288}, "geometry": {"type": "LineString", "coordinates": [[120.25263, 22.50867], [120.26451, 22.49881], [120.27812, 22.48611], [120.29374, 22.47346], [120.31158, 22.46086], [120.33102, 22.45066], [120.35245, 22.44289], [120.37666, 22.43651], [120.40376, 22.42985], [120.43073, 22.42229], [120.45369, 22.41378], [120.47179, 22.40464], [120.48412, 22.39497], [120.49091, 22.38627], [120.49296, 22.37977], [120.49022, 22.37611], [120.48422, 22.37507], [120.4775, 22.37596], [120.47265, 22.37769], [120.47071, 22.37935], [120.47169, 22.38036], [120.47475, 22.38038], [120.47894, 22.37911], [120.48451, 22.3766], [120.49147, 22.37285]]}}, {"type": "Feature", "properties": {"type": "trajectory", "particle": 294}, "geometry": {"type": "LineString", "coordinates": [[120.23618, 22.51258], [120.24663, 22.50133], [120.25869, 22.48722], [120.2724, 22.47317], [120.28788, 22.45943], [120.305, 22.4465], [120.32382, 22.43526], [120.34489, 22.42595], [120.36825, 22.41694], [120.39307, 22.40668], [120.41756, 22.39442], [120.4356, 22.38187], [120.44682, 22.36918], [120.45297, 22.35716], [120.45577, 22.34604], [120.45571, 22.33553], [120.45419, 22.32585], [120.45367, 22.31757], [120.45554, 22.31025], [120.45977, 22.30216], [120.4666, 22.2923], [120.47577, 22.28077], [120.48606, 22.26737], [120.49657, 22.25284], [120.5058, 22.23818]]}}, {"type": "Feature", "properties": {"type": "start", "label": "Start"}, "geometry": {"type": "Point", "coordinates": [120.24906, 22.50107]}}, {"type": "Feature", "properties": {"type": "end_center", "label": "End (mean)"}, "geometry": {"type": "Point", "coordinates": [120.51344, 22.27449]}}, {"type": "Feature", "properties": {"type": "end_hull", "label": "Spread area"}, "geometry": {"type": "Polygon", "coordinates": [[[120.43176, 22.46537], [120.41846, 22.22618], [120.42724, 22.21214], [120.48746, 22.15636], [120.59435, 22.12827], [120.61217, 22.21209], [120.59141, 22.30216], [120.55118, 22.3886], [120.43176, 22.46537]]]}}]}