{"type": "FeatureCollection", "properties": {"model_type": "leeway", "times": ["2026-10-05 00:00:00", "2026-10-05 01:00:00", "2026-10-05 02:00:00", "2026-10-05 03:00:00", "2026-10-05 04:00:00", "2026-10-05 05:00:00", "2026-10-05 06:00:00", "2026-10-05 07:00:00", "2026-10-05 08:00:00", "2026-10-05 09:00:00", "2026-10-05 10:00:00", "2026-10-05 11:00:00", "2026-10-05 12:00:00", "2026-10-05 13:00:00", "2026-10-05 14:00:00", "2026-10-05 15:00:00", "2026-10-05 16:00:00", "2026-10-05 17:00:00", "2026-10-05 18:00:00", "2026-10-05 19:00:00", "2026-10-05 20:00:00", "2026-10-05 21:00:00", "2026-10-05 22:00:00", "2026-10-05 23:00:00", "2026-10-06 00:00:00"], "num_particles": 300, "num_steps": 25}, "features": [{"type": "Feature", "properties": {"type": "trajectory", "particle": 0}, "geometry": {"type": "LineString", "coordinates": [[121.73462, 25.1868], [121.75324, 25.19081], [121.81156, 25.22236], [121.84225, 25.21342], [121.85576, 25.19951], [121.8636, 25.18014], [121.86251, 25.16919], [121.85381, 25.1632], [121.84134, 25.16215], [121.82629, 25.16549], [121.81187, 25.17259], [121.79762, 25.17503], [121.78484, 25.16982], [121.77895, 25.16163], [121.78053, 25.15062], [121.78053, 25.14811]]}}, {"type": "Feature", "properties": {"type": "trajectory", "particle": 6}, "geometry": {"type": "LineString", "coordinates": [[121.7489, 25.19529], [121.77095, 25.19421], [121.83856, 25.22735], [121.86609, 25.21599], [121.88118, 25.20096], [121.89119, 25.18441], [121.89319, 25.17508], [121.88728, 25.1705], [121.87632, 25.16981], [121.86287, 25.17341], [121.85027, 25.18035], [121.83985, 25.18288], [121.8319, 25.17828], [121.82937, 25.16985], [121.83472, 25.15771], [121.84915, 25.1469], [121.86813, 25.14327], [121.88322, 25.14281], [121.89247, 25.14394], [121.8989, 25.14794], [121.90462, 25.15487], [121.90565, 25.16697], [121.90217, 25.18746], [121.89604, 25.20431], [121.89449, 25.21055]]}}, {"type": "Feature", "properties": {"type": "trajectory", "particle": 12}, "geometry": {"type": "LineString", "coordinates": [[121.756, 25.2093], [121.77939, 25.20477], [121.8446, 25.23409], [121.87097, 25.22156], [121.8862, 25.20599], [121.89621, 25.18965], [121.89841, 25.18015], [121.8926, 25.17555], [121.88125, 25.17466], [121.86714, 25.17809], [121.85389, 25.18476], [121.84311, 25.18697], [121.83483, 25.18202], [121.83186, 25.17319], [121.83674, 25.16052], [121.85075, 25.14914], [121.86934, 25.14504], [121.88406, 25.14417], [121.89301, 25.14493], [121.89911, 25.14858], [121.90441, 25.15513], [121.90508, 25.16689], [121.90128, 25.18714], [121.89472, 25.20359], [121.89251, 25.20906]]}}, {"type": "Feature", "properties": {"type": "trajectory", "particle": 18}, "geometry": {"type": "LineString", "coordinates": [[121.76276, 25.20318], [121.78658, 25.19756], [121.85345, 25.22922], [121.8773, 25.21634], [121.89091, 25.20032], [121.89958, 25.18428], [121.90031, 25.17478], [121.893, 25.16981], [121.8804, 25.16836], [121.86543, 25.17101], [121.85126, 25.17688], [121.83923, 25.17832], [121.8297, 25.17271], [121.8256, 25.16338], [121.82923, 25.15056], [121.84167, 25.13914], [121.8586, 25.13457], [121.87146, 25.13304], [121.87791, 25.13289], [121.88094, 25.13519], [121.88358, 25.14022], [121.88465, 25.15058], [121.88074, 25.16857], [121.8725, 25.18098], [121.86628, 25.18044]]}}, {"type": "Feature", "properties": {"type": "trajectory", "particle": 24}, "geometry": {"type": "LineString", "coordinates": [[121.74628, 25.20041], [121.76612, 25.20105], [121.83044, 25.23427], [121.85814, 25.22461], [121.87278, 25.21143], [121.88158, 25.19532], [121.88175, 25.18567], [121.87362, 25.18108], [121.85989, 25.18094], [121.84231, 25.18546], [121.82526, 25.19339], [121.80877, 25.19635], [121.79125, 25.19017], [121.78076, 25.18012], [121.77952, 25.16622], [121.78855, 25.15203], [121.78979, 25.15041]]}}, {"type": "Feature", "properties": {"type": "trajectory", "particle": 30}, "geometry": {"type": "LineString", "coordinates": [[121.74318, 25.21438], [121.75904, 25.20936], [121.81142, 25.2323], [121.83787, 25.21897], [121.84781, 25.2014], [121.85146, 25.17733], [121.84578, 25.16231], [121.83306, 25.15272], [121.81801, 25.14858], [121.80138, 25.14865], [121.78623, 25.15266], [121.77352, 25.15257]]}}, {"type": "Feature", "properties": {"type": "trajectory", "particle": 36}, "geometry": {"type": "LineString", "coordinates": [[121.74089, 25.19091], [121.76172, 25.19235], [121.82747, 25.22544], [121.85695, 25.21493], [121.87217, 25.20028], [121.88215, 25.18271], [121.88383, 25.17287], [121.87775, 25.16788], [121.86706, 25.16716], [121.85394, 25.1708], [121.84166, 25.17793], [121.83112, 25.18063], [121.82256, 25.17599], [121.81936, 25.16729], [121.82434, 25.15447], [121.83893, 25.14306], [121.85855, 25.13932], [121.87411, 25.13914], [121.88331, 25.14047], [121.8893, 25.14445], [121.89462, 25.15141], [121.89701, 25.16408], [121.89427, 25.18552], [121.8877, 25.20172], [121.88503, 25.20608]]}}, {"type": "Feature", "properties": {"type": "trajectory", "particle": 42}, "geometry": {"type": "LineString", "coordinates": [[121.76026, 25.20434], [121.78459, 25.19526], [121.8529, 25.22372], [121.87788, 25.20759], [121.8923, 25.18823], [121.90223, 25.17016], [121.90396, 25.15805], [121.89803, 25.15022], [121.88854, 25.14618], [121.87877, 25.14582], [121.87012, 25.14886], [121.86413, 25.14804], [121.86377, 25.14183], [121.87107, 25.13412], [121.88578, 25.127], [121.88699, 25.12418]]}}, {"type": "Feature", "properties": {"type": "trajectory", "particle": 48}, "geometry": {"type": "LineString", "coordinates": [[121.74404, 25.20458], [121.76019, 25.19778], [121.81837, 25.22338], [121.84515, 25.20787], [121.85536, 25.18781], [121.86044, 25.16448], [121.85687, 25.14957], [121.84682, 25.1397], [121.83501, 25.13448], [121.82307, 25.13288], [121.81488, 25.13433]]}}, {"type": "Feature", "properties": {"type": "trajectory", "particle": 54}, "geometry": {"type": "LineString", "coordinates": [[121.75224, 25.20477], [121.77349, 25.1998], [121.83891, 25.22985], [121.86517, 25.21634], [121.87904, 25.19935], [121.88773, 25.1807], [121.88823, 25.16941], [121.88091, 25.1628], [121.86921, 25.16023], [121.85574, 25.1618], [121.84325, 25.16686], [121.83259, 25.16766], [121.82473, 25.16166], [121.82293, 25.15248], [121.82893, 25.14083], [121.84318, 25.13105], [121.84318, 25.12868]]}}, {"type": "Feature", "properties": {"type": "trajectory", "particle": 60}, "geometry": {"type": "LineString", "coordinates": [[121.74075, 25.1967], [121.75611, 25.19343], [121.81226, 25.22069], [121.83974, 25.20739], [121.84939, 25.18901], [121.85377, 25.16629], [121.84926, 25.15218], [121.83822, 25.14315], [121.82533, 25.13897], [121.81831, 25.13798]]}}, {"type": "Feature", "properties": {"type": "trajectory", "particle": 66}, "geometry": {"type": "LineString", "coordinates": [[121.74977, 25.20011], [121.76955, 25.19312], [121.83622, 25.22227], [121.86231, 25.20665], [121.87489, 25.18715], [121.88271, 25.16678], [121.88229, 25.15358], [121.87461, 25.14483], [121.86402, 25.14016], [121.85326, 25.13916], [121.84357, 25.14178], [121.83563, 25.14051], [121.83206, 25.13356], [121.83206, 25.13074]]}}, {"type": "Feature", "properties": {"type": "trajectory", "particle": 72}, "geometry": {"type": "LineString", "coordinates": [[121.7307, 25.20204], [121.74098, 25.20246], [121.77986, 25.22391], [121.80496, 25.215], [121.81259, 25.19875], [121.81338, 25.17111], [121.8044, 25.15523], [121.79955, 25.14948]]}}, {"type": "Feature", "properties": {"type": "trajectory", "particle": 78}, "geometry": {"type": "LineString", "coordinates": [[121.76412, 25.1987], [121.78888, 25.19234], [121.85732, 25.22401], [121.88103, 25.21046], [121.89492, 25.19363], [121.90417, 25.17788], [121.90504, 25.16769], [121.89809, 25.16199], [121.88678, 25.1601], [121.87392, 25.16211], [121.86196, 25.16738], [121.85258, 25.16846], [121.84718, 25.16329], [121.84811, 25.15547], [121.85634, 25.14618], [121.87154, 25.13877], [121.88935, 25.13624], [121.90349, 25.13483], [121.91153, 25.13429], [121.91524, 25.13643], [121.91875, 25.14113], [121.92016, 25.15023], [121.91919, 25.16557], [121.91696, 25.17652], [121.91821, 25.17916]]}}, {"type": "Feature", "properties": {"type": "trajectory", "particle": 84}, "geometry": {"type": "LineString", "coordinates": [[121.74348, 25.19153], [121.76166, 25.19292], [121.82361, 25.22609], [121.85049, 25.21602], [121.86229, 25.20159], [121.86832, 25.18253], [121.86532, 25.17121], [121.85441, 25.16467], [121.83946, 25.16294], [121.82181, 25.16556], [121.80476, 25.17189], [121.78797, 25.17357], [121.77435, 25.16817], [121.7698, 25.16163]]}}, {"type": "Feature", "properties": {"type": "trajectory", "particle": 90}, "geometry": {"type": "LineString", "coordinates": [[121.75328, 25.20398], [121.77265, 25.19824], [121.83665, 25.22818], [121.8612, 25.21418], [121.87267, 25.19644], [121.87879, 25.17639], [121.87635, 25.16376], [121.86624, 25.15573], [121.85255, 25.15204], [121.83748, 25.15237], [121.82336, 25.15634], [121.81024, 25.15606], [121.79913, 25.14889]]}}, {"type": "Feature", "properties": {"type": "trajectory", "particle": 96}, "geometry": {"type": "LineString", "coordinates": [[121.74657, 25.19821], [121.76331, 25.19505], [121.82446, 25.22547], [121.84995, 25.21269], [121.86018, 25.19554], [121.86483, 25.17435], [121.86053, 25.16116], [121.84889, 25.1528], [121.83433, 25.14922], [121.81827, 25.14968], [121.80307, 25.15392], [121.78853, 25.15387], [121.7789, 25.15092]]}}, {"type": "Feature", "properties": {"type": "trajectory", "particle": 102}, "geometry": {"type": "LineString", "coordinates": [[121.74217, 25.19619], [121.75809, 25.19173], [121.81667, 25.21926], [121.84364, 25.20497], [121.85341, 25.18591], [121.85809, 25.16334], [121.85406, 25.14907], [121.84358, 25.13974], [121.83137, 25.13506], [121.81882, 25.13396], [121.81444, 25.13396]]}}, {"type": "Feature", "properties": {"type": "trajectory", "particle": 108}, "geometry": {"type": "LineString", "coordinates": [[121.76255, 25.19955], [121.78645, 25.19732], [121.85329, 25.23186], [121.87736, 25.22176], [121.89137, 25.20858], [121.90016, 25.19522], [121.90108, 25.18782], [121.89369, 25.18524], [121.8799, 25.18614], [121.86205, 25.19139], [121.84457, 25.19962], [121.82896, 25.20296], [121.81371, 25.1979], [121.80119, 25.18635], [121.79752, 25.16722], [121.80626, 25.14856], [121.82257, 25.14089], [121.83408, 25.13972], [121.83646, 25.14002], [121.83301, 25.14192], [121.82335, 25.14663], [121.80994, 25.15554], [121.78809, 25.16477], [121.76945, 25.16833], [121.76257, 25.16521]]}}, {"type": "Feature", "properties": {"type": "trajectory", "particle": 114}, "geometry": {"type": "LineString", "coordinates": [[121.76318, 25.19286], [121.78461, 25.18805], [121.85057, 25.22091], [121.87188, 25.20787], [121.8818, 25.19096], [121.88674, 25.17346], [121.8832, 25.16235], [121.87175, 25.15533], [121.85638, 25.15223], [121.83951, 25.15297], [121.8234, 25.15724], [121.80811, 25.15714], [121.79567, 25.14997]]}}, {"type": "Feature", "properties": {"type": "trajectory", "particle": 120}, "geometry": {"type": "LineString", "coordinates": [[121.74616, 25.20917], [121.76215, 25.20506], [121.81812, 25.2315], [121.84369, 25.21867], [121.85365, 25.2017], [121.85746, 25.17901], [121.85197, 25.16479], [121.8391, 25.15574], [121.82341, 25.15194], [121.80589, 25.15239], [121.78947, 25.15674], [121.77542, 25.15691], [121.76924, 25.15691]]}}, {"type": "Feature", "properties": {"type": "trajectory", "particle": 126}, "geometry": {"type": "LineString", "coordinates": [[121.74075, 25.19056], [121.75677, 25.18897], [121.81495, 25.21843], [121.8419, 25.20585], [121.85125, 25.18817], [121.85537, 25.16634], [121.85057, 25.15279], [121.8391, 25.14418], [121.8256, 25.14034], [121.81117, 25.14026], [121.79756, 25.14399], [121.79496, 25.14399]]}}, {"type": "Feature", "properties": {"type": "trajectory", "particle": 132}, "geometry": {"type": "LineString", "coordinates": [[121.74496, 25.19813], [121.76124, 25.19397], [121.82121, 25.22284], [121.84721, 25.20914], [121.85711, 25.19081], [121.86169, 25.16884], [121.85742, 25.155], [121.84624, 25.14606], [121.83277, 25.14184], [121.81844, 25.14145], [121.80502, 25.14485], [121.79726, 25.14547]]}}, {"type": "Feature", "properties": {"type": "trajectory", "particle": 138}, "geometry": {"type": "LineString", "coordinates": [[121.74896, 25.20363], [121.76624, 25.19997], [121.82779, 25.23042], [121.85271, 25.21772], [121.86341, 25.2011], [121.86826, 25.18019], [121.86408, 25.16717], [121.8522, 25.15898], [121.83684, 25.15563], [121.81949, 25.15649], [121.80299, 25.16113], [121.78713, 25.16136], [121.77467, 25.15493], [121.77068, 25.15355]]}}, {"type": "Feature", "properties": {"type": "trajectory", "particle": 144}, "geometry": {"type": "LineString", "coordinates": [[121.7424, 25.21294], [121.7576, 25.21227], [121.8073, 25.23718], [121.8334, 25.22737], [121.84324, 25.21347], [121.84601, 25.19193], [121.83817, 25.17723], [121.82224, 25.16806], [121.80296, 25.16518], [121.78135, 25.16745], [121.76477, 25.17407], [121.75124, 25.17679], [121.73979, 25.17372], [121.73164, 25.1688], [121.7275, 25.16468], [121.72722, 25.16315]]}}, {"type": "Feature", "properties": {"type": "trajectory", "particle": 150}, "geometry": {"type": "LineString", "coordinates": [[121.75767, 25.1935], [121.78246, 25.18974], [121.85203, 25.22224], [121.87775, 25.20939], [121.89285, 25.19303], [121.90342, 25.17757], [121.90572, 25.16788], [121.90014, 25.16262], [121.89034, 25.16134], [121.87901, 25.16403], [121.86862, 25.16997], [121.86122, 25.17178], [121.85837, 25.16759], [121.86209, 25.16107], [121.87301, 25.15375], [121.89032, 25.14888], [121.90937, 25.14871], [121.92368, 25.14713], [121.93076, 25.14635], [121.93284, 25.14863], [121.9334, 25.15351], [121.93176, 25.16212], [121.92929, 25.17562], [121.92747, 25.18477], [121.93045, 25.18616]]}}, {"type": "Feature", "properties": {"type": "trajectory", "particle": 156}, "geometry": {"type": "LineString", "coordinates": [[121.75665, 25.18783], [121.78062, 25.18766], [121.84946, 25.22282], [121.87451, 25.21222], [121.8885, 25.19792], [121.89768, 25.18331], [121.89898, 25.1753], [121.89221, 25.17173], [121.88003, 25.1717], [121.86511, 25.17582], [121.85085, 25.18313], [121.83865, 25.1859], [121.82844, 25.1813], [121.82312, 25.1724], [121.82563, 25.1589], [121.83776, 25.14634], [121.85511, 25.14164], [121.86829, 25.1408], [121.87456, 25.14144], [121.87694, 25.14445], [121.87716, 25.15032], [121.8741, 25.16142], [121.86484, 25.17854], [121.85139, 25.1888], [121.84055, 25.18364]]}}, {"type": "Feature", "properties": {"type": "trajectory", "particle": 162}, "geometry": {"type": "LineString", "coordinates": [[121.75717, 25.20201], [121.77971, 25.19846], [121.84584, 25.23075], [121.87105, 25.21896], [121.88502, 25.20387], [121.89378, 25.18776], [121.89449, 25.17839], [121.88708, 25.17369], [121.87424, 25.17276], [121.85856, 25.1761], [121.8436, 25.18272], [121.83038, 25.18475], [121.81865, 25.17914], [121.81176, 25.16899], [121.81309, 25.1539], [121.8246, 25.1401], [121.84178, 25.13477], [121.85468, 25.1337], [121.86028, 25.13405], [121.86158, 25.1365], [121.86034, 25.14162], [121.85676, 25.15165], [121.84698, 25.16668], [121.83304, 25.17482], [121.82136, 25.16755]]}}, {"type": "Feature", "properties": {"type": "trajectory", "particle": 168}, "geometry": {"type": "LineString", "coordinates": [[121.76835, 25.20257], [121.79824, 25.19788], [121.87027, 25.23141], [121.8962, 25.21988], [121.91466, 25.20564], [121.92744, 25.19174], [121.93149, 25.18255], [121.92719, 25.17834], [121.91799, 25.17857], [121.90752, 25.18382], [121.8993, 25.19285], [121.89694, 25.1986], [121.90154, 25.19955], [121.91282, 25.19927], [121.92883, 25.19834], [121.94899, 25.19652], [121.97009, 25.1934], [121.98654, 25.18908], [121.99329, 25.18751], [121.99208, 25.1907], [121.98811, 25.19683], [121.98344, 25.20292], [121.98111, 25.20688], [121.98412, 25.20669], [121.99507, 25.20168]]}}, {"type": "Feature", "properties": {"type": "trajectory", "particle": 174}, "geometry": {"type": "LineString", "coordinates": [[121.74638, 25.20079], [121.76121, 25.19523], [121.81901, 25.22297], [121.84382, 25.20861], [121.85199, 25.1895], [121.85476, 25.16633], [121.84857, 25.15159], [121.83583, 25.14192], [121.82139, 25.13711], [121.8201, 25.13711]]}}, {"type": "Feature", "properties": {"type": "trajectory", "particle": 180}, "geometry": {"type": "LineString", "coordinates": [[121.76478, 25.19638], [121.78815, 25.19037], [121.85541, 25.22246], [121.87773, 25.20903], [121.88969, 25.19207], [121.89689, 25.17556], [121.89603, 25.1653], [121.88715, 25.15915], [121.87379, 25.15658], [121.85889, 25.15787], [121.84483, 25.16253], [121.83248, 25.16291], [121.82297, 25.1566], [121.81944, 25.14719], [121.82337, 25.13551], [121.82839, 25.13114]]}}, {"type": "Feature", "properties": {"type": "trajectory", "particle": 186}, "geometry": {"type": "LineString", "coordinates": [[121.75525, 25.19058], [121.77497, 25.18584], [121.84143, 25.21795], [121.86426, 25.20378], [121.874, 25.1856], [121.87886, 25.16624], [121.87518, 25.15368], [121.86415, 25.14536], [121.85027, 25.14118], [121.83578, 25.14063], [121.82221, 25.14372], [121.80962, 25.14273], [121.80114, 25.13745]]}}, {"type": "Feature", "properties": {"type": "trajectory", "particle": 192}, "geometry": {"type": "LineString", "coordinates": [[121.7411, 25.18521], [121.7579, 25.18538], [121.81824, 25.21716], [121.84462, 25.20545], [121.85386, 25.18862], [121.85787, 25.16779], [121.85291, 25.15494], [121.84103, 25.14685], [121.82679, 25.14351], [121.81132, 25.14398], [121.79782, 25.14649]]}}, {"type": "Feature", "properties": {"type": "trajectory", "particle": 198}, "geometry": {"type": "LineString", "coordinates": [[121.74579, 25.20314], [121.76513, 25.20327], [121.82751, 25.23483], [121.85521, 25.22491], [121.86945, 25.21142], [121.87773, 25.19446], [121.87717, 25.18407], [121.86831, 25.17876], [121.85414, 25.1781], [121.83629, 25.18211], [121.819, 25.18965], [121.80196, 25.19221], [121.78492, 25.1861], [121.77547, 25.1768], [121.77441, 25.16421], [121.78295, 25.15141], [121.78893, 25.14994]]}}, {"type": "Feature", "properties": {"type": "trajectory", "particle": 204}, "geometry": {"type": "LineString", "coordinates": [[121.75934, 25.19489], [121.78311, 25.19185], [121.8511, 25.22521], [121.87573, 25.21341], [121.88963, 25.19814], [121.8987, 25.18277], [121.89988, 25.17399], [121.89304, 25.16967], [121.88094, 25.16887], [121.86639, 25.17218], [121.8526, 25.17871], [121.841, 25.1808], [121.8319, 25.17581], [121.82812, 25.16701], [121.83202, 25.15454], [121.84483, 25.14329], [121.86219, 25.13903], [121.87551, 25.13792], [121.88251, 25.13824], [121.88614, 25.14111], [121.88905, 25.14681], [121.88947, 25.15798], [121.88463, 25.17703], [121.87558, 25.19032], [121.86902, 25.1904]]}}, {"type": "Feature", "properties": {"type": "trajectory", "particle": 210}, "geometry": {"type": "LineString", "coordinates": [[121.74472, 25.19944], [121.7604, 25.19793], [121.8176, 25.22787], [121.84356, 25.21653], [121.8535, 25.20073], [121.85736, 25.17908], [121.85189, 25.16582], [121.83891, 25.15759], [121.82287, 25.15455], [121.80465, 25.15577], [121.78755, 25.16089], [121.77304, 25.16181], [121.7653, 25.15945]]}}, {"type": "Feature", "properties": {"type": "trajectory", "particle": 216}, "geometry": {"type": "LineString", "coordinates": [[121.74338, 25.19848], [121.75963, 25.19568], [121.81808, 25.22455], [121.84491, 25.2119], [121.85541, 25.19464], [121.86034, 25.17283], [121.85631, 25.15937], [121.84516, 25.15089], [121.83138, 25.1473], [121.81624, 25.14772], [121.80196, 25.15196], [121.7884, 25.15196], [121.77959, 25.14907]]}}, {"type": "Feature", "properties": {"type": "trajectory", "particle": 222}, "geometry": {"type": "LineString", "coordinates": [[121.74169, 25.19084], [121.76291, 25.18909], [121.8313, 25.22081], [121.86049, 25.20762], [121.8755, 25.1902], [121.88584, 25.17168], [121.88813, 25.16047], [121.88299, 25.15381], [121.87415, 25.15118], [121.86438, 25.15249], [121.85567, 25.15733], [121.84926, 25.15818], [121.84729, 25.15309], [121.85238, 25.14589], [121.865, 25.13816], [121.88405, 25.13282], [121.90491, 25.13162], [121.91383, 25.13072]]}}, {"type": "Feature", "properties": {"type": "trajectory", "particle": 228}, "geometry": {"type": "LineString", "coordinates": [[121.7636, 25.19739], [121.79241, 25.19095], [121.86475, 25.22218], [121.89119, 25.20817], [121.9093, 25.19119], [121.92199, 25.17529], [121.92567, 25.16429], [121.92139, 25.1579], [121.91338, 25.15565], [121.90557, 25.15765], [121.89977, 25.16326], [121.89853, 25.1656], [121.90479, 25.16325], [121.9181, 25.15907], [121.93636, 25.15349], [121.95663, 25.14632], [121.97427, 25.13828], [121.9841, 25.13079], [121.984, 25.12751], [121.97914, 25.12895], [121.97489, 25.13314], [121.97223, 25.13928], [121.97301, 25.14531], [121.97758, 25.14565], [121.98658, 25.13936]]}}, {"type": "Feature", "properties": {"type": "trajectory", "particle": 234}, "geometry": {"type": "LineString", "coordinates": [[121.75051, 25.19884], [121.77273, 25.19291], [121.84122, 25.22276], [121.86852, 25.20792], [121.88338, 25.18935], [121.89363, 25.17084], [121.89602, 25.15924], [121.89085, 25.15203], [121.8819, 25.1486], [121.87237, 25.14898], [121.86395, 25.15284], [121.85809, 25.15278], [121.85741, 25.14713], [121.86417, 25.13977], [121.87837, 25.13264], [121.89827, 25.12807], [121.91851, 25.12597], [121.93202, 25.12163], [121.93723, 25.11881], [121.93837, 25.11951], [121.94106, 25.12288], [121.94402, 25.12968], [121.947, 25.13965], [121.95058, 25.14398], [121.95723, 25.14041]]}}, {"type": "Feature", "properties": {"type": "trajectory", "particle": 240}, "geometry": {"type": "LineString", "coordinates": [[121.75238, 25.18663], [121.77414, 25.18402], [121.84291, 25.21727], [121.86772, 25.20403], [121.8799, 25.18681], [121.88737, 25.16905], [121.88662, 25.15791], [121.87827, 25.15095], [121.86633, 25.14789], [121.85349, 25.14859], [121.84154, 25.15281], [121.83118, 25.15293], [121.8242, 25.14676], [121.82377, 25.13809], [121.82919, 25.13151]]}}, {"type": "Feature", "properties": {"type": "trajectory", "particle": 246}, "geometry": {"type": "LineString", "coordinates": [[121.7575, 25.19847], [121.77747, 25.19577], [121.84168, 25.22919], [121.86483, 25.21799], [121.8758, 25.20313], [121.88117, 25.18567], [121.87775, 25.17498], [121.86604, 25.16875], [121.84953, 25.16681], [121.83011, 25.16913], [121.81126, 25.17499], [121.79236, 25.17603], [121.77613, 25.16969], [121.76859, 25.16245]]}}, {"type": "Feature", "properties": {"type": "trajectory", "particle": 252}, "geometry": {"type": "LineString", "coordinates": [[121.74654, 25.20187], [121.76275, 25.19831], [121.82185, 25.22763], [121.84731, 25.21484], [121.85732, 25.19776], [121.86153, 25.17587], [121.85666, 25.16228], [121.84444, 25.15364], [121.82938, 25.14997], [121.81271, 25.1504], [121.7969, 25.15466], [121.78244, 25.15467], [121.77865, 25.15182]]}}, {"type": "Feature", "properties": {"type": "trajectory", "particle": 258}, "geometry": {"type": "LineString", "coordinates": [[121.74469, 25.21488], [121.76509, 25.20655], [121.82757, 25.23006], [121.8561, 25.21365], [121.87049, 25.19359], [121.87981, 25.17159], [121.88096, 25.1576], [121.87492, 25.14846], [121.86586, 25.14364], [121.8565, 25.14268], [121.84836, 25.14538], [121.84225, 25.14422], [121.84085, 25.13742], [121.84435, 25.1304]]}}, {"type": "Feature", "properties": {"type": "trajectory", "particle": 264}, "geometry": {"type": "LineString", "coordinates": [[121.75226, 25.20752], [121.77385, 25.19871], [121.84011, 25.22574], [121.86652, 25.20908], [121.88033, 25.18885], [121.88943, 25.16846], [121.89052, 25.15517], [121.8842, 25.1463], [121.87467, 25.14137], [121.86507, 25.14013], [121.85665, 25.14245], [121.8504, 25.14094], [121.84936, 25.13399], [121.85176, 25.12839]]}}, {"type": "Feature", "properties": {"type": "trajectory", "particle": 270}, "geometry": {"type": "LineString", "coordinates": [[121.76073, 25.20174], [121.7774, 25.19225]]}}, {"type": "Feature", "properties": {"type": "trajectory", "particle": 276}, "geometry": {"type": "LineString", "coordinates": [[121.7478, 25.2038], [121.76768, 25.20051], [121.83225, 25.23102], [121.85938, 25.21839], [121.87324, 25.20215], [121.88165, 25.1832], [121.88164, 25.17178], [121.87379, 25.16519], [121.86157, 25.16294], [121.84722, 25.16497], [121.83379, 25.17056], [121.82175, 25.17175], [121.81151, 25.16565], [121.80687, 25.1557], [121.81041, 25.14218], [121.82333, 25.13058], [121.82798, 25.13058]]}}, {"type": "Feature", "properties": {"type": "trajectory", "particle": 282}, "geometry": {"type": "LineString", "coordinates": [[121.7506, 25.19729], [121.77276, 25.19253], [121.84106, 25.2233], [121.86813, 25.20928], [121.88277, 25.19148], [121.89271, 25.17343], [121.89472, 25.16234], [121.88911, 25.15568], [121.87946, 25.15284], [121.86885, 25.1539], [121.85929, 25.15843], [121.85219, 25.15894], [121.84963, 25.15353], [121.85408, 25.14602], [121.86597, 25.13802], [121.8842, 25.13236], [121.90418, 25.13073], [121.90905, 25.13073]]}}, {"type": "Feature", "properties": {"type": "trajectory", "particle": 288}, "geometry": {"type": "LineString", "coordinates": [[121.75269, 25.20867], [121.77348, 25.20446], [121.83685, 25.23367], [121.86273, 25.22108], [121.87619, 25.20514], [121.88409, 25.18685], [121.88354, 25.17565], [121.87495, 25.16926], [121.8616, 25.16714], [121.84571, 25.16935], [121.83068, 25.17507], [121.81681, 25.17625], [121.80405, 25.16972], [121.7965, 25.15884], [121.79771, 25.14442], [121.79771, 25.14182]]}}, {"type": "Feature", "properties": {"type": "trajectory", "particle": 294}, "geometry": {"type": "LineString", "coordinates": [[121.73589, 25.21257], [121.74993, 25.20814], [121.79626, 25.22811], [121.82449, 25.21507], [121.83411, 25.19686], [121.83756, 25.17092], [121.83176, 25.15523], [121.81982, 25.14541], [121.80651, 25.14116], [121.79766, 25.14024]]}}, {"type": "Feature", "properties": {"type": "start", "label": "Start"}, "geometry": {"type": "Point", "coordinates": [121.74904, 25.20107]}}, {"type": "Feature", "properties": {"type": "end_center", "label": "End (mean)"}, "geometry": {"type": "Point", "coordinates": [121.82249, 25.15159]}}, {"type": "Feature", "properties": {"type": "end_hull", "label": "Spread area"}, "geometry": {"type": "Polygon", "coordinates": [[[121.98936, 25.10431], [122.01281, 25.22087], [121.90754, 25.24211], [121.77707, 25.19322], [121.72722, 25.16315], [121.74688, 25.14806], [121.81725, 25.125], [121.98936, 25.10431]]]}}]}