{"type": "FeatureCollection", "properties": {"model_type": "leeway", "times": ["2026-10-05 00:00:00", "2026-10-05 01:00:00", "2026-10-05 02:00:00", "2026-10-05 03:00:00", "2026-10-05 04:00:00", "2026-10-05 05:00:00", "2026-10-05 06:00:00", "2026-10-05 07:00:00", "2026-10-05 08:00:00", "2026-10-05 09:00:00", "2026-10-05 10:00:00", "2026-10-05 11:00:00", "2026-10-05 12:00:00", "2026-10-05 13:00:00", "2026-10-05 14:00:00", "2026-10-05 15:00:00", "2026-10-05 16:00:00", "2026-10-05 17:00:00", "2026-10-05 18:00:00", "2026-10-05 19:00:00", "2026-10-05 20:00:00", "2026-10-05 21:00:00", "2026-10-05 22:00:00", "2026-10-05 23:00:00", "2026-10-06 00:00:00"], "num_particles": 300, "num_steps": 25}, "features": [{"type": "Feature", "properties": {"type": "trajectory", "particle": 0}, "geometry": {"type": "LineString", "coordinates": [[119.58482, 23.4868], [119.59186, 23.48382], [119.59246, 23.48122], [119.58784, 23.47775], [119.57991, 23.47474], [119.56822, 23.47349], [119.55219, 23.47503], [119.53352, 23.47657], [119.51717, 23.47694], [119.5045, 23.47362], [119.49602, 23.46652], [119.49648, 23.45826], [119.50031, 23.44839], [119.50468, 23.43642], [119.51333, 23.42243], [119.52174, 23.40929], [119.52893, 23.39835], [119.53075, 23.39055], [119.52251, 23.38749], [119.50414, 23.39026], [119.48067, 23.39756], [119.46014, 23.40653], [119.44563, 23.41356], [119.43713, 23.41479], [119.43267, 23.40843]]}}, {"type": "Feature", "properties": {"type": "trajectory", "particle": 6}, "geometry": {"type": "LineString", "coordinates": [[119.59892, 23.49529], [119.6047, 23.49388], [119.60272, 23.49161], [119.59563, 23.48825], [119.58599, 23.48435], [119.57372, 23.48119], [119.55796, 23.48029], [119.53965, 23.47958], [119.52339, 23.47808], [119.5105, 23.47328], [119.50172, 23.46488], [119.50211, 23.45477], [119.50536, 23.44362], [119.50912, 23.43047], [119.51668, 23.41513], [119.52385, 23.40013], [119.5296, 23.38723], [119.52857, 23.37793], [119.51802, 23.37361], [119.50772, 23.37376]]}}, {"type": "Feature", "properties": {"type": "trajectory", "particle": 12}, "geometry": {"type": "LineString", "coordinates": [[119.60593, 23.5093], [119.60963, 23.50749], [119.60648, 23.50523], [119.5985, 23.50241], [119.58752, 23.49906], [119.57464, 23.49536], [119.55922, 23.49304], [119.54144, 23.49037], [119.52559, 23.48713], [119.51274, 23.48096], [119.50389, 23.4715], [119.50462, 23.46057], [119.50811, 23.44873], [119.51179, 23.4349], [119.51929, 23.41887], [119.52631, 23.4033], [119.53191, 23.38975], [119.53089, 23.37978], [119.5202, 23.37485], [119.50854, 23.37472]]}}, {"type": "Feature", "properties": {"type": "trajectory", "particle": 18}, "geometry": {"type": "LineString", "coordinates": [[119.61259, 23.50319], [119.6133, 23.49914], [119.6077, 23.49512], [119.59795, 23.49048], [119.58579, 23.4855], [119.57147, 23.48113], [119.55367, 23.47919], [119.53318, 23.47747], [119.51482, 23.47498], [119.50008, 23.46902], [119.48916, 23.46004], [119.48602, 23.45046], [119.48589, 23.43854], [119.48686, 23.42342], [119.49142, 23.40612], [119.4961, 23.39297]]}}, {"type": "Feature", "properties": {"type": "trajectory", "particle": 24}, "geometry": {"type": "LineString", "coordinates": [[119.59633, 23.50041], [119.60236, 23.5024], [119.6003, 23.50423], [119.59297, 23.50483], [119.58328, 23.50439], [119.57144, 23.5039], [119.55714, 23.50441], [119.54073, 23.50382], [119.52626, 23.50222], [119.51437, 23.4973], [119.50637, 23.48905], [119.50932, 23.47963], [119.51508, 23.46965], [119.52006, 23.45783], [119.52946, 23.44401], [119.53808, 23.43153], [119.54384, 23.42133], [119.54453, 23.41435], [119.53675, 23.41191], [119.51922, 23.41504], [119.49738, 23.42236], [119.47658, 23.42888], [119.4618, 23.43378], [119.45341, 23.43399], [119.44972, 23.42802]]}}, {"type": "Feature", "properties": {"type": "trajectory", "particle": 30}, "geometry": {"type": "LineString", "coordinates": [[119.59225, 23.51151], [119.59493, 23.50889], [119.59118, 23.50624], [119.58266, 23.50197], [119.5713, 23.49706], [119.55713, 23.49286], [119.53929, 23.49069], [119.51852, 23.4875], [119.50015, 23.48339], [119.48501, 23.47683], [119.47245, 23.46998], [119.46758, 23.46145], [119.46594, 23.44896], [119.46537, 23.43138], [119.46787, 23.40994], [119.46955, 23.38889], [119.46868, 23.37177], [119.46108, 23.35909], [119.44554, 23.35099], [119.42568, 23.34835], [119.40672, 23.35182], [119.39137, 23.3596], [119.37939, 23.36519], [119.37105, 23.36168], [119.36475, 23.34686]]}}, {"type": "Feature", "properties": {"type": "trajectory", "particle": 36}, "geometry": {"type": "LineString", "coordinates": [[119.59101, 23.49091], [119.59826, 23.48849], [119.59821, 23.48638], [119.59286, 23.48286], [119.58463, 23.47914], [119.57321, 23.47661], [119.55793, 23.4766], [119.54006, 23.47687], [119.52428, 23.47625], [119.51194, 23.47223], [119.50371, 23.46457], [119.50455, 23.45514], [119.50834, 23.44458], [119.51273, 23.4319], [119.52086, 23.41688], [119.52853, 23.40204], [119.53473, 23.38908], [119.53431, 23.37967], [119.52443, 23.37529], [119.51812, 23.37529]]}}, {"type": "Feature", "properties": {"type": "trajectory", "particle": 42}, "geometry": {"type": "LineString", "coordinates": [[119.61013, 23.50434], [119.61238, 23.49679], [119.60808, 23.48843], [119.59987, 23.47878], [119.58913, 23.46901], [119.57567, 23.4607], [119.55766, 23.45611], [119.53646, 23.45337], [119.51704, 23.45015], [119.50168, 23.44324], [119.49033, 23.43299], [119.48479, 23.42166], [119.48201, 23.4077], [119.48182, 23.39023], [119.48398, 23.36909], [119.48398, 23.36322]]}}, {"type": "Feature", "properties": {"type": "trajectory", "particle": 48}, "geometry": {"type": "LineString", "coordinates": [[119.59412, 23.50458], [119.59743, 23.49861], [119.59359, 23.49229], [119.58519, 23.48348], [119.57446, 23.47415], [119.56015, 23.46664], [119.54066, 23.46271], [119.51778, 23.4595], [119.49701, 23.45532], [119.48037, 23.44902], [119.46717, 23.44226], [119.45991, 23.43286], [119.45571, 23.41837], [119.45361, 23.39767], [119.4529, 23.37172], [119.44932, 23.34442], [119.44018, 23.31986], [119.42471, 23.29846], [119.40583, 23.28288], [119.38708, 23.27758], [119.36899, 23.28036], [119.35198, 23.28528], [119.33772, 23.28686], [119.32658, 23.27999], [119.31943, 23.26081]]}}, {"type": "Feature", "properties": {"type": "trajectory", "particle": 54}, "geometry": {"type": "LineString", "coordinates": [[119.60221, 23.50478], [119.60619, 23.50203], [119.60265, 23.49876], [119.59404, 23.49441], [119.58326, 23.48896], [119.57011, 23.48399], [119.55348, 23.48126], [119.53411, 23.47865], [119.51678, 23.47537], [119.50292, 23.46881], [119.49298, 23.45897], [119.49094, 23.44835], [119.49179, 23.43585], [119.49377, 23.42078], [119.49943, 23.40415], [119.50526, 23.38937], [119.50526, 23.38561]]}}, {"type": "Feature", "properties": {"type": "trajectory", "particle": 60}, "geometry": {"type": "LineString", "coordinates": [[119.59087, 23.4967], [119.59441, 23.49113], [119.59119, 23.48503], [119.58349, 23.47705], [119.5731, 23.46921], [119.55872, 23.46363], [119.53889, 23.4618], [119.51576, 23.46049], [119.49496, 23.45794], [119.47826, 23.45364], [119.46497, 23.44868], [119.45792, 23.44091], [119.45406, 23.42791], [119.45214, 23.40854], [119.45179, 23.38416], [119.44923, 23.35833], [119.44198, 23.33538], [119.4283, 23.31608], [119.4099, 23.30127], [119.39059, 23.29278], [119.37189, 23.2952], [119.35435, 23.30184], [119.33978, 23.30567], [119.32843, 23.30084], [119.32076, 23.28347]]}}, {"type": "Feature", "properties": {"type": "trajectory", "particle": 66}, "geometry": {"type": "LineString", "coordinates": [[119.59977, 23.50011], [119.6038, 23.49436], [119.60018, 23.48715], [119.59203, 23.47807], [119.58173, 23.46841], [119.56808, 23.46058], [119.54935, 23.45658], [119.5273, 23.454], [119.50719, 23.45064], [119.49139, 23.44344], [119.47931, 23.43503], [119.47301, 23.42481], [119.46966, 23.41072], [119.46867, 23.39185], [119.46958, 23.36849], [119.46727, 23.34517], [119.45885, 23.32528], [119.44335, 23.30799], [119.423, 23.29371], [119.40308, 23.28633], [119.386, 23.28687], [119.37087, 23.29106], [119.35897, 23.29241], [119.35035, 23.28562], [119.34547, 23.26641]]}}, {"type": "Feature", "properties": {"type": "trajectory", "particle": 72}, "geometry": {"type": "LineString", "coordinates": [[119.58095, 23.50204], [119.58531, 23.49891], [119.58337, 23.49642], [119.5763, 23.4928], [119.56612, 23.48928], [119.55228, 23.48728], [119.53415, 23.48767], [119.51308, 23.48678], [119.51064, 23.48678]]}}, {"type": "Feature", "properties": {"type": "trajectory", "particle": 78}, "geometry": {"type": "LineString", "coordinates": [[119.61393, 23.4987], [119.61457, 23.49274], [119.60929, 23.48625], [119.60032, 23.479], [119.58873, 23.47199], [119.57449, 23.46639], [119.55604, 23.46412], [119.53466, 23.46305], [119.51531, 23.4612], [119.49993, 23.45561], [119.48851, 23.44685], [119.48391, 23.43724], [119.48226, 23.42499], [119.48244, 23.40919], [119.48521, 23.39091], [119.48521, 23.3839]]}}, {"type": "Feature", "properties": {"type": "trajectory", "particle": 84}, "geometry": {"type": "LineString", "coordinates": [[119.59357, 23.49153], [119.59771, 23.49005], [119.59489, 23.4886], [119.58722, 23.48563], [119.57686, 23.48255], [119.56325, 23.48085], [119.54559, 23.48166], [119.52524, 23.48197], [119.50738, 23.48109], [119.49326, 23.47647], [119.48231, 23.47038], [119.47971, 23.46307], [119.48051, 23.45275], [119.48209, 23.43859], [119.488, 23.42182], [119.49469, 23.40729], [119.50216, 23.39781], [119.50516, 23.39236], [119.50038, 23.39098]]}}, {"type": "Feature", "properties": {"type": "trajectory", "particle": 90}, "geometry": {"type": "LineString", "coordinates": [[119.60323, 23.50398], [119.60512, 23.50039], [119.59982, 23.49652], [119.58987, 23.49117], [119.57801, 23.48471], [119.56342, 23.47929], [119.54472, 23.47661], [119.52302, 23.47397], [119.50356, 23.47045], [119.48786, 23.46383], [119.47527, 23.45654], [119.46968, 23.44755], [119.46719, 23.43464], [119.4662, 23.41674], [119.46756, 23.39505], [119.46737, 23.37317], [119.46335, 23.35489], [119.45227, 23.3404], [119.43441, 23.33002], [119.41399, 23.3249], [119.39552, 23.32641], [119.38007, 23.33266], [119.36788, 23.33636], [119.35904, 23.33142], [119.3526, 23.31525]]}}, {"type": "Feature", "properties": {"type": "trajectory", "particle": 96}, "geometry": {"type": "LineString", "coordinates": [[119.59661, 23.49821], [119.59937, 23.49533], [119.5948, 23.492], [119.58569, 23.48648], [119.57425, 23.48053], [119.55954, 23.47611], [119.5403, 23.47467], [119.518, 23.4731], [119.49812, 23.47041], [119.48193, 23.46541], [119.46873, 23.45999], [119.46252, 23.45235], [119.45953, 23.44011], [119.45807, 23.42211], [119.45896, 23.39964], [119.45823, 23.37658], [119.45393, 23.35682], [119.44292, 23.34113], [119.42558, 23.33017], [119.4059, 23.32506], [119.38787, 23.32736], [119.3719, 23.33447], [119.3591, 23.33853], [119.34962, 23.33351], [119.34255, 23.31711]]}}, {"type": "Feature", "properties": {"type": "trajectory", "particle": 102}, "geometry": {"type": "LineString", "coordinates": [[119.59228, 23.49619], [119.59554, 23.48958], [119.59206, 23.48215], [119.58427, 23.47266], [119.57388, 23.46341], [119.5593, 23.4567], [119.53886, 23.45417], [119.51495, 23.45264], [119.49326, 23.44984], [119.47603, 23.44561], [119.46244, 23.44065], [119.45461, 23.43252], [119.44994, 23.41871], [119.44744, 23.39805], [119.44618, 23.37164], [119.44217, 23.34342], [119.43291, 23.31767], [119.41783, 23.2953], [119.39978, 23.28041], [119.38118, 23.27649], [119.36269, 23.2804], [119.34506, 23.28621], [119.32997, 23.28873], [119.31792, 23.28275], [119.30997, 23.26431]]}}, {"type": "Feature", "properties": {"type": "trajectory", "particle": 108}, "geometry": {"type": "LineString", "coordinates": [[119.61239, 23.49955], [119.61339, 23.49851], [119.60795, 23.49763], [119.59816, 23.49652], [119.58578, 23.49514], [119.57159, 23.49381], [119.55473, 23.49402], [119.53558, 23.4935], [119.52796, 23.4935]]}}, {"type": "Feature", "properties": {"type": "trajectory", "particle": 114}, "geometry": {"type": "LineString", "coordinates": [[119.613, 23.49286], [119.61072, 23.48649], [119.60321, 23.47977], [119.59207, 23.47227], [119.57897, 23.46494], [119.56242, 23.45995], [119.5406, 23.45895], [119.51554, 23.45873], [119.4929, 23.45714], [119.47443, 23.45425], [119.45937, 23.45085], [119.45042, 23.4444], [119.44473, 23.4321], [119.44098, 23.41249], [119.43855, 23.38684], [119.4339, 23.35868], [119.42505, 23.33256], [119.41085, 23.31029], [119.39306, 23.29323], [119.37312, 23.2885], [119.35264, 23.29387], [119.3326, 23.3022], [119.31513, 23.30699], [119.30086, 23.3021], [119.29073, 23.2842]]}}, {"type": "Feature", "properties": {"type": "trajectory", "particle": 120}, "geometry": {"type": "LineString", "coordinates": [[119.59621, 23.50917], [119.59838, 23.50758], [119.59372, 23.50581], [119.58441, 23.50216], [119.57246, 23.49773], [119.55788, 23.49392], [119.53979, 23.49205], [119.52454, 23.49057]]}}, {"type": "Feature", "properties": {"type": "trajectory", "particle": 126}, "geometry": {"type": "LineString", "coordinates": [[119.59087, 23.49056], [119.59378, 23.48451], [119.59051, 23.4777], [119.58298, 23.46927], [119.57263, 23.46148], [119.55787, 23.45647], [119.53717, 23.45564], [119.51311, 23.45552], [119.49147, 23.45394], [119.47415, 23.4513], [119.46036, 23.44782], [119.45261, 23.44109], [119.44814, 23.42858], [119.44569, 23.40908], [119.44464, 23.384], [119.44135, 23.35699], [119.43356, 23.3325], [119.41985, 23.31184], [119.40196, 23.29602], [119.38297, 23.28929], [119.36388, 23.29332], [119.34565, 23.30079], [119.33013, 23.30525], [119.31785, 23.30067], [119.30946, 23.28321]]}}, {"type": "Feature", "properties": {"type": "trajectory", "particle": 132}, "geometry": {"type": "LineString", "coordinates": [[119.59503, 23.49813], [119.59793, 23.49355], [119.59369, 23.48831], [119.58503, 23.48088], [119.57396, 23.47326], [119.55923, 23.4676], [119.53938, 23.46546], [119.51628, 23.46371], [119.4955, 23.46079], [119.47868, 23.45609], [119.46516, 23.45085], [119.45797, 23.44292], [119.45398, 23.42983], [119.45185, 23.41038], [119.45131, 23.38592], [119.44862, 23.35995], [119.44131, 23.33679], [119.4276, 23.31733], [119.40917, 23.3024], [119.38969, 23.29379], [119.37067, 23.29618], [119.35275, 23.30287], [119.33787, 23.30665], [119.32619, 23.30166], [119.31818, 23.28412]]}}, {"type": "Feature", "properties": {"type": "trajectory", "particle": 138}, "geometry": {"type": "LineString", "coordinates": [[119.59898, 23.50364], [119.60139, 23.50223], [119.59634, 23.50062], [119.58648, 23.49707], [119.5745, 23.49249], [119.55988, 23.48868], [119.54157, 23.48709], [119.52039, 23.48475], [119.50163, 23.48143], [119.48627, 23.47538], [119.47364, 23.46886], [119.46871, 23.46072], [119.46702, 23.4487], [119.46639, 23.43168], [119.46893, 23.41084], [119.47077, 23.39046], [119.47029, 23.37403], [119.46321, 23.36209], [119.45654, 23.35776]]}}, {"type": "Feature", "properties": {"type": "trajectory", "particle": 144}, "geometry": {"type": "LineString", "coordinates": [[119.59225, 23.51151], [119.59431, 23.51151]]}}, {"type": "Feature", "properties": {"type": "trajectory", "particle": 150}, "geometry": {"type": "LineString", "coordinates": [[119.60757, 23.4935], [119.61092, 23.48839], [119.60775, 23.48221], [119.60055, 23.47504], [119.59052, 23.46822], [119.57755, 23.46302], [119.56028, 23.46127], [119.54013, 23.46097], [119.52193, 23.45994], [119.50759, 23.45527], [119.49747, 23.44667], [119.49467, 23.43653], [119.49473, 23.42475], [119.49663, 23.41068], [119.50182, 23.39525], [119.50653, 23.38057], [119.50653, 23.37811]]}}, {"type": "Feature", "properties": {"type": "trajectory", "particle": 156}, "geometry": {"type": "LineString", "coordinates": [[119.60657, 23.48783], [119.60907, 23.48449], [119.60539, 23.48038], [119.59748, 23.47561], [119.58688, 23.47122], [119.57323, 23.46848], [119.55539, 23.46888], [119.53485, 23.46994], [119.51654, 23.46995], [119.5021, 23.46617], [119.49174, 23.45887], [119.48937, 23.45062], [119.49019, 23.4402], [119.49217, 23.42689], [119.49828, 23.41176], [119.50517, 23.3988], [119.51148, 23.38875], [119.51144, 23.38198], [119.50161, 23.3796], [119.50036, 23.3796]]}}, {"type": "Feature", "properties": {"type": "trajectory", "particle": 162}, "geometry": {"type": "LineString", "coordinates": [[119.60708, 23.50201], [119.6097, 23.50019], [119.60524, 23.49821], [119.59602, 23.49554], [119.58449, 23.49213], [119.57086, 23.48898], [119.55415, 23.48772], [119.53493, 23.48615], [119.51787, 23.48378], [119.50414, 23.47815], [119.49441, 23.46911], [119.49356, 23.4593], [119.4958, 23.44786], [119.49854, 23.4341], [119.50584, 23.4188], [119.51311, 23.40476], [119.51955, 23.3932], [119.51974, 23.38499], [119.50988, 23.38142], [119.50604, 23.38142]]}}, {"type": "Feature", "properties": {"type": "trajectory", "particle": 168}, "geometry": {"type": "LineString", "coordinates": [[119.61811, 23.50257], [119.621, 23.49899], [119.61768, 23.49528], [119.61092, 23.49114], [119.60178, 23.48736], [119.58965, 23.48399], [119.57501, 23.48237], [119.55828, 23.48159], [119.54318, 23.48041], [119.53094, 23.47639], [119.5226, 23.46932], [119.5228, 23.46038], [119.52648, 23.45005], [119.53125, 23.43721], [119.53925, 23.42146], [119.54638, 23.40514], [119.55167, 23.38997], [119.55047, 23.37842], [119.54021, 23.37234], [119.53252, 23.37234]]}}, {"type": "Feature", "properties": {"type": "trajectory", "particle": 174}, "geometry": {"type": "LineString", "coordinates": [[119.59643, 23.50079], [119.59784, 23.49608], [119.59217, 23.49049], [119.58232, 23.48249], [119.57021, 23.47424], [119.5544, 23.46806], [119.53324, 23.4655], [119.50867, 23.46312], [119.48645, 23.45982], [119.468, 23.45667], [119.45283, 23.45288], [119.44357, 23.44559], [119.43755, 23.43185], [119.43357, 23.4101], [119.43063, 23.38165], [119.42527, 23.35018], [119.41579, 23.32038], [119.40165, 23.29455], [119.38427, 23.27899], [119.36442, 23.27699], [119.344, 23.28234], [119.32379, 23.28933], [119.30557, 23.29302], [119.29035, 23.28775], [119.28014, 23.2699]]}}, {"type": "Feature", "properties": {"type": "trajectory", "particle": 180}, "geometry": {"type": "LineString", "coordinates": [[119.61458, 23.49638], [119.61349, 23.48996], [119.60694, 23.48317], [119.59675, 23.4757], [119.5843, 23.4684], [119.56887, 23.46296], [119.54871, 23.4612], [119.52547, 23.46047], [119.50443, 23.4587], [119.48764, 23.45338], [119.47434, 23.44723], [119.46751, 23.43912], [119.4638, 23.42675], [119.46197, 23.40897], [119.46203, 23.38693], [119.46017, 23.364], [119.45383, 23.34427], [119.44071, 23.32803], [119.42195, 23.31593], [119.40166, 23.30927], [119.38309, 23.31044], [119.36637, 23.317], [119.35294, 23.32073], [119.34275, 23.31576], [119.33547, 23.29907]]}}, {"type": "Feature", "properties": {"type": "trajectory", "particle": 186}, "geometry": {"type": "LineString", "coordinates": [[119.60518, 23.49058], [119.60497, 23.48353], [119.59885, 23.4754], [119.58903, 23.4657], [119.57707, 23.45634], [119.56103, 23.44989], [119.5389, 23.44807], [119.51324, 23.44757], [119.48985, 23.44562], [119.47121, 23.44295], [119.45635, 23.4395], [119.44701, 23.43243], [119.44089, 23.41894], [119.437, 23.39761], [119.43407, 23.36955], [119.42847, 23.33873], [119.41828, 23.30966], [119.40353, 23.2848], [119.38599, 23.27243], [119.36641, 23.27161], [119.34649, 23.27703], [119.32687, 23.2837], [119.3093, 23.28703], [119.29459, 23.28175], [119.28468, 23.26408]]}}, {"type": "Feature", "properties": {"type": "trajectory", "particle": 192}, "geometry": {"type": "LineString", "coordinates": [[119.59122, 23.4852], [119.59364, 23.47918], [119.59031, 23.47227], [119.58289, 23.46397], [119.57253, 23.45667], [119.5575, 23.45249], [119.53629, 23.45271], [119.51173, 23.45369], [119.48969, 23.45304], [119.47206, 23.45166], [119.45799, 23.44933], [119.44996, 23.44354], [119.44525, 23.43173], [119.44257, 23.41264], [119.44131, 23.38776], [119.43793, 23.36073], [119.43035, 23.33611], [119.41708, 23.31549], [119.39969, 23.30007], [119.38065, 23.29302], [119.36119, 23.29766], [119.34255, 23.30599], [119.32694, 23.3108], [119.31457, 23.30622], [119.30596, 23.28884]]}}, {"type": "Feature", "properties": {"type": "trajectory", "particle": 198}, "geometry": {"type": "LineString", "coordinates": [[119.59584, 23.50314], [119.60154, 23.50497], [119.59941, 23.50677], [119.59219, 23.50717], [119.58263, 23.50658], [119.5709, 23.50597], [119.5567, 23.50635], [119.54039, 23.5056], [119.52596, 23.50382], [119.51403, 23.49877], [119.50591, 23.49013]]}}, {"type": "Feature", "properties": {"type": "trajectory", "particle": 204}, "geometry": {"type": "LineString", "coordinates": [[119.60921, 23.49488], [119.61111, 23.49117], [119.60665, 23.48688], [119.59801, 23.48189], [119.58678, 23.47697], [119.5729, 23.47325], [119.55511, 23.4724], [119.5346, 23.47212], [119.51625, 23.47093], [119.50167, 23.4661], [119.49109, 23.45792], [119.48831, 23.44891], [119.48862, 23.43769], [119.49013, 23.42348], [119.49542, 23.40734], [119.50125, 23.39325], [119.50441, 23.3847]]}}, {"type": "Feature", "properties": {"type": "trajectory", "particle": 210}, "geometry": {"type": "LineString", "coordinates": [[119.59479, 23.49944], [119.59773, 23.49825], [119.5933, 23.49701], [119.58409, 23.49381], [119.57249, 23.49002], [119.55794, 23.48732], [119.53947, 23.48692], [119.51817, 23.4856], [119.49943, 23.48315], [119.48402, 23.47821], [119.47121, 23.4729], [119.46626, 23.46579], [119.46467, 23.45456], [119.4641, 23.4381], [119.46696, 23.41761], [119.46937, 23.39764], [119.47018, 23.38167], [119.46478, 23.37052], [119.45107, 23.3643], [119.43195, 23.36372], [119.41282, 23.36912], [119.397, 23.37862], [119.38482, 23.38664], [119.3765, 23.38511], [119.37018, 23.37193]]}}, {"type": "Feature", "properties": {"type": "trajectory", "particle": 216}, "geometry": {"type": "LineString", "coordinates": [[119.59346, 23.49848], [119.59713, 23.49503], [119.59356, 23.49129], [119.5853, 23.48554], [119.57455, 23.47948], [119.56039, 23.475], [119.54164, 23.47352], [119.51984, 23.47202], [119.5004, 23.46943], [119.4848, 23.46396], [119.47226, 23.45801], [119.46674, 23.45001], [119.46442, 23.43777], [119.46362, 23.42023], [119.4653, 23.39871], [119.46555, 23.37704], [119.46236, 23.35898], [119.45228, 23.34497], [119.43529, 23.33535], [119.41541, 23.33121], [119.39722, 23.3337], [119.38218, 23.34079], [119.37032, 23.34528], [119.36188, 23.34095], [119.35568, 23.32542]]}}, {"type": "Feature", "properties": {"type": "trajectory", "particle": 222}, "geometry": {"type": "LineString", "coordinates": [[119.5918, 23.49084], [119.59882, 23.48509], [119.59871, 23.479], [119.5937, 23.47111], [119.58588, 23.46328], [119.57436, 23.45754], [119.55788, 23.4556], [119.53835, 23.45527], [119.52075, 23.4542], [119.50713, 23.44941], [119.49772, 23.44066], [119.49509, 23.43026], [119.49529, 23.41817], [119.49773, 23.40391], [119.5032, 23.38827], [119.50558, 23.37896]]}}, {"type": "Feature", "properties": {"type": "trajectory", "particle": 228}, "geometry": {"type": "LineString", "coordinates": [[119.61342, 23.49739], [119.61753, 23.4906], [119.61533, 23.48265], [119.60977, 23.47369], [119.6018, 23.46532], [119.59024, 23.4586], [119.57476, 23.45542], [119.5565, 23.45474], [119.53981, 23.45386], [119.52654, 23.44981], [119.51733, 23.44203], [119.51482, 23.43165], [119.51557, 23.41932], [119.51868, 23.40429], [119.52424, 23.3862], [119.5264, 23.37427]]}}, {"type": "Feature", "properties": {"type": "trajectory", "particle": 234}, "geometry": {"type": "LineString", "coordinates": [[119.6005, 23.49884], [119.60603, 23.49367], [119.60381, 23.48688], [119.59695, 23.47855], [119.5876, 23.46985], [119.57523, 23.46264], [119.55831, 23.45898], [119.53832, 23.45692], [119.52017, 23.45433], [119.50591, 23.44817], [119.49579, 23.43818], [119.49204, 23.42689], [119.49103, 23.4137], [119.49235, 23.39796], [119.49235, 23.39165]]}}, {"type": "Feature", "properties": {"type": "trajectory", "particle": 240}, "geometry": {"type": "LineString", "coordinates": [[119.60235, 23.48663], [119.60468, 23.48027], [119.6008, 23.47249], [119.5929, 23.46336], [119.58259, 23.45472], [119.56828, 23.4489], [119.54823, 23.44762], [119.52483, 23.44801], [119.5036, 23.44718], [119.48701, 23.44259], [119.47427, 23.437], [119.46743, 23.42907], [119.46375, 23.41665], [119.46235, 23.39876], [119.46266, 23.37638], [119.46203, 23.35434]]}}, {"type": "Feature", "properties": {"type": "trajectory", "particle": 246}, "geometry": {"type": "LineString", "coordinates": [[119.6074, 23.49847], [119.6076, 23.49677], [119.60118, 23.49509], [119.59027, 23.49262], [119.57742, 23.48932], [119.56207, 23.48691], [119.54311, 23.48675], [119.52147, 23.48586], [119.50235, 23.48384], [119.48669, 23.47892], [119.47375, 23.47344], [119.46881, 23.46643], [119.46722, 23.45557], [119.46652, 23.43969], [119.46946, 23.41993], [119.47214, 23.40088], [119.47367, 23.38588], [119.46927, 23.37576], [119.45625, 23.37051], [119.43709, 23.3708], [119.41741, 23.37686], [119.4009, 23.38684], [119.38828, 23.39599], [119.37968, 23.3955], [119.37313, 23.38308]]}}, {"type": "Feature", "properties": {"type": "trajectory", "particle": 252}, "geometry": {"type": "LineString", "coordinates": [[119.5966, 23.50187], [119.59921, 23.4997], [119.59438, 23.49738], [119.58488, 23.49277], [119.57314, 23.48742], [119.55843, 23.48323], [119.53956, 23.48162], [119.51771, 23.47948], [119.4983, 23.47629], [119.48232, 23.47089], [119.46915, 23.46515], [119.46323, 23.45736], [119.46057, 23.44513], [119.45924, 23.42728], [119.46056, 23.40504], [119.46054, 23.38248], [119.45733, 23.36339], [119.4474, 23.34855], [119.43063, 23.33852], [119.41093, 23.33437], [119.39285, 23.3372], [119.37719, 23.34461], [119.36462, 23.34902], [119.35545, 23.34422], [119.34845, 23.32813]]}}, {"type": "Feature", "properties": {"type": "trajectory", "particle": 258}, "geometry": {"type": "LineString", "coordinates": [[119.59225, 23.51151], [119.59834, 23.50562], [119.59724, 23.50011], [119.59064, 23.4927], [119.58164, 23.48402], [119.56981, 23.47613], [119.55384, 23.471], [119.53481, 23.4667], [119.51758, 23.46201], [119.50397, 23.45405], [119.4943, 23.44271], [119.49121, 23.43036], [119.49074, 23.41611], [119.49232, 23.39937], [119.49232, 23.39131]]}}, {"type": "Feature", "properties": {"type": "trajectory", "particle": 264}, "geometry": {"type": "LineString", "coordinates": [[119.60223, 23.50752], [119.60621, 23.50111], [119.60283, 23.49392], [119.59471, 23.48507], [119.5845, 23.47526], [119.57143, 23.46665], [119.55387, 23.46143], [119.5331, 23.45765], [119.51412, 23.45338], [119.49912, 23.44553], [119.48798, 23.43484], [119.48268, 23.42316], [119.48013, 23.40865], [119.48002, 23.39051], [119.48219, 23.36861], [119.48219, 23.36128]]}}, {"type": "Feature", "properties": {"type": "trajectory", "particle": 270}, "geometry": {"type": "LineString", "coordinates": [[119.61059, 23.50174], [119.611, 23.49825], [119.60499, 23.49468], [119.59459, 23.49049], [119.58215, 23.48564], [119.56735, 23.48159], [119.54887, 23.48004], [119.52763, 23.47845], [119.50867, 23.47595], [119.49345, 23.46983], [119.48148, 23.46233], [119.47717, 23.45369], [119.47598, 23.44188], [119.47593, 23.4259], [119.47914, 23.40685], [119.48193, 23.38878], [119.48276, 23.37499], [119.47709, 23.36551], [119.46268, 23.35996], [119.44257, 23.35913], [119.42242, 23.36348], [119.40588, 23.37142], [119.39394, 23.37887], [119.38615, 23.37799], [119.3806, 23.36545]]}}, {"type": "Feature", "properties": {"type": "trajectory", "particle": 276}, "geometry": {"type": "LineString", "coordinates": [[119.59782, 23.5038], [119.60291, 23.50245], [119.60017, 23.50074], [119.59205, 23.49776], [119.58165, 23.49352], [119.5689, 23.48958], [119.55289, 23.48752], [119.53427, 23.48513], [119.51772, 23.48203], [119.50448, 23.47573], [119.49522, 23.46604], [119.49461, 23.45551], [119.49698, 23.44345], [119.50002, 23.42925], [119.50726, 23.41352], [119.51423, 23.39859], [119.51985, 23.38614], [119.51864, 23.3772], [119.50765, 23.37439]]}}, {"type": "Feature", "properties": {"type": "trajectory", "particle": 282}, "geometry": {"type": "LineString", "coordinates": [[119.60059, 23.49729], [119.60583, 23.49279], [119.60344, 23.48684], [119.59635, 23.47948], [119.58681, 23.47175], [119.57426, 23.46547], [119.5573, 23.46255], [119.53734, 23.46094], [119.5193, 23.45869], [119.50511, 23.45287], [119.49506, 23.4433], [119.49178, 23.43253], [119.49132, 23.41984], [119.49288, 23.40459], [119.4973, 23.39489]]}}, {"type": "Feature", "properties": {"type": "trajectory", "particle": 288}, "geometry": {"type": "LineString", "coordinates": [[119.60265, 23.50867], [119.60592, 23.50738], [119.60214, 23.50564], [119.5934, 23.50308], [119.58216, 23.4995], [119.56867, 23.49588], [119.55236, 23.49377], [119.53353, 23.49099], [119.51682, 23.48752], [119.50327, 23.48094], [119.49361, 23.47118], [119.49287, 23.4608], [119.49518, 23.44877], [119.49786, 23.43439], [119.50512, 23.41855], [119.51234, 23.40407], [119.51864, 23.39212], [119.51853, 23.38355], [119.50835, 23.37962], [119.5004, 23.37962]]}}, {"type": "Feature", "properties": {"type": "trajectory", "particle": 294}, "geometry": {"type": "LineString", "coordinates": [[119.58607, 23.51257], [119.5899, 23.50839], [119.58768, 23.50451], [119.58039, 23.49933], [119.57005, 23.4937], [119.55663, 23.48902], [119.53918, 23.48657], [119.51871, 23.48332], [119.50059, 23.47916], [119.48583, 23.47241], [119.47383, 23.46521], [119.46931, 23.45627], [119.46799, 23.44344], [119.46786, 23.42573], [119.47063, 23.40441], [119.47237, 23.38355], [119.47124, 23.3667], [119.46316, 23.35412], [119.4472, 23.34578], [119.42721, 23.34262], [119.40832, 23.34538], [119.3933, 23.35243], [119.38191, 23.35757], [119.37411, 23.35399], [119.36845, 23.33922]]}}, {"type": "Feature", "properties": {"type": "start", "label": "Start"}, "geometry": {"type": "Point", "coordinates": [119.59909, 23.50083]}}, {"type": "Feature", "properties": {"type": "end_center", "label": "End (mean)"}, "geometry": {"type": "Point", "coordinates": [119.44395, 23.36992]}}, {"type": "Feature", "properties": {"type": "end_hull", "label": "Spread area"}, "geometry": {"type": "Polygon", "coordinates": [[[119.27001, 23.26279], [119.35227, 23.22669], [119.53371, 23.37191], [119.59985, 23.51037], [119.60039, 23.51328], [119.60024, 23.51591], [119.59723, 23.52466], [119.5036, 23.49425], [119.39603, 23.43119], [119.27507, 23.2867], [119.27001, 23.26279]]]}}]}