{"type": "FeatureCollection", "properties": {"model_type": "leeway", "times": ["2026-10-07 00:00:00", "2026-10-07 01:00:00", "2026-10-07 02:00:00", "2026-10-07 03:00:00", "2026-10-07 04:00:00", "2026-10-07 05:00:00", "2026-10-07 06:00:00", "2026-10-07 07:00:00", "2026-10-07 08:00:00", "2026-10-07 09:00:00", "2026-10-07 10:00:00", "2026-10-07 11:00:00", "2026-10-07 12:00:00", "2026-10-07 13:00:00", "2026-10-07 14:00:00", "2026-10-07 15:00:00", "2026-10-07 16:00:00", "2026-10-07 17:00:00", "2026-10-07 18:00:00", "2026-10-07 19:00:00", "2026-10-07 20:00:00", "2026-10-07 21:00:00", "2026-10-07 22:00:00", "2026-10-07 23:00:00", "2026-10-08 00:00:00"], "num_particles": 300, "num_steps": 25}, "features": [{"type": "Feature", "properties": {"type": "trajectory", "particle": 0}, "geometry": {"type": "LineString", "coordinates": [[121.48492, 22.6368], [121.48762, 22.6368]]}}, {"type": "Feature", "properties": {"type": "trajectory", "particle": 6}, "geometry": {"type": "LineString", "coordinates": [[121.49892, 22.64529], [121.50455, 22.64623], [121.51154, 22.6472], [121.51859, 22.64857], [121.5245, 22.65047], [121.52834, 22.65287], [121.52975, 22.65594], [121.5284, 22.65927], [121.52476, 22.66247], [121.51967, 22.66536], [121.51418, 22.66776], [121.50957, 22.66941], [121.50707, 22.67039], [121.50682, 22.67065], [121.50861, 22.67085], [121.51176, 22.67147], [121.51539, 22.67282], [121.51871, 22.67486], [121.52095, 22.67757], [121.52188, 22.68101], [121.52126, 22.68476], [121.5195, 22.68824], [121.51765, 22.69116], [121.51727, 22.69325], [121.51968, 22.69427]]}}, {"type": "Feature", "properties": {"type": "trajectory", "particle": 12}, "geometry": {"type": "LineString", "coordinates": [[121.50589, 22.65931], [121.51032, 22.65941], [121.51608, 22.65959], [121.52194, 22.66016], [121.52668, 22.66122], [121.52937, 22.66278], [121.52967, 22.665], [121.52728, 22.66748], [121.52269, 22.66982], [121.51673, 22.67183], [121.51048, 22.67333], [121.50523, 22.67404], [121.50221, 22.67406], [121.5016, 22.67373]]}}, {"type": "Feature", "properties": {"type": "trajectory", "particle": 18}, "geometry": {"type": "LineString", "coordinates": [[121.51251, 22.65318], [121.51543, 22.65347], [121.51971, 22.65371], [121.52415, 22.65418], [121.52756, 22.65499], [121.529, 22.65614], [121.52807, 22.6578], [121.52441, 22.6596], [121.51845, 22.66116], [121.51099, 22.66231], [121.50314, 22.66291], [121.49942, 22.66291]]}}, {"type": "Feature", "properties": {"type": "trajectory", "particle": 24}, "geometry": {"type": "LineString", "coordinates": [[121.49635, 22.65041], [121.50137, 22.65359], [121.50765, 22.65618], [121.51385, 22.65899], [121.51871, 22.66214], [121.52122, 22.66566], [121.52105, 22.66973], [121.51789, 22.67399], [121.51234, 22.67802], [121.50536, 22.68162], [121.50351, 22.68162]]}}, {"type": "Feature", "properties": {"type": "trajectory", "particle": 30}, "geometry": {"type": "LineString", "coordinates": [[121.50242, 22.66151], [121.50372, 22.65987], [121.50653, 22.65809], [121.50957, 22.6565], [121.51157, 22.65524], [121.51151, 22.65433], [121.50893, 22.65401], [121.50347, 22.6539], [121.49695, 22.65381]]}}, {"type": "Feature", "properties": {"type": "trajectory", "particle": 36}, "geometry": {"type": "LineString", "coordinates": [[121.48242, 22.64151], [121.48537, 22.64151]]}}, {"type": "Feature", "properties": {"type": "trajectory", "particle": 42}, "geometry": {"type": "LineString", "coordinates": [[121.51006, 22.65434], [121.51405, 22.65047], [121.51961, 22.64694], [121.52557, 22.64404], [121.53076, 22.64185], [121.53435, 22.6403], [121.53591, 22.63953], [121.53506, 22.63909], [121.5321, 22.63862], [121.52767, 22.63794], [121.5227, 22.63696], [121.5183, 22.63548], [121.51572, 22.63369], [121.5152, 22.63151], [121.51672, 22.62958], [121.51976, 22.62829], [121.52362, 22.62791], [121.52763, 22.62837], [121.53112, 22.62957], [121.53387, 22.63161], [121.53555, 22.63416], [121.53635, 22.63671], [121.53704, 22.63915], [121.53884, 22.64128], [121.5428, 22.6429]]}}, {"type": "Feature", "properties": {"type": "trajectory", "particle": 48}, "geometry": {"type": "LineString", "coordinates": [[121.50242, 22.65151], [121.5046, 22.64724], [121.50847, 22.64314], [121.51279, 22.63953], [121.51633, 22.63651], [121.51817, 22.63404], [121.51782, 22.63232], [121.51482, 22.63092], [121.50944, 22.62946], [121.50237, 22.62777], [121.49471, 22.62588], [121.48788, 22.62421], [121.48302, 22.6228], [121.48022, 22.62123], [121.47942, 22.61993], [121.48014, 22.6191], [121.48172, 22.61891], [121.48352, 22.61922], [121.48485, 22.61995], [121.4855, 22.62135], [121.48512, 22.62319], [121.4839, 22.62502], [121.48277, 22.62677], [121.48297, 22.62812], [121.48564, 22.62855]]}}, {"type": "Feature", "properties": {"type": "trajectory", "particle": 54}, "geometry": {"type": "LineString", "coordinates": [[121.5022, 22.65478], [121.50617, 22.65332], [121.51163, 22.65201], [121.51728, 22.65113], [121.52193, 22.6508], [121.52463, 22.651], [121.525, 22.65191], [121.52267, 22.6531], [121.51807, 22.6542], [121.51199, 22.65501], [121.5055, 22.6554], [121.4999, 22.65531]]}}, {"type": "Feature", "properties": {"type": "trajectory", "particle": 60}, "geometry": {"type": "LineString", "coordinates": [[121.48242, 22.64151], [121.48335, 22.64123]]}}, {"type": "Feature", "properties": {"type": "trajectory", "particle": 66}, "geometry": {"type": "LineString", "coordinates": [[121.49977, 22.65011], [121.50333, 22.64571], [121.50858, 22.64161], [121.51425, 22.63813], [121.51915, 22.63535], [121.52236, 22.63323], [121.52343, 22.63193], [121.52192, 22.63099], [121.51811, 22.63004], [121.51268, 22.62889], [121.50665, 22.62748], [121.50125, 22.62558], [121.49783, 22.62344], [121.49663, 22.62113], [121.49759, 22.61909], [121.50024, 22.61748], [121.50386, 22.6165], [121.50766, 22.61632], [121.51094, 22.61683], [121.5135, 22.6182], [121.51494, 22.62008], [121.51546, 22.62191], [121.5159, 22.62359], [121.51752, 22.62495], [121.52153, 22.62578]]}}, {"type": "Feature", "properties": {"type": "trajectory", "particle": 72}, "geometry": {"type": "LineString", "coordinates": [[121.48242, 22.64151], [121.48322, 22.643]]}}, {"type": "Feature", "properties": {"type": "trajectory", "particle": 78}, "geometry": {"type": "LineString", "coordinates": [[121.51385, 22.6487], [121.51724, 22.64824], [121.52204, 22.64784], [121.52706, 22.64778], [121.53115, 22.64814], [121.53342, 22.6489], [121.53344, 22.65023], [121.53085, 22.65172], [121.52599, 22.65302], [121.51965, 22.65394], [121.5128, 22.65439], [121.50673, 22.65411], [121.50271, 22.65324], [121.50097, 22.65171], [121.50137, 22.65017], [121.5033, 22.64907], [121.50591, 22.64867], [121.50841, 22.64894], [121.51006, 22.64981], [121.51064, 22.65142], [121.50984, 22.65339], [121.50799, 22.65514], [121.5061, 22.65649], [121.50567, 22.65719], [121.50804, 22.65704]]}}, {"type": "Feature", "properties": {"type": "trajectory", "particle": 84}, "geometry": {"type": "LineString", "coordinates": [[121.50242, 22.64151], [121.50595, 22.64395], [121.51078, 22.64619], [121.51564, 22.64854], [121.51929, 22.6511], [121.52074, 22.65389], [121.51957, 22.65711], [121.51541, 22.6604], [121.50873, 22.66338], [121.50468, 22.66338]]}}, {"type": "Feature", "properties": {"type": "trajectory", "particle": 90}, "geometry": {"type": "LineString", "coordinates": [[121.50322, 22.65398], [121.50523, 22.65192], [121.5088, 22.64985], [121.51265, 22.64807], [121.51556, 22.64671], [121.51654, 22.64577], [121.51514, 22.64546], [121.51095, 22.64538], [121.50433, 22.64515], [121.49607, 22.6446], [121.49464, 22.6446]]}}, {"type": "Feature", "properties": {"type": "trajectory", "particle": 96}, "geometry": {"type": "LineString", "coordinates": [[121.49663, 22.64821], [121.4985, 22.64727], [121.50195, 22.6458], [121.50569, 22.64442], [121.50842, 22.64341], [121.50913, 22.64278], [121.50733, 22.64276], [121.50258, 22.64295], [121.49528, 22.64301]]}}, {"type": "Feature", "properties": {"type": "trajectory", "particle": 102}, "geometry": {"type": "LineString", "coordinates": [[121.48242, 22.64151], [121.48459, 22.63969]]}}, {"type": "Feature", "properties": {"type": "trajectory", "particle": 108}, "geometry": {"type": "LineString", "coordinates": [[121.51231, 22.64955], [121.51559, 22.65316], [121.52003, 22.65653], [121.52444, 22.65992], [121.52759, 22.66346], [121.52852, 22.66717], [121.52683, 22.67123], [121.52222, 22.67529], [121.5152, 22.67896], [121.50671, 22.68207], [121.50373, 22.68207]]}}, {"type": "Feature", "properties": {"type": "trajectory", "particle": 114}, "geometry": {"type": "LineString", "coordinates": [[121.51292, 22.64286], [121.51346, 22.64273], [121.51547, 22.64236], [121.51777, 22.64203], [121.51915, 22.64185], [121.51862, 22.64182], [121.51566, 22.64217], [121.50981, 22.64256], [121.5014, 22.64262], [121.49641, 22.64262]]}}, {"type": "Feature", "properties": {"type": "trajectory", "particle": 120}, "geometry": {"type": "LineString", "coordinates": [[121.50242, 22.66151], [121.50342, 22.66029], [121.5059, 22.65886], [121.50859, 22.65755], [121.51021, 22.65652], [121.50972, 22.65579], [121.50667, 22.65561], [121.50233, 22.65562]]}}, {"type": "Feature", "properties": {"type": "trajectory", "particle": 126}, "geometry": {"type": "LineString", "coordinates": [[121.48242, 22.64151], [121.48314, 22.64147]]}}, {"type": "Feature", "properties": {"type": "trajectory", "particle": 132}, "geometry": {"type": "LineString", "coordinates": [[121.49506, 22.64813], [121.49692, 22.64602], [121.50041, 22.64346], [121.50434, 22.6408], [121.50736, 22.63863], [121.50847, 22.63694], [121.50717, 22.63595], [121.503, 22.63526], [121.49989, 22.63526]]}}, {"type": "Feature", "properties": {"type": "trajectory", "particle": 138}, "geometry": {"type": "LineString", "coordinates": [[121.49899, 22.65364], [121.50066, 22.65284], [121.50386, 22.65175], [121.50726, 22.65084], [121.50959, 22.65023], [121.50982, 22.64994], [121.50749, 22.65022], [121.50219, 22.65069], [121.49439, 22.6511], [121.4929, 22.6511]]}}, {"type": "Feature", "properties": {"type": "trajectory", "particle": 144}, "geometry": {"type": "LineString", "coordinates": [[121.50242, 22.66151], [121.50345, 22.66413]]}}, {"type": "Feature", "properties": {"type": "trajectory", "particle": 150}, "geometry": {"type": "LineString", "coordinates": [[121.50751, 22.6435], [121.51268, 22.64332], [121.51924, 22.64333], [121.52597, 22.64381], [121.53174, 22.64483], [121.53564, 22.64636], [121.53732, 22.64854], [121.53639, 22.65096], [121.53327, 22.65326], [121.52868, 22.65525], [121.52358, 22.65681], [121.51917, 22.65769], [121.51665, 22.65803], [121.51622, 22.65776], [121.51775, 22.65754], [121.52066, 22.65782], [121.52417, 22.65889], [121.52754, 22.66071], [121.53007, 22.66324], [121.53151, 22.66653], [121.53161, 22.67021], [121.53069, 22.67373], [121.52967, 22.67684], [121.52996, 22.67931], [121.53271, 22.68087]]}}, {"type": "Feature", "properties": {"type": "trajectory", "particle": 156}, "geometry": {"type": "LineString", "coordinates": [[121.50652, 22.63782], [121.51102, 22.64023], [121.5168, 22.64257], [121.52263, 22.64512], [121.52731, 22.64798], [121.52994, 22.65113], [121.53008, 22.65477], [121.52739, 22.6585], [121.5223, 22.66196], [121.51566, 22.66497], [121.50856, 22.66739], [121.5052, 22.66739]]}}, {"type": "Feature", "properties": {"type": "trajectory", "particle": 162}, "geometry": {"type": "LineString", "coordinates": [[121.50703, 22.65201], [121.51071, 22.65309], [121.51571, 22.65411], [121.52077, 22.65536], [121.52472, 22.65697], [121.52657, 22.65892], [121.52596, 22.66142], [121.52254, 22.66405], [121.51678, 22.66646], [121.50954, 22.66846], [121.50196, 22.66928]]}}, {"type": "Feature", "properties": {"type": "trajectory", "particle": 168}, "geometry": {"type": "LineString", "coordinates": [[121.518, 22.65257], [121.5245, 22.65519], [121.53213, 22.658], [121.53973, 22.66128], [121.54621, 22.66512], [121.55077, 22.6695], [121.55312, 22.67456], [121.55302, 22.67986], [121.55096, 22.68505], [121.54768, 22.68992], [121.54406, 22.69427], [121.54118, 22.69782], [121.54008, 22.70064], [121.54087, 22.70281], [121.54332, 22.7051], [121.54691, 22.70816], [121.55096, 22.71243], [121.55492, 22.71806], [121.55834, 22.72513], [121.56122, 22.73368], [121.56363, 22.7433], [121.56603, 22.7534], [121.56917, 22.76355], [121.57397, 22.77337], [121.58076, 22.78251]]}}, {"type": "Feature", "properties": {"type": "trajectory", "particle": 174}, "geometry": {"type": "LineString", "coordinates": [[121.49644, 22.65079], [121.49674, 22.64772], [121.4987, 22.64439], [121.50115, 22.64089], [121.50278, 22.63767], [121.50252, 22.63489], [121.49987, 22.6328], [121.49432, 22.63125], [121.48632, 22.63061], [121.47682, 22.63082], [121.46703, 22.63165], [121.45804, 22.63256], [121.4508, 22.63344], [121.44537, 22.63403], [121.44169, 22.63494], [121.43926, 22.63656], [121.4375, 22.63926], [121.43589, 22.64301], [121.4339, 22.64787], [121.43156, 22.65406], [121.42886, 22.66129], [121.42607, 22.66885], [121.42393, 22.67635], [121.42326, 22.68338], [121.42463, 22.6896]]}}, {"type": "Feature", "properties": {"type": "trajectory", "particle": 180}, "geometry": {"type": "LineString", "coordinates": [[121.51449, 22.64638], [121.5164, 22.64601], [121.51974, 22.64557], [121.52334, 22.64531], [121.52602, 22.64533], [121.52684, 22.64563], [121.52535, 22.64639], [121.52112, 22.64724], [121.5145, 22.64783], [121.50623, 22.648], [121.49744, 22.64764], [121.49146, 22.64733]]}}, {"type": "Feature", "properties": {"type": "trajectory", "particle": 186}, "geometry": {"type": "LineString", "coordinates": [[121.50515, 22.64058], [121.50634, 22.63831], [121.50916, 22.636], [121.51236, 22.63394], [121.51476, 22.63223], [121.51537, 22.63086], [121.51368, 22.63005], [121.50916, 22.6294], [121.50208, 22.62858], [121.4932, 22.62756], [121.48392, 22.6272], [121.47545, 22.62713], [121.46882, 22.62721], [121.46411, 22.62706], [121.46127, 22.62719], [121.45977, 22.62788], [121.45897, 22.6294], [121.45827, 22.63167], [121.45703, 22.63469], [121.45516, 22.63873], [121.4525, 22.64357], [121.44936, 22.64866], [121.4466, 22.65374], [121.44527, 22.65842], [121.44614, 22.66222]]}}, {"type": "Feature", "properties": {"type": "trajectory", "particle": 192}, "geometry": {"type": "LineString", "coordinates": [[121.49127, 22.6352], [121.49333, 22.63549], [121.49504, 22.63541]]}}, {"type": "Feature", "properties": {"type": "trajectory", "particle": 198}, "geometry": {"type": "LineString", "coordinates": [[121.50242, 22.65151], [121.50711, 22.65453], [121.51301, 22.65743], [121.51882, 22.6605], [121.52332, 22.66389], [121.52553, 22.66758], [121.52509, 22.6718], [121.52173, 22.67614], [121.51601, 22.68022], [121.50887, 22.68384], [121.5015, 22.68679], [121.49538, 22.68891], [121.49184, 22.69085], [121.49071, 22.69228], [121.49159, 22.69356], [121.49381, 22.69491], [121.49638, 22.69634], [121.49835, 22.69769], [121.49884, 22.69913], [121.4976, 22.70111], [121.49489, 22.70396], [121.49165, 22.70755], [121.48922, 22.71166], [121.48904, 22.71575], [121.49197, 22.71897]]}}, {"type": "Feature", "properties": {"type": "trajectory", "particle": 204}, "geometry": {"type": "LineString", "coordinates": [[121.50916, 22.64488], [121.51304, 22.64608], [121.51825, 22.64725], [121.52357, 22.64868], [121.52782, 22.65045], [121.53008, 22.65256], [121.52993, 22.65518], [121.52702, 22.65793], [121.52176, 22.66044], [121.51498, 22.66254], [121.50777, 22.66408], [121.50435, 22.66408]]}}, {"type": "Feature", "properties": {"type": "trajectory", "particle": 210}, "geometry": {"type": "LineString", "coordinates": [[121.49482, 22.64944], [121.49651, 22.65029], [121.49966, 22.65048], [121.50303, 22.65024], [121.50526, 22.65022], [121.50528, 22.65047], [121.50261, 22.65125], [121.49686, 22.65219], [121.49493, 22.65219]]}}, {"type": "Feature", "properties": {"type": "trajectory", "particle": 216}, "geometry": {"type": "LineString", "coordinates": [[121.49351, 22.64848], [121.49592, 22.64772], [121.49988, 22.64637], [121.50421, 22.6447], [121.50752, 22.64348], [121.50881, 22.64272], [121.50761, 22.64263], [121.50348, 22.64282], [121.4968, 22.64289], [121.4948, 22.64289]]}}, {"type": "Feature", "properties": {"type": "trajectory", "particle": 222}, "geometry": {"type": "LineString", "coordinates": [[121.49242, 22.63151], [121.49931, 22.63107], [121.50791, 22.63008], [121.51675, 22.6297], [121.52463, 22.63007], [121.53068, 22.63111], [121.53449, 22.63295], [121.5357, 22.63515], [121.53463, 22.63733], [121.53201, 22.6393], [121.52879, 22.641], [121.52608, 22.64216], [121.52509, 22.64298], [121.526, 22.64337], [121.52879, 22.64395], [121.53292, 22.64517], [121.53771, 22.6473], [121.54248, 22.65031], [121.54658, 22.65413], [121.54977, 22.65882], [121.5518, 22.66404], [121.5529, 22.66929], [121.55388, 22.67437], [121.55589, 22.67904], [121.55988, 22.68303]]}}, {"type": "Feature", "properties": {"type": "trajectory", "particle": 228}, "geometry": {"type": "LineString", "coordinates": [[121.51334, 22.64739], [121.52036, 22.64651], [121.52875, 22.64608], [121.53732, 22.64637], [121.545, 22.64743], [121.551, 22.64919], [121.55502, 22.65176], [121.55677, 22.65468], [121.55661, 22.6576], [121.55518, 22.66034], [121.55326, 22.66277], [121.55179, 22.66467], [121.55179, 22.66617], [121.5534, 22.66727], [121.55654, 22.66862], [121.56081, 22.67073], [121.5656, 22.67395], [121.57033, 22.67831], [121.57445, 22.68374], [121.57777, 22.69025], [121.58013, 22.69748], [121.58182, 22.70496], [121.58386, 22.71255], [121.58727, 22.71999], [121.59258, 22.72693]]}}, {"type": "Feature", "properties": {"type": "trajectory", "particle": 234}, "geometry": {"type": "LineString", "coordinates": [[121.5005, 22.64884], [121.5059, 22.64554], [121.51287, 22.64265], [121.52016, 22.64047], [121.52662, 22.63906], [121.53135, 22.63836], [121.53397, 22.63851], [121.53409, 22.63904], [121.53205, 22.63957], [121.52854, 22.63993], [121.52449, 22.64001], [121.52103, 22.63959], [121.51936, 22.63885], [121.5197, 22.63771], [121.52201, 22.63681], [121.52577, 22.63656], [121.53027, 22.63724], [121.53483, 22.63879], [121.5388, 22.64112], [121.54195, 22.64431], [121.54398, 22.64804], [121.5451, 22.65179], [121.54613, 22.65542], [121.54822, 22.65871], [121.55238, 22.66145]]}}, {"type": "Feature", "properties": {"type": "trajectory", "particle": 240}, "geometry": {"type": "LineString", "coordinates": [[121.50233, 22.63662], [121.50591, 22.63534], [121.51102, 22.63416], [121.51643, 22.63336], [121.52094, 22.63303], [121.52364, 22.63313], [121.52403, 22.63383], [121.52168, 22.63474], [121.51689, 22.63548], [121.5104, 22.63589], [121.50327, 22.6359], [121.4998, 22.6359]]}}, {"type": "Feature", "properties": {"type": "trajectory", "particle": 246}, "geometry": {"type": "LineString", "coordinates": [[121.50735, 22.64847], [121.50873, 22.65016], [121.51144, 22.65152], [121.51424, 22.65285], [121.5159, 22.65426], [121.51537, 22.65578], [121.51218, 22.65765], [121.50596, 22.65952], [121.4987, 22.66034]]}}, {"type": "Feature", "properties": {"type": "trajectory", "particle": 252}, "geometry": {"type": "LineString", "coordinates": [[121.49661, 22.65187], [121.49814, 22.65092], [121.50123, 22.64945], [121.5046, 22.64796], [121.50694, 22.6468], [121.5072, 22.64602], [121.50494, 22.64583], [121.49969, 22.64586], [121.49333, 22.64587]]}}, {"type": "Feature", "properties": {"type": "trajectory", "particle": 258}, "geometry": {"type": "LineString", "coordinates": [[121.50242, 22.66151], [121.50721, 22.65663], [121.51363, 22.65222], [121.52042, 22.64859], [121.52644, 22.64582], [121.53077, 22.64386], [121.53307, 22.64281], [121.53297, 22.64223], [121.53079, 22.64172], [121.52723, 22.64107], [121.5232, 22.64019], [121.51981, 22.63885], [121.51826, 22.63725], [121.51875, 22.6353], [121.52123, 22.63365], [121.5252, 22.63271], [121.52994, 22.63275], [121.5348, 22.63371], [121.53912, 22.63548], [121.5427, 22.63815], [121.54521, 22.6414], [121.54688, 22.64473], [121.54843, 22.64801], [121.55103, 22.65105], [121.55564, 22.65365]]}}, {"type": "Feature", "properties": {"type": "trajectory", "particle": 264}, "geometry": {"type": "LineString", "coordinates": [[121.50221, 22.65752], [121.50622, 22.65221], [121.51192, 22.64734], [121.51805, 22.64319], [121.52345, 22.63986], [121.52722, 22.63728], [121.52896, 22.63559], [121.52825, 22.63433], [121.52538, 22.63312], [121.52102, 22.63175], [121.51611, 22.63016], [121.5118, 22.62812], [121.50937, 22.62586], [121.50907, 22.62327], [121.51089, 22.62099], [121.5143, 22.61938], [121.51857, 22.6187], [121.52306, 22.6189], [121.52708, 22.61984], [121.53043, 22.62165], [121.53272, 22.624], [121.53415, 22.62639], [121.53548, 22.62872], [121.53786, 22.63081], [121.54237, 22.63249]]}}, {"type": "Feature", "properties": {"type": "trajectory", "particle": 270}, "geometry": {"type": "LineString", "coordinates": [[121.51052, 22.65174], [121.51271, 22.65208], [121.51627, 22.65229], [121.52, 22.65264], [121.52269, 22.65326], [121.52337, 22.65415], [121.52159, 22.65551], [121.51699, 22.65697], [121.50998, 22.65816], [121.5014, 22.65891], [121.49836, 22.65891]]}}, {"type": "Feature", "properties": {"type": "trajectory", "particle": 276}, "geometry": {"type": "LineString", "coordinates": [[121.50242, 22.65151], [121.50681, 22.65133], [121.5126, 22.65123], [121.51852, 22.65152], [121.52337, 22.6523], [121.5262, 22.65356], [121.52663, 22.65548], [121.52433, 22.65764], [121.51974, 22.65967], [121.51366, 22.66136], [121.50721, 22.66259], [121.50418, 22.66289]]}}, {"type": "Feature", "properties": {"type": "trajectory", "particle": 282}, "geometry": {"type": "LineString", "coordinates": [[121.50058, 22.64729], [121.50581, 22.64499], [121.51258, 22.64302], [121.51962, 22.64167], [121.52574, 22.641], [121.53007, 22.64098], [121.5322, 22.64174], [121.53177, 22.64285], [121.52913, 22.64392], [121.52499, 22.64478], [121.52035, 22.64531], [121.51634, 22.64526], [121.51424, 22.64482], [121.51421, 22.6439], [121.5162, 22.64313], [121.51965, 22.64296], [121.52378, 22.64364], [121.5279, 22.64514], [121.53132, 22.64739], [121.53381, 22.65046], [121.53509, 22.65402], [121.5354, 22.65752], [121.53562, 22.6608], [121.53702, 22.66362], [121.5407, 22.66575]]}}, {"type": "Feature", "properties": {"type": "trajectory", "particle": 288}, "geometry": {"type": "LineString", "coordinates": [[121.50264, 22.65867], [121.50595, 22.65833], [121.51066, 22.65797], [121.5155, 22.65791], [121.51922, 22.65826], [121.52085, 22.65903], [121.52, 22.66042], [121.51633, 22.66204], [121.51033, 22.66349], [121.50285, 22.66459], [121.50087, 22.66459]]}}, {"type": "Feature", "properties": {"type": "trajectory", "particle": 294}, "geometry": {"type": "LineString", "coordinates": [[121.50242, 22.66151], [121.50438, 22.65933], [121.50787, 22.65712], [121.5116, 22.6552], [121.51434, 22.65372], [121.5151, 22.65268], [121.51343, 22.65229], [121.50896, 22.65216], [121.50209, 22.65191], [121.49374, 22.65166]]}}, {"type": "Feature", "properties": {"type": "start", "label": "Start"}, "geometry": {"type": "Point", "coordinates": [121.50039, 22.65009]}}, {"type": "Feature", "properties": {"type": "end_center", "label": "End (mean)"}, "geometry": {"type": "Point", "coordinates": [121.50556, 22.65889]}}, {"type": "Feature", "properties": {"type": "end_hull", "label": "Spread area"}, "geometry": {"type": "Polygon", "coordinates": [[[121.61336, 22.70093], [121.60273, 22.82273], [121.47273, 22.75218], [121.42463, 22.6896], [121.42946, 22.67517], [121.46603, 22.64369], [121.48564, 22.62855], [121.49315, 22.6239], [121.52637, 22.61605], [121.60256, 22.63978], [121.61336, 22.70093]]]}}]}